{"type":"FeatureCollection","features":[{"type":"Feature","properties":{"scalerank":8,"id":797,"name":"Bernex","status":"operating","activities":["downhill"],"official_website":null},"geometry":{"type":"Point","coordinates":[6.689454764127732,46.35598163196256]}},{"type":"Feature","properties":{"scalerank":8,"id":801,"name":"Chapelle d'Abondance","status":"operating","activities":["downhill","nordic"],"official_website":"http://www.lachapelle74.com/"},"geometry":{"type":"Point","coordinates":[6.7808135986329034,46.291832447724666]}},{"type":"Feature","properties":{"scalerank":8,"id":988,"name":"Les Portes du Soleil (Morzine, Avoriaz, ​Les Gets, ​Châtel, ​Morgins, ​Champéry)","status":"operating","activities":["downhill"],"official_website":"https://www.portesdusoleil.com/"},"geometry":{"type":"Point","coordinates":[6.8032944202423105,46.19541900532242]}},{"type":"Feature","properties":{"scalerank":8,"id":4389,"name":"Abondance","status":"operating","activities":["downhill","nordic"],"official_website":"http://www.abondance.org/"},"geometry":{"type":"Point","coordinates":[6.72073211669931,46.27546106035177]}},{"type":"Feature","properties":{"scalerank":8,"id":4756,"name":"Roc d'Enfer (La Grande Terche)","status":"operating","activities":["downhill"],"official_website":"http://www.rocdenfer.com/"},"geometry":{"type":"Point","coordinates":[6.641767883300872,46.22584251209563]}},{"type":"Feature","properties":{"scalerank":8,"id":5131,"name":"Drouzin-le-Mont","status":"abandoned","activities":["downhill"],"official_website":null},"geometry":{"type":"Point","coordinates":[6.649835968017669,46.28530820578725]}},{"type":"Feature","properties":{"scalerank":8,"id":13753,"name":"Les Giettes","status":"operating","activities":["downhill"],"official_website":"https://www.telegiettes.ch"},"geometry":{"type":"Point","coordinates":[6.960113906860329,46.22233902881784]}}]}