{
"type": "FeatureCollection",
"features": [
{"type":"Feature","id":"way/599366280","properties":{"type":"way","id":599366280,"tags":{"landuse":"winter_sports","name":"La Chapelle d'Abondance","website":"https://hiver.lachapelledabondance-tourisme.com/ski/ski-alpin/domaine-skiable-chapelle-abondance/","wikidata":"Q61201217"},"relations":[],"meta":{}},"geometry":{"type":"Polygon","coordinates":[[[6.764286,46.271696],[6.765061,46.271857],[6.777902,46.274736],[6.778763,46.275018],[6.779568,46.275732],[6.779949,46.276258],[6.784356,46.284392],[6.7851151,46.2901811],[6.7851971,46.2908062],[6.7852298,46.2910556],[6.785523,46.293291],[6.782222,46.294611],[6.781037,46.294441],[6.77178,46.292974],[6.771669,46.292955],[6.770018,46.292629],[6.768301,46.292263],[6.768167,46.292232],[6.767433,46.292032],[6.76728,46.291982],[6.767141,46.291932],[6.766953,46.291855],[6.766754,46.291751],[6.766189,46.291407],[6.766011,46.291281],[6.765813,46.291113],[6.765558,46.290841],[6.765383,46.290546],[6.763863,46.287335],[6.761067,46.277216],[6.76079,46.275061],[6.76108,46.27404],[6.761595,46.27253],[6.764286,46.271696]]]}},
{"type":"Feature","id":"way/601130338","properties":{"type":"way","id":601130338,"tags":{"landuse":"winter_sports","name":"Roc d'Enfer","website":"https://www.rocdenfer.com","wikidata":"Q19407210"},"relations":[{"role":"","rel":19457834,"reltags":{"alt_name":"Les Portes du Soleil","landuse":"winter_sports","name":"Portes du Soleil","site":"piste","type":"site","website":"https://www.portesdusoleil.com/","wikidata":"Q264706","wikipedia":"fr:Portes du Soleil"}}],"meta":{}},"geometry":{"type":"Polygon","coordinates":[[[6.613743,46.196486],[6.614147,46.196507],[6.614576,46.196555],[6.615002,46.196632],[6.6153889,46.1967438],[6.615424,46.196754],[6.617986,46.197631],[6.618466,46.197834],[6.618932,46.198037],[6.619947,46.198624],[6.624791,46.201437],[6.633032,46.206515],[6.6529937,46.2136772],[6.6530417,46.2160386],[6.641317,46.215578],[6.642083,46.217003],[6.642474,46.217778],[6.6424861,46.2178696],[6.643259,46.223731],[6.6456986,46.2256303],[6.6451728,46.2280692],[6.6419252,46.2285977],[6.6406989,46.2274495],[6.6372871,46.2263733],[6.619545,46.218652],[6.596795,46.213931],[6.568809,46.214935],[6.5580725,46.2154917],[6.5573864,46.2101944],[6.5673385,46.2113945],[6.569386,46.206354],[6.561589,46.1895586],[6.5657441,46.1881254],[6.5835361,46.1935114],[6.590482,46.19792],[6.591936,46.197501],[6.592358,46.197396],[6.592772,46.197368],[6.613384,46.196489],[6.613743,46.196486]]]}},
{"type":"Feature","id":"way/601130394","properties":{"type":"way","id":601130394,"tags":{"landuse":"winter_sports","name":"Praz de Lys Sommand","website":"https://www.prazdelys-sommand.com/","wikidata":"Q3401482","wikipedia":"fr:Praz de Lys - Sommand"},"relations":[],"meta":{}},"geometry":{"type":"Polygon","coordinates":[[[6.5925838,46.1272488],[6.5933578,46.1274758],[6.5955078,46.1285398],[6.5991208,46.1340848],[6.5994298,46.1350928],[6.5988003,46.1380816],[6.5976088,46.1437378],[6.5961095,46.1487545],[6.5908888,46.1662188],[6.5898318,46.1676828],[6.5873778,46.1678178],[6.582883,46.1739248],[6.5785383,46.1731914],[6.5746291,46.1651749],[6.5598878,46.169602],[6.5524722,46.1663127],[6.5393608,46.1497598],[6.5384337,46.1481637],[6.5371207,46.1452606],[6.5380164,46.1441065],[6.5389339,46.1427735],[6.5925838,46.1272488]]]}},
{"type":"Feature","id":"way/601130395","properties":{"type":"way","id":601130395,"tags":{"landuse":"winter_sports","name":"Bernex","website":"https://www.bernex.fr"},"relations":[],"meta":{}},"geometry":{"type":"Polygon","coordinates":[[[6.711652,46.33544],[6.71211,46.335453],[6.712678,46.335474],[6.712908,46.335487],[6.713848,46.335647],[6.71455,46.335849],[6.71502,46.336025],[6.716425,46.336673],[6.716991,46.337008],[6.717446,46.337775],[6.717636,46.338541],[6.717523,46.339244],[6.717387,46.339563],[6.71727,46.339817],[6.716816,46.340557],[6.709023,46.351795],[6.708799,46.352057],[6.708513,46.352282],[6.706314,46.353607],[6.706175,46.353681],[6.70605,46.353743],[6.705899,46.353813],[6.705756,46.353875],[6.705636,46.353922],[6.705533,46.353963],[6.704921,46.354187],[6.7021038,46.3552122],[6.697724,46.356806],[6.697183,46.356987],[6.691414,46.358159],[6.690298,46.358321],[6.689386,46.358095],[6.689192,46.358047],[6.687717,46.357656],[6.682825,46.345254],[6.70075,46.336105],[6.701286,46.335993],[6.711028,46.335451],[6.711127,46.335448],[6.711652,46.33544]]]}},
{"type":"Feature","id":"way/601130398","properties":{"type":"way","id":601130398,"tags":{"landuse":"winter_sports","name":"Thollon les Mémises","website":"https://hiver.thollonlesmemises-tourisme.com/"},"relations":[],"meta":{}},"geometry":{"type":"Polygon","coordinates":[[[6.743468,46.369583],[6.744827,46.369683],[6.749282,46.370193],[6.750004,46.370352],[6.763255,46.375958],[6.764306,46.37674],[6.764777,46.377497],[6.765135,46.378684],[6.7655897,46.3791386],[6.764776,46.3795619],[6.7636428,46.3802383],[6.7648135,46.3806786],[6.7647476,46.3811641],[6.7640948,46.3814777],[6.763531,46.381779],[6.762749,46.382041],[6.7589106,46.3835661],[6.758051,46.383444],[6.7500406,46.3852095],[6.7492169,46.3853911],[6.716955,46.392501],[6.7145488,46.3912885],[6.719384,46.371761],[6.720774,46.371376],[6.743468,46.369583]]]}},
{"type":"Feature","id":"way/601130399","properties":{"type":"way","id":601130399,"tags":{"landuse":"winter_sports","name":"L’Essert – Abondance","website":"https://hiver.abondance-tourisme.com/"},"relations":[{"role":"","rel":19457834,"reltags":{"alt_name":"Les Portes du Soleil","landuse":"winter_sports","name":"Portes du Soleil","site":"piste","type":"site","website":"https://www.portesdusoleil.com/","wikidata":"Q264706","wikipedia":"fr:Portes du Soleil"}}],"meta":{}},"geometry":{"type":"Polygon","coordinates":[[[6.695001,46.256652],[6.699515,46.25711],[6.702437,46.257534],[6.712557,46.261295],[6.723227,46.2741747],[6.723694,46.275784],[6.719706,46.280094],[6.7187874,46.2804005],[6.7177668,46.2805437],[6.7163537,46.2805952],[6.7141995,46.2799718],[6.681433,46.270881],[6.681606,46.26865],[6.682109,46.267589],[6.695001,46.256652]]]}},
{"type":"Feature","id":"way/1227323697","properties":{"type":"way","id":1227323697,"tags":{"contact:website":"https://telegiettes.ch/","landuse":"winter_sports","name":"Les Giettes"},"relations":[],"meta":{}},"geometry":{"type":"Polygon","coordinates":[[[6.9487151,46.2134643],[6.9528779,46.2148451],[6.955249,46.2156469],[6.9574377,46.2174806],[6.9613321,46.2213521],[6.9584784,46.22174],[6.9541791,46.2214641],[6.9516868,46.2183257],[6.9479109,46.216834],[6.947699,46.2148853],[6.9487151,46.2134643]]]}},
{"type":"Feature","id":"way/1422098961","properties":{"type":"way","id":1422098961,"tags":{"alt_name":"Morzine-Les gets","alt_website":"www.ski-morzine.com","landuse":"winter_sports","name":"Les Gets-Morzine","operator":"Solegets & DLMorzine","website":"https://pass.lesgets.com/"},"relations":[{"role":"","rel":19457834,"reltags":{"alt_name":"Les Portes du Soleil","landuse":"winter_sports","name":"Portes du Soleil","site":"piste","type":"site","website":"https://www.portesdusoleil.com/","wikidata":"Q264706","wikipedia":"fr:Portes du Soleil"}}],"meta":{}},"geometry":{"type":"Polygon","coordinates":[[[6.6322898,46.1731104],[6.6322973,46.1730165],[6.6327618,46.1671813],[6.6426967,46.1653535],[6.658042,46.161107],[6.6564109,46.1497222],[6.6568821,46.1484913],[6.6570961,46.1469447],[6.6772865,46.1284647],[6.6835092,46.1272006],[6.6873859,46.1277464],[6.6941951,46.131002],[6.7037224,46.1292082],[6.7074955,46.1307788],[6.7137002,46.1317659],[6.7243634,46.1324324],[6.7258564,46.1349498],[6.7264435,46.1359708],[6.7291149,46.1378888],[6.7255633,46.1423567],[6.7243217,46.1470355],[6.7172836,46.1577381],[6.7182599,46.1685812],[6.7090062,46.1758325],[6.7049507,46.1787092],[6.7017264,46.1799835],[6.7007211,46.1806794],[6.6964875,46.1820314],[6.6934289,46.1865029],[6.6926094,46.186385],[6.687996,46.1858799],[6.6877599,46.1778127],[6.6837882,46.1678501],[6.6698428,46.1665434],[6.6626524,46.1730064],[6.6505288,46.1712827],[6.6447138,46.1725012],[6.6322898,46.1731104]]]}},
{"type":"Feature","id":"way/1422121628","properties":{"type":"way","id":1422121628,"tags":{"landuse":"winter_sports","name":"Avoriaz","operator":"SERMA","website":"https://www.avoriaz.com/en/discover/discover/ski-area-and-maps/"},"relations":[{"role":"","rel":19457834,"reltags":{"alt_name":"Les Portes du Soleil","landuse":"winter_sports","name":"Portes du Soleil","site":"piste","type":"site","website":"https://www.portesdusoleil.com/","wikidata":"Q264706","wikipedia":"fr:Portes du Soleil"}}],"meta":{}},"geometry":{"type":"Polygon","coordinates":[[[6.785328,46.215004],[6.7777105,46.2134747],[6.7629262,46.2157464],[6.7597719,46.2135638],[6.7683979,46.2090201],[6.7710586,46.2014909],[6.7670675,46.1991295],[6.7586561,46.1968423],[6.7410179,46.2010751],[6.7345591,46.19757],[6.7246671,46.198476],[6.7084022,46.1880339],[6.700548,46.1840011],[6.7048045,46.181286],[6.7178952,46.1845834],[6.7376791,46.1946489],[6.751927,46.1885438],[6.7558967,46.1809822],[6.7630421,46.1721119],[6.7891415,46.1649173],[6.7912052,46.1636823],[6.7966397,46.1654428],[6.8019794,46.1709362],[6.8053295,46.1730498],[6.8052726,46.1733074],[6.8049443,46.1734986],[6.8062747,46.1743089],[6.8073175,46.176973],[6.8075201,46.1774905],[6.8127191,46.1813178],[6.8116173,46.1818732],[6.8108395,46.1813578],[6.8104339,46.1812884],[6.810052,46.1813272],[6.8097559,46.1814391],[6.8095221,46.18155],[6.8093773,46.1816197],[6.8086154,46.1821512],[6.8088469,46.1825145],[6.8083613,46.1825063],[6.8089466,46.1829788],[6.8092661,46.1838835],[6.8093397,46.1841208],[6.8110836,46.1834936],[6.811167,46.1845004],[6.8110983,46.1850258],[6.8119823,46.185294],[6.8109078,46.186227],[6.8109439,46.1864198],[6.81105,46.1869862],[6.811332,46.1877739],[6.8165143,46.1855144],[6.816679,46.1857792],[6.8115338,46.1880541],[6.8116388,46.1882],[6.8122262,46.1882984],[6.8126178,46.1883188],[6.8129289,46.1882854],[6.8131059,46.1882445],[6.8135286,46.187942],[6.8143263,46.1877135],[6.8146482,46.1875463],[6.8151873,46.1871415],[6.8154751,46.1868969],[6.8159813,46.1864638],[6.8160349,46.1863319],[6.8163085,46.1861444],[6.8166714,46.1860226],[6.8168029,46.1859784],[6.8170284,46.1862923],[6.8171717,46.1866538],[6.8172789,46.1876389],[6.8172249,46.18816],[6.8168575,46.1892207],[6.816572,46.1896161],[6.8158074,46.1902109],[6.8153726,46.1904121],[6.8148482,46.1908021],[6.8147148,46.1909832],[6.8146879,46.1913328],[6.8153625,46.1914625],[6.8155127,46.1916273],[6.8153212,46.1918703],[6.814887,46.1918497],[6.8144709,46.1922041],[6.810306,46.1943231],[6.7925095,46.1980987],[6.782875,46.2063708],[6.7909089,46.2114662],[6.7901101,46.2122489],[6.7898731,46.212315],[6.7868709,46.2136404],[6.785328,46.215004]]]}},
{"type":"Feature","id":"way/1422139284","properties":{"type":"way","id":1422139284,"tags":{"alt_name":"Domaine Suisse 3CM","landuse":"winter_sports","name":"Champéry – Les Crosets – Champoussin – Morgins","website":"https://www.regiondentsdumidi.ch"},"relations":[{"role":"","rel":19457834,"reltags":{"alt_name":"Les Portes du Soleil","landuse":"winter_sports","name":"Portes du Soleil","site":"piste","type":"site","website":"https://www.portesdusoleil.com/","wikidata":"Q264706","wikipedia":"fr:Portes du Soleil"}}],"meta":{}},"geometry":{"type":"Polygon","coordinates":[[[6.7912052,46.1636823],[6.8121802,46.156983],[6.8397104,46.157964],[6.8437659,46.155675],[6.8521987,46.153713],[6.8611037,46.1580829],[6.8611353,46.1639847],[6.8463193,46.1675796],[6.8469416,46.1748311],[6.8719387,46.1747182],[6.8718099,46.1752383],[6.8468119,46.1755836],[6.8460833,46.1798085],[6.8396031,46.1849191],[6.8483793,46.1914999],[6.8671976,46.2048966],[6.8737422,46.2113117],[6.8731843,46.2159146],[6.8723046,46.2221205],[6.8650519,46.2271084],[6.8605672,46.2339216],[6.8611766,46.2381664],[6.8614684,46.2401551],[6.8722617,46.2470261],[6.8724875,46.2559577],[6.8690002,46.2553588],[6.8688185,46.2548488],[6.8683234,46.2549186],[6.8682503,46.2552054],[6.8677731,46.2551843],[6.8675679,46.2554816],[6.8653643,46.254401],[6.8629546,46.2537979],[6.8628052,46.2542117],[6.8624201,46.2541706],[6.8616306,46.2540863],[6.8597337,46.2544241],[6.8585672,46.2551869],[6.8575454,46.2560503],[6.8570442,46.2571216],[6.8559275,46.2581187],[6.8544587,46.2592945],[6.8554217,46.2552017],[6.8540547,46.253851],[6.8519884,46.2521379],[6.8505252,46.2515942],[6.8457925,46.2496663],[6.8429443,46.2485984],[6.8398013,46.2482192],[6.8396054,46.2479009],[6.8393539,46.2474923],[6.8390189,46.2467881],[6.8378462,46.2448882],[6.8378432,46.244876],[6.8380077,46.2440025],[6.8374748,46.2425478],[6.8373336,46.2419449],[6.8373394,46.2416509],[6.837345,46.2413635],[6.8371599,46.2408102],[6.8360623,46.2399063],[6.8352093,46.2395178],[6.8350441,46.2393617],[6.8349085,46.2392334],[6.8344502,46.2385355],[6.8344199,46.2377781],[6.8333115,46.2366229],[6.8330047,46.2363031],[6.8324788,46.2359642],[6.8307494,46.2344674],[6.8322274,46.2214468],[6.8247943,46.2119422],[6.8218457,46.2047327],[6.8264161,46.1938655],[6.8167173,46.1933159],[6.8144709,46.1922041],[6.814887,46.1918497],[6.8153212,46.1918703],[6.8155127,46.1916273],[6.8153625,46.1914625],[6.8146879,46.1913328],[6.8147148,46.1909832],[6.8148482,46.1908021],[6.8153726,46.1904121],[6.8158074,46.1902109],[6.816572,46.1896161],[6.8168575,46.1892207],[6.8172249,46.18816],[6.8172789,46.1876389],[6.8171717,46.1866538],[6.8170284,46.1862923],[6.8168029,46.1859784],[6.8166714,46.1860226],[6.8163085,46.1861444],[6.8160349,46.1863319],[6.8159813,46.1864638],[6.8154751,46.1868969],[6.8151873,46.1871415],[6.8146482,46.1875463],[6.8143263,46.1877135],[6.8135286,46.187942],[6.8131059,46.1882445],[6.8129289,46.1882854],[6.8126178,46.1883188],[6.8122262,46.1882984],[6.8116388,46.1882],[6.8115338,46.1880541],[6.816679,46.1857792],[6.8165143,46.1855144],[6.811332,46.1877739],[6.81105,46.1869862],[6.8109439,46.1864198],[6.8109078,46.186227],[6.8119823,46.185294],[6.8110983,46.1850258],[6.811167,46.1845004],[6.8110836,46.1834936],[6.8093397,46.1841208],[6.8092661,46.1838835],[6.8089466,46.1829788],[6.8083613,46.1825063],[6.8088469,46.1825145],[6.8086154,46.1821512],[6.8093773,46.1816197],[6.8095221,46.18155],[6.8097559,46.1814391],[6.810052,46.1813272],[6.8104339,46.1812884],[6.8108395,46.1813578],[6.8116173,46.1818732],[6.8127191,46.1813178],[6.8075201,46.1774905],[6.8073175,46.176973],[6.8062747,46.1743089],[6.8049443,46.1734986],[6.8052726,46.1733074],[6.8053295,46.1730498],[6.8019794,46.1709362],[6.7966397,46.1654428],[6.7912052,46.1636823]]]}},
{"type":"Feature","id":"way/1422165435","properties":{"type":"way","id":1422165435,"tags":{"alt_name":"Châtel","landuse":"winter_sports","name":"Espace Liberté","operator":"SELCA & SAEM & SETT","website":"https://en.chatel.com/chatel-and-portes-du-soleil-ski-areas.html"},"relations":[{"role":"","rel":19457834,"reltags":{"alt_name":"Les Portes du Soleil","landuse":"winter_sports","name":"Portes du Soleil","site":"piste","type":"site","website":"https://www.portesdusoleil.com/","wikidata":"Q264706","wikipedia":"fr:Portes du Soleil"}}],"meta":{}},"geometry":{"type":"Polygon","coordinates":[[[6.785328,46.215004],[6.7868709,46.2136404],[6.7898731,46.212315],[6.7901101,46.2122489],[6.7909089,46.2114662],[6.7930674,46.2106566],[6.7974587,46.2103638],[6.8011284,46.2089926],[6.8059539,46.2088201],[6.8101441,46.2154043],[6.8139558,46.2266132],[6.8218603,46.2272515],[6.820487,46.2333335],[6.8218388,46.2417784],[6.8220543,46.2436621],[6.8253159,46.2442409],[6.8285594,46.2509399],[6.8453543,46.2544861],[6.8524353,46.2642436],[6.8604176,46.2603865],[6.867647,46.2556198],[6.8677731,46.2551843],[6.8682503,46.2552054],[6.8683234,46.2549186],[6.8688185,46.2548488],[6.8690002,46.2553588],[6.8724875,46.2559577],[6.8747293,46.2782623],[6.8735706,46.2840904],[6.8630992,46.2906296],[6.8614684,46.2977759],[6.8630563,46.3030979],[6.8711244,46.3131921],[6.870309,46.3148372],[6.8678199,46.315845],[6.8585931,46.3078266],[6.8531,46.3073374],[6.8335091,46.309872],[6.8269645,46.3100796],[6.8243896,46.3104056],[6.8132745,46.3058699],[6.8078028,46.3039577],[6.807953,46.3027273],[6.8095623,46.300815],[6.7977305,46.2929495],[6.7894104,46.2957366],[6.7828422,46.2957136],[6.782222,46.294611],[6.781037,46.294441],[6.77178,46.292974],[6.770018,46.292629],[6.768301,46.292263],[6.768167,46.292232],[6.767433,46.292032],[6.76728,46.291982],[6.767141,46.291932],[6.766953,46.291855],[6.766754,46.291751],[6.766189,46.291407],[6.766011,46.291281],[6.765813,46.291113],[6.765558,46.290841],[6.765383,46.290546],[6.763863,46.287335],[6.761067,46.277216],[6.76079,46.275061],[6.761595,46.27253],[6.764286,46.271696],[6.765061,46.271857],[6.777902,46.274736],[6.778763,46.275018],[6.779568,46.275732],[6.779949,46.276258],[6.784356,46.284392],[6.7851971,46.2908062],[6.798174,46.2881892],[6.7990695,46.28931],[6.8040176,46.2922232],[6.8270846,46.3003773],[6.8456455,46.3040092],[6.848199,46.3028974],[6.8452378,46.2954998],[6.8350883,46.2807608],[6.8305178,46.2753714],[6.8396373,46.2668426],[6.8433495,46.2613687],[6.8344446,46.2589802],[6.8324752,46.2592353],[6.8316645,46.2588489],[6.83176,46.257541],[6.8255182,46.254188],[6.8204756,46.2556421],[6.818759,46.251265],[6.8164201,46.2455818],[6.8147035,46.2394379],[6.8127294,46.2318685],[6.8044468,46.2306513],[6.7928382,46.2361134],[6.7887397,46.2356682],[6.7854138,46.2327739],[6.7876025,46.2239862],[6.785328,46.215004]]]}},
{"type":"Feature","id":"node/616947","properties":{"type":"node","id":616947,"tags":{"created_by":"JOSM"},"relations":[],"meta":{}},"geometry":{"type":"Point","coordinates":[6.8172249,46.18816]}},
{"type":"Feature","id":"node/616951","properties":{"type":"node","id":616951,"tags":{"created_by":"JOSM"},"relations":[],"meta":{}},"geometry":{"type":"Point","coordinates":[6.8158074,46.1902109]}},
{"type":"Feature","id":"node/616952","properties":{"type":"node","id":616952,"tags":{"created_by":"JOSM"},"relations":[],"meta":{}},"geometry":{"type":"Point","coordinates":[6.8148482,46.1908021]}},
{"type":"Feature","id":"node/616953","properties":{"type":"node","id":616953,"tags":{"created_by":"JOSM"},"relations":[],"meta":{}},"geometry":{"type":"Point","coordinates":[6.8147148,46.1909832]}},
{"type":"Feature","id":"node/616954","properties":{"type":"node","id":616954,"tags":{"created_by":"JOSM"},"relations":[],"meta":{}},"geometry":{"type":"Point","coordinates":[6.8146879,46.1913328]}},
{"type":"Feature","id":"node/1644021974","properties":{"type":"node","id":1644021974,"tags":{"aerialway":"station","name":"Cuboré","public_transport":"station"},"relations":[],"meta":{}},"geometry":{"type":"Point","coordinates":[6.8109078,46.186227]}}
]
}
