{"type": "FeatureCollection", "features":[
{"type":"Feature","properties":{"type":"skiArea","name":"Roc d'Enfer","sources":[{"type":"openstreetmap","id":"relation/5757156"}],"activities":[],"generated":false,"status":"operating","websites":[],"runConvention":"north_america","location":null,"id":"8f52a4cffc57a788e69b889d7b5c12197a606047"},"geometry":{"type":"Point","coordinates":[360,360,5757156]}}
,
{"type":"Feature","properties":{"type":"skiArea","name":"Praz de Lys Sommand","sources":[{"type":"openstreetmap","id":"relation/5757942"}],"activities":[],"generated":false,"status":"operating","websites":[],"runConvention":"north_america","location":null,"id":"17a2aed27cfa6b593c5df9770900555623db6adf"},"geometry":{"type":"Point","coordinates":[360,360,5757942]}}
,
{"type":"Feature","properties":{"type":"skiArea","name":"Bernex","sources":[{"type":"openstreetmap","id":"relation/5759124"}],"activities":[],"generated":false,"status":"operating","websites":[],"runConvention":"north_america","location":null,"id":"19b6e308caa6766b21cb00e4fb40a82c4ee1f95b"},"geometry":{"type":"Point","coordinates":[360,360,5759124]}}
,
{"type":"Feature","properties":{"type":"skiArea","name":"Thollon-les-Mémises","sources":[{"type":"openstreetmap","id":"relation/5759134"}],"activities":[],"generated":false,"status":"operating","websites":[],"runConvention":"north_america","location":null,"id":"d3c7b897d3dac0b590961eb352677d3070e52fe1"},"geometry":{"type":"Point","coordinates":[360,360,5759134]}}
,
{"type":"Feature","properties":{"type":"skiArea","name":"Abondance","sources":[{"type":"openstreetmap","id":"relation/5763633"}],"activities":[],"generated":false,"status":"operating","websites":[],"runConvention":"north_america","location":null,"id":"d3d69f021189f84fe11396cd2078f905ebd0beb9"},"geometry":{"type":"Point","coordinates":[360,360,5763633]}}
,
{"type":"Feature","properties":{"type":"skiArea","name":"La Chapelle d'Abondance","sources":[{"type":"openstreetmap","id":"relation/5763676"}],"activities":[],"generated":false,"status":"operating","websites":[],"runConvention":"north_america","location":null,"id":"8ab6f8a4372774042033a0721b21c2fbb8df2c9c"},"geometry":{"type":"Point","coordinates":[360,360,5763676]}}
,
{"type":"Feature","properties":{"type":"skiArea","name":"Châtel","sources":[{"type":"openstreetmap","id":"relation/5763952"}],"activities":[],"generated":false,"status":"operating","websites":[],"runConvention":"north_america","location":null,"id":"cd9575d80e0c47ed91caa814eae2093f13bc9e67"},"geometry":{"type":"Point","coordinates":[360,360,5763952]}}
,
{"type":"Feature","properties":{"type":"skiArea","name":"Bernex","sources":[{"type":"skimap.org","id":797}],"activities":["downhill"],"generated":false,"status":"operating","runConvention":"europe","websites":[],"location":null,"id":"13a79553b2362b1ae8ee75ac5298eaf27315399e"},"geometry":{"type":"Point","coordinates":[6.689454764127731,46.35598163196254]}}
,
{"type":"Feature","properties":{"type":"skiArea","name":"Chapelle d'Abondance","sources":[{"type":"skimap.org","id":801}],"activities":["downhill","nordic"],"generated":false,"status":"operating","runConvention":"europe","websites":["http://www.lachapelle74.com/"],"location":null,"id":"0975b4d682dd2c43d65740964767efac534a259f"},"geometry":{"type":"Point","coordinates":[6.780813598632903,46.291832447724666]}}
,
{"type":"Feature","properties":{"type":"skiArea","name":"Les Portes du Soleil (Morzine, Avoriaz, ​Les Gets, ​Châtel, ​Morgins, ​Champéry)","sources":[{"type":"skimap.org","id":988}],"activities":["downhill"],"generated":false,"status":"operating","runConvention":"europe","websites":["https://www.portesdusoleil.com/"],"location":null,"id":"2f2a53a0ad250ced09225536008c9e9a6e511132"},"geometry":{"type":"Point","coordinates":[6.803294420242311,46.19541900532242]}}
,
{"type":"Feature","properties":{"type":"skiArea","name":"Abondance","sources":[{"type":"skimap.org","id":4389}],"activities":["downhill","nordic"],"generated":false,"status":"operating","runConvention":"europe","websites":["http://www.abondance.org/"],"location":null,"id":"3d45c331d7e8401bd986ae44ce501b7f005c1387"},"geometry":{"type":"Point","coordinates":[6.72073211669931,46.27546106035177]}}
,
{"type":"Feature","properties":{"type":"skiArea","name":"Roc d'Enfer (La Grande Terche)","sources":[{"type":"skimap.org","id":4756}],"activities":["downhill"],"generated":false,"status":"operating","runConvention":"europe","websites":["http://www.rocdenfer.com/"],"location":null,"id":"05d417a69dc85c4b7e4e64f35a74581be9ab6b7b"},"geometry":{"type":"Point","coordinates":[6.641767883300873,46.22584251209563]}}
,
{"type":"Feature","properties":{"type":"skiArea","name":"Drouzin-le-Mont","sources":[{"type":"skimap.org","id":5131}],"activities":["downhill"],"generated":false,"status":"abandoned","runConvention":"europe","websites":[],"location":null,"id":"311a9a46ab4f52c89ec5d37896d3b2b1a95aa44c"},"geometry":{"type":"Point","coordinates":[6.649835968017668,46.28530820578725]}}
,
{"type":"Feature","properties":{"type":"skiArea","name":"Les Giettes","sources":[{"type":"skimap.org","id":13753}],"activities":["downhill"],"generated":false,"status":"operating","runConvention":"europe","websites":["https://www.telegiettes.ch"],"location":null,"id":"b91fdb4a7a46d47042aff9e1029ae892343cc570"},"geometry":{"type":"Point","coordinates":[6.960113906860329,46.222339028817856]}}
,
{"type":"Feature","properties":{"type":"skiArea","name":"La Chapelle d'Abondance","sources":[{"type":"openstreetmap","id":"way/599366280"}],"activities":[],"generated":false,"status":"operating","websites":["https://hiver.lachapelledabondance-tourisme.com/ski/ski-alpin/domaine-skiable-chapelle-abondance/"],"runConvention":"europe","location":null,"id":"da6b018861f3e272177b3f8543d936c24d5d183d"},"geometry":{"type":"Polygon","coordinates":[[[6.764285999999999,46.271696],[6.765061,46.271857],[6.777902,46.274736000000004],[6.778763000000001,46.27501800000001],[6.779568000000001,46.27573200000001],[6.779949000000001,46.276258000000006],[6.784356,46.284392000000004],[6.7851151,46.290181100000005],[6.785523,46.293291],[6.782222000000001,46.294611],[6.781037,46.294441],[6.771780000000001,46.29297400000001],[6.771669000000002,46.29295500000001],[6.770018,46.292629000000005],[6.768301,46.292263000000005],[6.768167,46.29223200000001],[6.767433,46.29203200000001],[6.7672799999999995,46.291982000000004],[6.767141,46.29193200000001],[6.766953,46.291855000000005],[6.766754,46.291751000000005],[6.766189,46.291407],[6.766011,46.291281],[6.765813,46.29111300000001],[6.7655579999999995,46.290841],[6.765383,46.290546000000006],[6.763863000000001,46.287335000000006],[6.761067000000001,46.277216],[6.76079,46.275061],[6.76108,46.27404],[6.761595,46.27253000000001],[6.764285999999999,46.271696]]]}}
,
{"type":"Feature","properties":{"type":"skiArea","name":"Roc d'Enfer","sources":[{"type":"openstreetmap","id":"way/601130338"}],"activities":[],"generated":false,"status":"operating","websites":["https://www.rocdenfer.com"],"runConvention":"europe","location":null,"id":"cdfb43339eee7b60ed103a640db95229924afc06"},"geometry":{"type":"Polygon","coordinates":[[[6.613743,46.196486],[6.614146999999999,46.196507000000004],[6.614575999999999,46.19655500000001],[6.615002,46.19663200000001],[6.615423999999999,46.196754000000006],[6.617985999999998,46.197631],[6.618466,46.197834],[6.618931999999999,46.19803700000001],[6.619947,46.198624],[6.624790999999999,46.201437],[6.633032,46.20651500000001],[6.6529937,46.2136772],[6.6530417,46.216038600000005],[6.641317,46.21557800000001],[6.6420829999999995,46.217003],[6.642473999999999,46.217778],[6.6432590000000005,46.22373100000001],[6.6456986,46.22563030000001],[6.645172799999999,46.22806920000001],[6.641925199999999,46.22859770000001],[6.6406989,46.2274495],[6.6372871,46.22637330000001],[6.619545,46.218652000000006],[6.596795,46.213931],[6.568809,46.214935000000004],[6.5580725,46.2154917],[6.5573863999999995,46.2101944],[6.567338499999999,46.2113945],[6.569386,46.206354000000005],[6.561589,46.189558600000005],[6.5657441,46.188125400000004],[6.5835361,46.193511400000006],[6.590482,46.19792],[6.591936,46.197501],[6.592358,46.197396000000005],[6.592772,46.197368000000004],[6.613383999999999,46.196489],[6.613743,46.196486]]]}}
,
{"type":"Feature","properties":{"type":"skiArea","name":"Praz de Lys Sommand","sources":[{"type":"openstreetmap","id":"way/601130394"}],"activities":[],"generated":false,"status":"operating","websites":["https://www.prazdelys-sommand.com/"],"runConvention":"europe","location":null,"id":"448dab09d7d4e298f43d574344ed80d9e0c6cdd6"},"geometry":{"type":"Polygon","coordinates":[[[6.592583799999999,46.127248800000004],[6.5933578,46.127475800000006],[6.595507799999999,46.12853980000001],[6.5991208,46.1340848],[6.5994298,46.13509280000001],[6.5988003,46.1380816],[6.5976088,46.143737800000004],[6.5961095,46.1487545],[6.590888799999999,46.16621880000001],[6.5898318,46.1676828],[6.5873778,46.1678178],[6.582883,46.1739248],[6.5785383,46.1731914],[6.574629100000001,46.16517490000001],[6.559887799999999,46.169602000000005],[6.5524721999999995,46.16631270000001],[6.539360800000001,46.149759800000005],[6.538433700000001,46.148163700000005],[6.5371207,46.1452606],[6.5380164,46.1441065],[6.5389339,46.142773500000004],[6.592583799999999,46.127248800000004]]]}}
,
{"type":"Feature","properties":{"type":"skiArea","name":"Bernex","sources":[{"type":"openstreetmap","id":"way/601130395"}],"activities":[],"generated":false,"status":"operating","websites":["https://www.bernex.fr"],"runConvention":"europe","location":null,"id":"f21445939d83916fc3b8e2cfd4a2b5b7e0d1dcd4"},"geometry":{"type":"Polygon","coordinates":[[[6.711652000000001,46.33544],[6.712109999999999,46.335453],[6.712678,46.335474],[6.712908,46.33548699999999],[6.7138480000000005,46.335646999999994],[6.714549999999999,46.335848999999996],[6.71502,46.336025],[6.716425,46.336673],[6.716991,46.337008],[6.717446,46.337775],[6.717636,46.338541],[6.717523,46.339243999999994],[6.7173869999999996,46.339563],[6.71727,46.339817],[6.716816,46.340557],[6.709023000000001,46.351794999999996],[6.708799000000001,46.352056999999995],[6.708513,46.352281999999995],[6.706314,46.35360699999999],[6.706175,46.35368099999999],[6.70605,46.353742999999994],[6.7058990000000005,46.353812999999995],[6.705756,46.353874999999995],[6.705636,46.353922],[6.705533,46.35396299999999],[6.704921,46.35418699999999],[6.7021038,46.355212200000004],[6.697723999999999,46.35680599999999],[6.697182999999999,46.35698699999999],[6.691413999999999,46.358159],[6.690298,46.358321],[6.689386,46.358095],[6.689192,46.35804699999999],[6.687716999999999,46.35765599999999],[6.682824999999999,46.345254],[6.70075,46.336105],[6.7012860000000005,46.335993],[6.711028000000001,46.335451],[6.711127,46.335448],[6.711652000000001,46.33544]]]}}
,
{"type":"Feature","properties":{"type":"skiArea","name":"Thollon les Mémises","sources":[{"type":"openstreetmap","id":"way/601130398"}],"activities":[],"generated":false,"status":"operating","websites":["https://hiver.thollonlesmemises-tourisme.com/"],"runConvention":"europe","location":null,"id":"de301dffa28074e9d7b13093487d7953f3bf396c"},"geometry":{"type":"Polygon","coordinates":[[[6.743468000000001,46.369583],[6.744827,46.369682999999995],[6.749282000000001,46.370193],[6.750004,46.370352000000004],[6.763255,46.375958000000004],[6.7643059999999995,46.37674],[6.764777,46.37749699999999],[6.765134999999999,46.37868399999999],[6.7655897,46.379138600000005],[6.7647759999999995,46.3795619],[6.7636428,46.3802383],[6.764813499999999,46.380678599999996],[6.7647476,46.38116409999999],[6.764094799999999,46.38147769999999],[6.7635309999999995,46.381778999999995],[6.762749,46.382040999999994],[6.758910599999999,46.383566099999996],[6.758051,46.38344399999999],[6.716955,46.392501],[6.714548799999999,46.391288499999995],[6.719384,46.37176099999999],[6.720774,46.371376],[6.743468000000001,46.369583]]]}}
,
{"type":"Feature","properties":{"type":"skiArea","name":"L’Essert – Abondance","sources":[{"type":"openstreetmap","id":"way/601130399"}],"activities":[],"generated":false,"status":"operating","websites":["https://hiver.abondance-tourisme.com/"],"runConvention":"europe","location":null,"id":"58a7fbe251471c5ea4f91ccf759f4149b6c3ac8e"},"geometry":{"type":"Polygon","coordinates":[[[6.6950009999999995,46.256652],[6.699514999999999,46.257110000000004],[6.702437,46.257534],[6.712556999999999,46.261295000000004],[6.7232270000000005,46.2741747],[6.723694,46.275784],[6.719706,46.280094],[6.7187874,46.2804005],[6.7177668,46.2805437],[6.716353700000001,46.28059520000001],[6.714199499999999,46.279971800000006],[6.681433,46.270880999999996],[6.681606,46.26865000000001],[6.682109,46.267589],[6.6950009999999995,46.256652]]]}}
,
{"type":"Feature","properties":{"type":"skiArea","name":"Portes du Soleil","sources":[{"type":"openstreetmap","id":"way/742636566"}],"activities":[],"generated":false,"status":"operating","websites":["https://www.portesdusoleil.com/"],"runConvention":"europe","location":null,"id":"047f22907bcc1888d7c1836c647ea56b013f99db"},"geometry":{"type":"Polygon","coordinates":[[[6.751927,46.188543800000005],[6.7558967,46.1809822],[6.763042100000001,46.17211190000001],[6.7891415,46.164917300000006],[6.7912052,46.163682300000005],[6.8121801999999985,46.156983],[6.8397104,46.15796399999999],[6.8437659,46.155675],[6.8521987,46.153713],[6.8611037,46.158082900000004],[6.861135299999999,46.1639847],[6.8463193,46.1675796],[6.8469416,46.1748311],[6.8460833,46.1798085],[6.8396031000000015,46.1849191],[6.8483793,46.191499900000004],[6.867197599999999,46.2048966],[6.873742200000001,46.2113117],[6.873184299999999,46.215914600000005],[6.8723046,46.22212050000001],[6.865051899999999,46.227108400000006],[6.860567199999999,46.2339216],[6.861176599999999,46.238166400000004],[6.861468400000001,46.24015510000001],[6.872261700000001,46.2470261],[6.8722402,46.251427199999995],[6.872326,46.2543501],[6.8747293,46.27826230000001],[6.8735706,46.2840904],[6.8630992,46.2906296],[6.861468400000001,46.29777590000001],[6.863056299999999,46.3030979],[6.8711244,46.3131921],[6.870309000000001,46.31483719999999],[6.867819899999999,46.315844999999996],[6.8585931,46.30782659999999],[6.8530999999999995,46.307337399999994],[6.833509100000001,46.309872],[6.826964499999999,46.310079599999995],[6.824389599999999,46.310405599999996],[6.8132744999999995,46.3058699],[6.807802799999999,46.3039577],[6.8079529999999995,46.3027273],[6.8095623000000005,46.300815],[6.7972456,46.29177130000001],[6.799069500000001,46.28931000000001],[6.804017599999999,46.29222320000001],[6.827084599999998,46.3003773],[6.8456455,46.304009199999996],[6.848199,46.30289739999999],[6.8452378,46.29549980000001],[6.8350883,46.2807608],[6.830517799999999,46.275371400000004],[6.839637300000001,46.266842600000004],[6.8433495,46.261368700000006],[6.834444599999999,46.2589802],[6.833523700000001,46.2584858],[6.8255181999999985,46.254188],[6.820475599999999,46.2556421],[6.818759,46.251265],[6.8164201,46.245581800000004],[6.814703499999999,46.239437900000006],[6.8127294,46.2318685],[6.804446799999999,46.230651300000005],[6.792838199999999,46.23611340000001],[6.788739700000001,46.235668200000006],[6.7854138,46.23277390000001],[6.7876025,46.223986200000006],[6.785328000000001,46.215004],[6.7777104999999995,46.2134747],[6.762926199999999,46.2157464],[6.7597719000000005,46.2135638],[6.7613642,46.21272510000001],[6.762527199999999,46.21211250000001],[6.762587799999999,46.2120806],[6.7683979,46.209020100000004],[6.768827,46.207805900000004],[6.771058600000001,46.2014909],[6.7670675,46.199129500000005],[6.7586561000000005,46.19684230000001],[6.7545077,46.1978379],[6.753222200000001,46.198146400000006],[6.7410179,46.201075100000004],[6.7345591,46.197570000000006],[6.7246671000000005,46.19847600000001],[6.7165776,46.19309930000001],[6.711221400000001,46.1897807],[6.7084022,46.18803390000001],[6.702086899999999,46.1874082],[6.6967531000000005,46.1868797],[6.6952798,46.186733700000005],[6.6950506999999995,46.186711],[6.694274499999999,46.18662449999999],[6.6934289,46.18650290000001],[6.6926094,46.186385],[6.687995999999999,46.1858799],[6.687913999999998,46.1830799],[6.6877599,46.177812700000004],[6.6871016999999995,46.1761617],[6.6837881999999995,46.1678501],[6.6698428,46.1665434],[6.6626524,46.1730064],[6.650528799999999,46.1712827],[6.644713799999999,46.172501200000006],[6.6322898,46.173110400000006],[6.6327618,46.1671813],[6.6426967,46.16535350000001],[6.659455199999999,46.16197390000001],[6.6566485,46.1506784],[6.656410899999999,46.14972220000001],[6.6568821,46.1484913],[6.657770799999999,46.1476192],[6.677286499999999,46.1284647],[6.6835092,46.1272006],[6.703722400000001,46.12920820000001],[6.707495499999999,46.13077880000001],[6.7137002,46.131765900000005],[6.7243634000000005,46.132432400000006],[6.7258564,46.1349498],[6.7264435,46.13597080000001],[6.7291074,46.1378881],[6.7255633,46.14235670000001],[6.7243217,46.1470355],[6.7220225,46.15053210000001],[6.7172836,46.1577381],[6.7182599000000005,46.168581200000006],[6.717895199999999,46.184583399999994],[6.737679100000001,46.194648900000004],[6.7407513,46.19333250000001],[6.751927,46.188543800000005]]]}}
,
{"type":"Feature","properties":{"type":"skiArea","name":"Les Giettes","sources":[{"type":"openstreetmap","id":"way/1227323697"}],"activities":[],"generated":false,"status":"operating","websites":[],"runConvention":"europe","location":null,"id":"8f07b9ac021ebed390c958a9f1f17fc7c119b682"},"geometry":{"type":"Polygon","coordinates":[[[6.9487151,46.2134643],[6.9528779,46.2148451],[6.955249000000001,46.2156469],[6.9574377,46.217480599999995],[6.961332100000001,46.22135210000001],[6.958478400000001,46.221740000000004],[6.9541791,46.2214641],[6.9516868,46.21832570000001],[6.947910899999999,46.216834],[6.947699000000001,46.2148853],[6.9487151,46.2134643]]]}}
]}
