{"type": "FeatureCollection", "features":[
{"properties":{"activities":["downhill","nordic"],"generated":false,"id":"17a2aed27cfa6b593c5df9770900555623db6adf","location":null,"name":"Praz de Lys Sommand","runConvention":"europe","sources":[{"type":"openstreetmap","id":"relation/5757942"}],"status":"operating","type":"skiArea","websites":[],"statistics":{"runs":{"byActivity":{"nordic":{"byDifficulty":{"easy":{"count":2,"lengthInKm":2.7080957967904493},"advanced":{"count":1,"lengthInKm":1.6735401828743783},"novice":{"count":2,"lengthInKm":4.69572797613821}}},"downhill":{"byDifficulty":{"advanced":{"count":1,"lengthInKm":0.710083053355603},"easy":{"count":12,"lengthInKm":7.018886853689327},"intermediate":{"count":3,"lengthInKm":4.089588651887255},"novice":{"count":4,"lengthInKm":1.6278058565631273}}}}},"lifts":{"byType":{"chair_lift":{"count":1,"lengthInKm":0.8784984406322544},"platter":{"count":7,"lengthInKm":3.9598028011203255}}}}},"type":"Feature","geometry":{"coordinates":[6.590637252852345,46.145553525671176],"type":"Point"}}
,
{"properties":{"activities":["downhill","nordic"],"generated":false,"id":"d3c7b897d3dac0b590961eb352677d3070e52fe1","location":null,"name":"Thollon-les-Mémises","runConvention":"europe","sources":[{"type":"openstreetmap","id":"relation/5759134"}],"status":"operating","type":"skiArea","websites":[],"statistics":{"runs":{"byActivity":{"nordic":{"byDifficulty":{"easy":{"count":1,"lengthInKm":2.7310513179149543},"novice":{"count":6,"lengthInKm":1.2784125187697228},"other":{"count":7,"lengthInKm":3.876574534076834}}},"downhill":{"byDifficulty":{"novice":{"count":6,"lengthInKm":1.2784125187697228},"easy":{"count":4,"lengthInKm":1.7584145925299142},"intermediate":{"count":11,"lengthInKm":7.132879308771937},"other":{"count":1,"lengthInKm":0.23382743618618387}}}}},"lifts":{"byType":{"chair_lift":{"count":1,"lengthInKm":1.2279615266959545},"platter":{"count":5,"lengthInKm":2.1810394249279397}}}}},"type":"Feature","geometry":{"coordinates":[6.727549235089981,46.377204113881774],"type":"Point"}}
,
{"properties":{"activities":["downhill"],"generated":false,"id":"cd9575d80e0c47ed91caa814eae2093f13bc9e67","location":null,"name":"Châtel","runConvention":"europe","sources":[{"type":"openstreetmap","id":"relation/5763952"}],"status":"operating","type":"skiArea","websites":[],"statistics":{"runs":{"byActivity":{"downhill":{"byDifficulty":{"intermediate":{"count":13,"lengthInKm":11.543268936244935},"easy":{"count":12,"lengthInKm":3.9160717398283142},"advanced":{"count":3,"lengthInKm":1.9894439378736692}}}}},"lifts":{"byType":{"chair_lift":{"count":11,"lengthInKm":13.32877264575267},"platter":{"count":3,"lengthInKm":1.3101032156417378},"drag_lift":{"count":4,"lengthInKm":2.0861943449936713},"gondola":{"count":1,"lengthInKm":1.1433320855243352},"magic_carpet":{"count":2,"lengthInKm":0.2567952319193317}}}}},"type":"Feature","geometry":{"coordinates":[6.832894065684521,46.253749380487314],"type":"Point"}}
,
{"properties":{"activities":["downhill"],"generated":false,"id":"19b6e308caa6766b21cb00e4fb40a82c4ee1f95b","location":null,"name":"Bernex","runConvention":"europe","sources":[{"type":"openstreetmap","id":"relation/5759124"},{"type":"skimap.org","id":797}],"status":"operating","type":"skiArea","websites":[],"statistics":{"runs":{"byActivity":{"downhill":{"byDifficulty":{"easy":{"count":22,"lengthInKm":7.040972946126126},"intermediate":{"count":13,"lengthInKm":6.502582402286784},"novice":{"count":2,"lengthInKm":0.28642061005951225},"advanced":{"count":4,"lengthInKm":1.4190410677278753},"other":{"count":3,"lengthInKm":0.39431647388150104}}}}},"lifts":{"byType":{"chair_lift":{"count":3,"lengthInKm":2.810208761445146},"j-bar":{"count":1,"lengthInKm":0.5676522137120122},"drag_lift":{"count":5,"lengthInKm":1.4931573056843268},"platter":{"count":1,"lengthInKm":0.1400821201278513}}}}},"type":"Feature","geometry":{"coordinates":[6.703359082496435,46.35078111726398],"type":"Point"}}
,
{"properties":{"activities":["downhill","nordic"],"generated":false,"id":"d3d69f021189f84fe11396cd2078f905ebd0beb9","location":null,"name":"Abondance","runConvention":"europe","sources":[{"type":"openstreetmap","id":"relation/5763633"},{"type":"skimap.org","id":4389}],"status":"operating","type":"skiArea","websites":["http://www.abondance.org/"],"statistics":{"runs":{"byActivity":{"downhill":{"byDifficulty":{"novice":{"count":4,"lengthInKm":0.7641489557916331},"easy":{"count":9,"lengthInKm":5.515947095930937},"advanced":{"count":1,"lengthInKm":0.2583752277542806},"intermediate":{"count":4,"lengthInKm":3.0047935546470113},"other":{"count":1,"lengthInKm":0.09278737072902142}}}}},"lifts":{"byType":{"gondola":{"count":1,"lengthInKm":1.698410427668112},"platter":{"count":7,"lengthInKm":4.419543356511619},"magic_carpet":{"count":1,"lengthInKm":0.10194325974189512}}}}},"type":"Feature","geometry":{"coordinates":[6.727824028307758,46.28270121642974],"type":"Point"}}
,
{"properties":{"activities":["downhill","nordic"],"generated":false,"id":"8ab6f8a4372774042033a0721b21c2fbb8df2c9c","location":null,"name":"La Chapelle d'Abondance","runConvention":"europe","sources":[{"type":"openstreetmap","id":"relation/5763676"},{"type":"skimap.org","id":801}],"status":"operating","type":"skiArea","websites":["http://www.lachapelle74.com/"],"statistics":{"runs":{"byActivity":{"downhill":{"byDifficulty":{"novice":{"count":17,"lengthInKm":7.881020788089957},"easy":{"count":18,"lengthInKm":8.63354680702558},"intermediate":{"count":9,"lengthInKm":3.8907640160480415},"other":{"count":1,"lengthInKm":0.08068372639339622}}}}},"lifts":{"byType":{"chair_lift":{"count":3,"lengthInKm":3.2990679547577937},"platter":{"count":4,"lengthInKm":2.369661583491676},"drag_lift":{"count":1,"lengthInKm":0.17653366587440514},"gondola":{"count":1,"lengthInKm":1.4748696026684467}}}}},"type":"Feature","geometry":{"coordinates":[6.791624848587316,46.290569091804414],"type":"Point"}}
,
{"properties":{"activities":["downhill","nordic"],"generated":false,"id":"8f52a4cffc57a788e69b889d7b5c12197a606047","location":null,"name":"Roc d'Enfer","runConvention":"europe","sources":[{"type":"openstreetmap","id":"relation/5757156"},{"type":"skimap.org","id":4756}],"status":"operating","type":"skiArea","websites":["http://www.rocdenfer.com/"],"statistics":{"runs":{"byActivity":{"downhill":{"byDifficulty":{"intermediate":{"count":29,"lengthInKm":17.176112033413222},"easy":{"count":15,"lengthInKm":6.101465941948144},"novice":{"count":6,"lengthInKm":2.9417214367970996},"advanced":{"count":2,"lengthInKm":0.6357580007678949},"other":{"count":7,"lengthInKm":3.5623555645854164}}},"nordic":{"byDifficulty":{"intermediate":{"count":1,"lengthInKm":0.8303293543166227},"other":{"count":1,"lengthInKm":0.04945200505826615}}}}},"lifts":{"byType":{"gondola":{"count":1,"lengthInKm":1.4568963152270507},"chair_lift":{"count":4,"lengthInKm":3.3858175694115102},"platter":{"count":7,"lengthInKm":3.2462403817407774}}}}},"type":"Feature","geometry":{"coordinates":[6.606972411803361,46.21018333713274],"type":"Point"}}
,
{"properties":{"activities":["downhill"],"generated":false,"id":"8f07b9ac021ebed390c958a9f1f17fc7c119b682","location":null,"name":"Les Giettes","runConvention":"europe","sources":[{"type":"openstreetmap","id":"way/1227323697"},{"type":"skimap.org","id":13753}],"status":"operating","type":"skiArea","websites":["https://www.telegiettes.ch"],"statistics":{"runs":{"byActivity":{"downhill":{"byDifficulty":{"easy":{"count":1,"lengthInKm":0.8290423179238223},"intermediate":{"count":1,"lengthInKm":0.65229674966183}}}}},"lifts":{"byType":{"drag_lift":{"count":2,"lengthInKm":1.3089626308954156}}}}},"type":"Feature","geometry":{"coordinates":[[[6.9487151,46.2134643],[6.9528779,46.2148451],[6.955249000000002,46.2156469],[6.9574377,46.217480599999995],[6.961332100000002,46.22135210000002],[6.9584784000000015,46.22174000000001],[6.9541791,46.2214641],[6.9516868,46.218325700000015],[6.9479108999999974,46.216834],[6.947699000000002,46.2148853],[6.9487151,46.2134643]]],"type":"Polygon"}}
,
{"properties":{"activities":["downhill","nordic"],"generated":false,"id":"047f22907bcc1888d7c1836c647ea56b013f99db","location":null,"name":"Portes du Soleil","runConvention":"europe","sources":[{"type":"openstreetmap","id":"way/742636566"},{"type":"skimap.org","id":988}],"status":"operating","type":"skiArea","websites":["https://www.portesdusoleil.com/"],"statistics":{"runs":{"byActivity":{"downhill":{"byDifficulty":{"novice":{"count":62,"lengthInKm":28.259840727394682},"other":{"count":44,"lengthInKm":8.807995299432891},"advanced":{"count":34,"lengthInKm":23.86172565039754},"easy":{"count":361,"lengthInKm":187.8652952464676},"intermediate":{"count":151,"lengthInKm":106.88061814957078},"expert":{"count":1,"lengthInKm":0.2712140876934596}}},"nordic":{"byDifficulty":{"other":{"count":23,"lengthInKm":12.253557028502717},"novice":{"count":7,"lengthInKm":0.8382880073303778},"easy":{"count":1,"lengthInKm":0.43357619087626503}}}}},"lifts":{"byType":{"magic_carpet":{"count":8,"lengthInKm":0.7347476905889139},"platter":{"count":37,"lengthInKm":15.370313630542345},"chair_lift":{"count":71,"lengthInKm":82.3068880452938},"rope_tow":{"count":4,"lengthInKm":0.5592477492611279},"drag_lift":{"count":30,"lengthInKm":15.529972983846024},"t-bar":{"count":6,"lengthInKm":5.801417781609143},"gondola":{"count":10,"lengthInKm":12.422350355394723},"cable_car":{"count":3,"lengthInKm":4.439793347930708}}}}},"type":"Feature","geometry":{"coordinates":[[[6.751927,46.18854380000001],[6.7558967,46.1809822],[6.763042100000002,46.17211190000002],[6.7891415,46.16491730000001],[6.7912052,46.16368230000001],[6.812180199999998,46.156983],[6.8397104,46.15796399999999],[6.8437659,46.155675],[6.8521987,46.153713],[6.8611037,46.15808290000001],[6.861135299999997,46.1639847],[6.8463193,46.1675796],[6.8469416,46.1748311],[6.8460833,46.1798085],[6.839603100000003,46.1849191],[6.8483793,46.19149990000001],[6.867197599999997,46.2048966],[6.8737422000000015,46.2113117],[6.8731842999999975,46.21591460000001],[6.8723046,46.22212050000002],[6.865051899999997,46.22710840000001],[6.860567199999998,46.2339216],[6.861176599999998,46.23816640000001],[6.8614684000000015,46.24015510000002],[6.872261700000002,46.2470261],[6.8722402,46.251427199999995],[6.872326,46.2543501],[6.8747293,46.278262300000016],[6.8735706,46.2840904],[6.8630992,46.2906296],[6.8614684000000015,46.29777590000002],[6.863056299999998,46.3030979],[6.8711244,46.3131921],[6.8703090000000016,46.314837199999985],[6.867819899999997,46.315844999999996],[6.8585931,46.307826599999984],[6.8530999999999995,46.3073374],[6.8335091000000014,46.309872],[6.826964499999998,46.310079599999995],[6.824389599999997,46.310405599999996],[6.8132744999999995,46.3058699],[6.807802799999998,46.3039577],[6.807952999999999,46.3027273],[6.809562300000001,46.300815],[6.7972456,46.291771300000015],[6.799069500000002,46.289310000000015],[6.804017599999997,46.29222320000002],[6.827084599999996,46.3003773],[6.8456455,46.304009199999996],[6.848199,46.30289739999999],[6.8452378,46.295499800000016],[6.8350883,46.2807608],[6.830517799999998,46.27537140000001],[6.8396373000000015,46.26684260000001],[6.8433495,46.26136870000001],[6.834444599999998,46.2589802],[6.8335237000000015,46.2584858],[6.825518199999998,46.254188],[6.820475599999997,46.2556421],[6.818759,46.251265],[6.8164201,46.24558180000001],[6.8147034999999985,46.23943790000001],[6.8127294,46.2318685],[6.804446799999998,46.23065130000001],[6.7928381999999985,46.236113400000015],[6.788739700000002,46.23566820000001],[6.7854138,46.23277390000002],[6.7876025,46.22398620000001],[6.785328000000002,46.215004],[6.7777104999999995,46.2134747],[6.762926199999998,46.2157464],[6.759771900000001,46.2135638],[6.7613642,46.212725100000014],[6.762527199999998,46.21211250000002],[6.762587799999998,46.2120806],[6.7683979,46.20902010000001],[6.768827,46.20780590000001],[6.771058600000002,46.2014909],[6.7670675,46.19912950000001],[6.758656100000001,46.196842300000014],[6.7545077,46.1978379],[6.7532222000000015,46.19814640000001],[6.7410179,46.20107510000001],[6.7345591,46.19757000000001],[6.724667100000001,46.198476000000014],[6.7165776,46.193099300000014],[6.711221400000002,46.1897807],[6.7084022,46.188033900000015],[6.702086899999998,46.1874082],[6.696753100000001,46.1868797],[6.6952798,46.18673370000001],[6.695050699999999,46.186711],[6.694274499999998,46.186624499999986],[6.6934289,46.186502900000015],[6.6926094,46.186385],[6.687995999999997,46.1858799],[6.687913999999997,46.1830799],[6.6877599,46.17781270000001],[6.687101699999999,46.1761617],[6.6837881999999995,46.1678501],[6.6698428,46.1665434],[6.6626524,46.1730064],[6.650528799999998,46.1712827],[6.644713799999998,46.17250120000001],[6.6322898,46.17311040000001],[6.6327618,46.1671813],[6.6426967,46.165353500000016],[6.659455199999998,46.161973900000014],[6.6566485,46.1506784],[6.656410899999997,46.149722200000014],[6.6568821,46.1484913],[6.657770799999998,46.1476192],[6.677286499999998,46.1284647],[6.6835092,46.1272006],[6.703722400000002,46.129208200000015],[6.7074954999999985,46.130778800000016],[6.7137002,46.13176590000001],[6.724363400000001,46.13243240000001],[6.7258564,46.1349498],[6.7264435,46.13597080000002],[6.7291074,46.1378881],[6.7255633,46.142356700000015],[6.7243217,46.1470355],[6.7220225,46.150532100000014],[6.7172836,46.1577381],[6.718259900000001,46.16858120000001],[6.717895199999998,46.1845834],[6.737679100000002,46.19464890000001],[6.7407513,46.19333250000002],[6.751927,46.18854380000001]]],"type":"Polygon"}}
,
{"properties":{"activities":["downhill"],"generated":false,"id":"311a9a46ab4f52c89ec5d37896d3b2b1a95aa44c","location":null,"name":"Drouzin-le-Mont","runConvention":"europe","sources":[{"type":"skimap.org","id":5131}],"status":"abandoned","type":"skiArea","websites":[],"statistics":{"runs":{"byActivity":{"downhill":{"byDifficulty":{"novice":{"count":1,"lengthInKm":0.20077065753533263}}}}},"lifts":{"byType":{"magic_carpet":{"count":1,"lengthInKm":0.19087300490593975}}}}},"type":"Feature","geometry":{"coordinates":[6.649835968017667,46.28530820578725],"type":"Point"}}
]}
