{
"type": "FeatureCollection",
"features": [
{"type":"Feature","id":"way/987243867","properties":{"type":"way","id":987243867,"tags":{"contact:website":"https://www.palarinsal.com/ca","landuse":"winter_sports","name":"Pal-Arinsal","name:ca":"Pal-Arinsal","operator":"Grandvalira","wikidata":"Q2551051","wikipedia":"ca:Vallnord"},"relations":[],"meta":{}},"geometry":{"type":"Polygon","coordinates":[[[1.4748621,42.578197],[1.4732317,42.5778961],[1.4734248,42.5767269],[1.4699272,42.5758104],[1.465228,42.573614],[1.4560441,42.5712753],[1.4552931,42.5718758],[1.451023,42.5716546],[1.445959,42.5699479],[1.4439849,42.56625],[1.4441164,42.5658759],[1.4512805,42.5454966],[1.4489202,42.5446429],[1.4463452,42.5466506],[1.4451436,42.5466348],[1.4444355,42.5426984],[1.4468173,42.5412597],[1.4515165,42.5391886],[1.4522931,42.5365448],[1.4518302,42.5347553],[1.4511774,42.5341327],[1.4513407,42.5328698],[1.4520265,42.5311932],[1.4526509,42.5306602],[1.4531927,42.5299552],[1.4544189,42.5281891],[1.4548582,42.5275564],[1.4553048,42.5264341],[1.4567892,42.5260315],[1.4572188,42.5260158],[1.4607004,42.5271083],[1.4662794,42.5269976],[1.4763216,42.5301761],[1.4897327,42.5339235],[1.4958052,42.5378289],[1.495376,42.539821],[1.493595,42.5402005],[1.4897756,42.5385246],[1.4884023,42.5385404],[1.4873358,42.5385243],[1.4841966,42.5384771],[1.482934,42.5377942],[1.4825915,42.537609],[1.4801625,42.5362952],[1.4795617,42.5355363],[1.4784888,42.5352043],[1.4776949,42.5338129],[1.4752702,42.5324372],[1.4731459,42.5347616],[1.4667944,42.5344769],[1.4615802,42.5306504],[1.4593271,42.5305714],[1.4539842,42.5325637],[1.4533404,42.5384139],[1.4543919,42.5389831],[1.4543919,42.5419079],[1.4529542,42.545054],[1.4482478,42.5581654],[1.4456801,42.5653176],[1.4539842,42.5626309],[1.4548854,42.563516],[1.4529757,42.5641797],[1.4548639,42.5673563],[1.4549881,42.5673935],[1.4562513,42.567772],[1.4592413,42.5686679],[1.4706779,42.5717737],[1.4727485,42.573425],[1.4805269,42.5765774],[1.4801836,42.5771778],[1.4788532,42.5771857],[1.4782524,42.5774227],[1.4775336,42.5776281],[1.4765894,42.5781338],[1.4750874,42.5785525],[1.4748621,42.578197]]]}},
{"type":"Feature","id":"node/339066867","properties":{"type":"node","id":339066867,"tags":{"ele":"2358","name":"Alt del Cubil","name:ca":"Alt del Cubil","natural":"peak","prominence":"281","source":"Institut Cartogràfic de Catalunya","source:prominence":"ICGC map. Key col: Coll de Montaner 2077m","wikidata":"Q21329471","wikipedia":"ca:Pic Alt del Cubil"},"relations":[],"meta":{}},"geometry":{"type":"Point","coordinates":[1.4553048,42.5264341]}}
]
}
