{
"type": "FeatureCollection",
"features": [
{"type":"Feature","id":"relation/17072271","properties":{"type":"relation","id":17072271,"tags":{"description":"Snowshoe trail","distance":"1.7","name":"guineu","osmc:symbol":"red:white:red_drop_line","piste:type":"hike","route":"piste","symbol":"snowshoe","type":"route"},"relations":[],"meta":{}},"geometry":{"type":"LineString","coordinates":[[1.4747228,42.5303034],[1.4748797,42.5304547],[1.47494,42.5305565],[1.4750755,42.5306928],[1.4751439,42.5307462],[1.4753276,42.5308371],[1.4756468,42.5309448],[1.4760062,42.5310832],[1.4763294,42.5311712],[1.4767224,42.5312235],[1.4772803,42.531353],[1.4776517,42.5314321],[1.4782217,42.5315408],[1.4785114,42.5316564],[1.4793684,42.5318165],[1.4798458,42.5319104],[1.4809334,42.5321673],[1.4820586,42.5324322],[1.4832401,42.5326545],[1.4843935,42.5329312],[1.4849608,42.533124],[1.485292,42.533456],[1.4856608,42.5338543],[1.4860283,42.5341517],[1.4863394,42.5342634],[1.4870837,42.5345174],[1.4874673,42.5346093],[1.4881311,42.5346587],[1.4888151,42.5346982],[1.4893422,42.5347605],[1.4898115,42.5347881],[1.4903802,42.5349433],[1.4907542,42.5351224],[1.4911662,42.5353232],[1.4913229,42.5354088],[1.4915711,42.5357062]]}},
{"type":"Feature","id":"relation/18502128","properties":{"type":"relation","id":18502128,"tags":{"name":"Cami Inferior","piste:type":"downhill","route":"piste","sport":"skiing","type":"route"},"relations":[],"meta":{}},"geometry":{"type":"MultiLineString","coordinates":[[[1.4592916,42.5302398],[1.4595721,42.5301528],[1.4598345,42.5301335],[1.4601263,42.5300272],[1.4602706,42.5299112],[1.4603643,42.5298108]],[[1.4529365,42.534928],[1.4528191,42.534386],[1.4528336,42.5338668],[1.452882,42.533205],[1.4534847,42.5324112],[1.453568,42.5323458],[1.4539805,42.5320219],[1.454003,42.5320043],[1.4554925,42.5316844],[1.4562836,42.5314154],[1.4568948,42.5312218],[1.4576019,42.5307748],[1.4580926,42.5306323],[1.458601,42.5304751],[1.4592916,42.5302398],[1.4598075,42.5302236],[1.4600973,42.5303059],[1.4602826,42.5301782],[1.4603643,42.5298108],[1.460709,42.5296143],[1.462175,42.529154],[1.4625864,42.5290248],[1.4633043,42.5287678],[1.4637344,42.5285897],[1.4642429,42.5283359],[1.4645428,42.5282151],[1.4650179,42.5281422],[1.4654614,42.5281047],[1.4658587,42.5280267]]]}},
{"type":"Feature","id":"way/52112648","properties":{"type":"way","id":52112648,"tags":{"name":"El Planell","name:ca":"El Planell","piste:difficulty":"novice","piste:type":"downhill","sport":"skiing"},"relations":[],"meta":{}},"geometry":{"type":"LineString","coordinates":[[1.4888794,42.5350001],[1.4892666,42.534998],[1.4894291,42.5350103],[1.4898303,42.5352253],[1.49011,42.535494],[1.4902559,42.5357538],[1.4902559,42.5360763],[1.4902476,42.5364238]]}},
{"type":"Feature","id":"way/52112651","properties":{"type":"way","id":52112651,"tags":{"name":"el Besurt II","name:ca":"el Besurt II","piste:difficulty":"easy","piste:type":"downhill","sport":"skiing"},"relations":[],"meta":{}},"geometry":{"type":"LineString","coordinates":[[1.4741051,42.5306099],[1.4749235,42.5311306],[1.4754526,42.5314077],[1.4760836,42.5317248],[1.4771114,42.5321417],[1.4789092,42.5328022],[1.4810631,42.533459],[1.4826485,42.5340968],[1.4837281,42.5347347],[1.4840782,42.5352221],[1.4843797,42.5357667],[1.4843992,42.5360964],[1.4840685,42.5364189],[1.483874,42.5367271],[1.4839226,42.5370998],[1.484263,42.5376659]]}},
{"type":"Feature","id":"way/52122469","properties":{"type":"way","id":52122469,"tags":{"name":"la Capa","name:ca":"la Capa","piste:difficulty":"advanced","piste:grooming":"classic","piste:type":"downhill"},"relations":[],"meta":{}},"geometry":{"type":"LineString","coordinates":[[1.4533577,42.563449],[1.4536927,42.5638224],[1.4541546,42.5639927],[1.4545833,42.5642606],[1.4544786,42.5644802],[1.4541972,42.5646673],[1.4535139,42.5648753],[1.4529004,42.5654025],[1.4529062,42.5657842],[1.4530718,42.5659581],[1.4531004,42.5660507],[1.4536624,42.5665796],[1.4539873,42.5669742],[1.4542018,42.5673459],[1.4542699,42.5676854],[1.4543488,42.5678118],[1.4545291,42.5681004],[1.454672,42.5685264]]}},
{"type":"Feature","id":"way/52123917","properties":{"type":"way","id":52123917,"tags":{"name":"les Marrades","name:ca":"les Marrades","piste:difficulty":"easy","piste:grooming":"classic","piste:type":"downhill"},"relations":[],"meta":{}},"geometry":{"type":"LineString","coordinates":[[1.4702238,42.5749246],[1.4705775,42.575391],[1.4707209,42.5754698],[1.4708236,42.5754287],[1.4708501,42.5752003],[1.4709906,42.5749921],[1.4713409,42.5748828],[1.471935,42.574876],[1.4719559,42.5749695],[1.4716576,42.575145],[1.471549,42.575371],[1.4715636,42.575645],[1.4717175,42.5756409],[1.4722144,42.5754117],[1.4727099,42.5753004],[1.4728713,42.5753217],[1.4728953,42.575431],[1.4725995,42.5757459],[1.4725855,42.5760309],[1.4726772,42.576301],[1.4728476,42.5763107],[1.4732406,42.5762335],[1.4738619,42.5761834],[1.4743673,42.5760791],[1.4746031,42.576137],[1.4746162,42.5762621],[1.4742625,42.5766387],[1.474008,42.5767816],[1.4738156,42.5771473],[1.4735717,42.577428],[1.4736086,42.5775449],[1.4737947,42.5775352],[1.4742851,42.577307],[1.4748091,42.5771118],[1.4750036,42.5771044],[1.475017,42.5772201],[1.4747341,42.5775166],[1.4745796,42.5777089],[1.474355,42.57793],[1.4743776,42.5780479],[1.4745467,42.5780571],[1.4748488,42.5779221],[1.4752237,42.5777426],[1.4758421,42.5775135],[1.4759758,42.5775137],[1.4759899,42.5776236],[1.4757167,42.5778639],[1.475453,42.5780824],[1.4752253,42.5783271],[1.4752851,42.5784036],[1.4753966,42.5784152],[1.4757893,42.5782218],[1.476202,42.5780703],[1.4767929,42.5779004],[1.4769838,42.5778196],[1.4771651,42.5777036],[1.4773151,42.5775938],[1.4774977,42.5774357],[1.4776783,42.5773007],[1.4778131,42.5772404],[1.4781338,42.577264],[1.4783796,42.5772558],[1.4785494,42.5772157],[1.4787167,42.5771248],[1.4788795,42.5769781],[1.4790047,42.5769053],[1.4791317,42.5768656],[1.4792863,42.5768895],[1.4797452,42.5770645]]}},
{"type":"Feature","id":"way/52268017","properties":{"type":"way","id":52268017,"tags":{"name":"Tub del Coll","name:ca":"Tub del Coll","piste:difficulty":"advanced","piste:grooming":"backcountry","piste:type":"downhill"},"relations":[],"meta":{}},"geometry":{"type":"LineString","coordinates":[[1.4462909,42.565811],[1.446632,42.5660265],[1.4468812,42.5662165],[1.4471135,42.566319],[1.4473995,42.566465],[1.4478203,42.5666033],[1.4487026,42.5667017],[1.4491244,42.5667019],[1.4493362,42.5667377],[1.4495343,42.5669191],[1.4497867,42.5671095],[1.4500982,42.5672366],[1.4504715,42.5673631],[1.4508618,42.5674639]]}},
{"type":"Feature","id":"way/52692955","properties":{"type":"way","id":52692955,"tags":{"name":"Bony Vaques","name:ca":"Bony Vaques","piste:difficulty":"advanced","piste:type":"downhill","sport":"skiing"},"relations":[],"meta":{}},"geometry":{"type":"LineString","coordinates":[[1.4460146,42.5680806],[1.4463792,42.5681917],[1.4467438,42.5682472],[1.4472592,42.5683028],[1.4477998,42.5684139],[1.4482273,42.5686176],[1.4488056,42.5688213],[1.4490319,42.5689324],[1.4493588,42.5689972],[1.4496354,42.5690435],[1.4500251,42.5690528],[1.450718,42.5690073]]}},
{"type":"Feature","id":"way/52692956","properties":{"type":"way","id":52692956,"tags":{"name":"les Fonts","name:ca":"les Fonts","piste:difficulty":"easy","piste:type":"downhill","sport":"skiing"},"relations":[],"meta":{}},"geometry":{"type":"LineString","coordinates":[[1.4455356,42.5662285],[1.4456829,42.5664094],[1.4457663,42.566479],[1.4457883,42.5672935],[1.4459014,42.5676917],[1.4460146,42.5679509],[1.4460146,42.5680806],[1.4460146,42.5682195],[1.44609,42.5684046],[1.4460774,42.5685991],[1.4460774,42.5687843],[1.4461209,42.5688619],[1.4461655,42.5689417],[1.4464672,42.5690898],[1.4467312,42.5691917],[1.4472592,42.5692657],[1.447737,42.5693491],[1.4481267,42.5693768],[1.4487176,42.5693861],[1.4489439,42.5694139],[1.4492834,42.5694046],[1.4496228,42.5694046],[1.4501884,42.5693016],[1.4505024,42.5693239],[1.4507669,42.5696361],[1.4513452,42.5698583],[1.4518607,42.5699787],[1.4524264,42.570099],[1.4530802,42.5701638],[1.4537339,42.5702564],[1.4541614,42.5702935],[1.4544631,42.5702935],[1.4549498,42.570334],[1.4551295,42.570349],[1.4558084,42.5704231],[1.4563725,42.5705364],[1.4566381,42.5705897],[1.4572165,42.5707101],[1.4578451,42.5708675],[1.4583102,42.5709416],[1.4588006,42.5711082],[1.4592029,42.5711916],[1.4597686,42.5712934],[1.4604852,42.5714138],[1.4612522,42.5715526],[1.4615539,42.5716545],[1.4618682,42.5717378],[1.4622793,42.5718913],[1.4627873,42.5720595],[1.4630784,42.5721131],[1.4634048,42.5721732],[1.4640177,42.572274],[1.4642311,42.5722812],[1.4644074,42.5722919],[1.4645625,42.5723124],[1.4647186,42.5723273],[1.4648677,42.572346],[1.4649998,42.5723605],[1.4651988,42.5723925],[1.4654611,42.5724234],[1.4656977,42.5724181],[1.4659549,42.5724108],[1.4661858,42.5724388],[1.4664525,42.5724901],[1.4667743,42.5725823],[1.4671473,42.5727137],[1.4675245,42.5728118],[1.4679034,42.5729013],[1.4682432,42.5729549],[1.4685195,42.5730026],[1.4689064,42.5730859],[1.4691806,42.5730534],[1.4695473,42.5729159],[1.4698539,42.5726802],[1.4701501,42.5726179],[1.4702486,42.5726015],[1.4703995,42.5725764],[1.4706909,42.5725722]]}},
{"type":"Feature","id":"way/52692957","properties":{"type":"way","id":52692957,"tags":{"name":"la Solana","name:ca":"la Solana","piste:difficulty":"easy","piste:type":"downhill","sport":"skiing"},"relations":[],"meta":{}},"geometry":{"type":"LineString","coordinates":[[1.4461209,42.5688619],[1.4460145,42.5692524],[1.4461293,42.5694535],[1.4468125,42.5695268],[1.4479746,42.5698743],[1.4485298,42.5700462],[1.4490931,42.570218],[1.4495356,42.5704017],[1.4499299,42.5705617],[1.4502115,42.5706802],[1.4506218,42.570781],[1.4511851,42.5708461],[1.4519092,42.5709113],[1.4528265,42.5709647],[1.4533576,42.5710061],[1.4537921,42.5710595],[1.4542024,42.5711365],[1.454476,42.571178],[1.4547978,42.5712669],[1.4548864,42.5712669],[1.454991,42.5712609],[1.4550151,42.5711898],[1.4549829,42.571095],[1.4548542,42.5708343],[1.4548059,42.5706091],[1.4548381,42.5704965],[1.4548783,42.5704017],[1.4549498,42.570334]]}},
{"type":"Feature","id":"way/52692959","properties":{"type":"way","id":52692959,"tags":{"name":"Tub Estadi","name:ca":"Tub Estadi","piste:difficulty":"intermediate","piste:type":"downhill","sport":"skiing"},"relations":[],"meta":{}},"geometry":{"type":"LineString","coordinates":[[1.4456829,42.5664094],[1.4459179,42.5664624],[1.4461463,42.5665623],[1.4463961,42.5666097],[1.4467217,42.5666918],[1.4470472,42.5667998],[1.4475962,42.5670236],[1.4479069,42.5672476],[1.4482308,42.5674286],[1.4486221,42.5676284],[1.448999,42.5678212],[1.4493154,42.5678898],[1.4499299,42.5678418],[1.4504108,42.5678933],[1.4510322,42.5680864],[1.4514762,42.568114],[1.4518697,42.5680914],[1.4521162,42.5679778]]}},
{"type":"Feature","id":"way/52692960","properties":{"type":"way","id":52692960,"tags":{"name":"la Pala","name:ca":"la Pala","piste:difficulty":"intermediate","piste:type":"downhill","sport":"skiing"},"relations":[],"meta":{}},"geometry":{"type":"LineString","coordinates":[[1.4456115,42.5661931],[1.4457939,42.5661032],[1.4462478,42.5658336],[1.4462909,42.565811],[1.4464577,42.5657237],[1.4466375,42.5656499],[1.4467696,42.5655868],[1.44681,42.5655696],[1.4470719,42.5654577],[1.4472233,42.5654169],[1.4474114,42.5654536],[1.4476232,42.5655542],[1.4478819,42.5656251],[1.4483654,42.5657446],[1.4487665,42.5657665],[1.4490668,42.5657939],[1.4492899,42.565843],[1.4494914,42.5658907],[1.449726,42.5659702],[1.4499345,42.5660895],[1.4500641,42.5661976],[1.4502292,42.5664613],[1.4503285,42.5667769],[1.4504247,42.5670309],[1.4505922,42.5672527],[1.4508618,42.5674639],[1.4512591,42.5678084],[1.4516837,42.567966],[1.4521162,42.5679778]]}},
{"type":"Feature","id":"way/52692962","properties":{"type":"way","id":52692962,"tags":{"name":"la Tossa","name:ca":"la Tossa","piste:difficulty":"intermediate","piste:type":"downhill","sport":"skiing"},"relations":[],"meta":{}},"geometry":{"type":"LineString","coordinates":[[1.4591642,42.5690747],[1.4600357,42.5692552],[1.4606165,42.5693571],[1.4611388,42.5695169],[1.4615162,42.5696359],[1.461854,42.5697747],[1.4622631,42.5699637],[1.4626504,42.5701646],[1.4631609,42.570409],[1.4637706,42.5707641],[1.4642299,42.5709473],[1.4643544,42.5709811],[1.4647865,42.5710984],[1.4651292,42.5711289],[1.4658775,42.5711957],[1.4666097,42.571338],[1.4674224,42.5715098],[1.4681787,42.5717053],[1.4686535,42.5718239],[1.4692021,42.5719947],[1.4695096,42.5721346],[1.4699883,42.5722927],[1.4702194,42.5725355]]}},
{"type":"Feature","id":"way/52692963","properties":{"type":"way","id":52692963,"tags":{"name":"Estadi","name:ca":"Estadi","piste:difficulty":"intermediate","piste:type":"downhill","sport":"skiing"},"relations":[],"meta":{}},"geometry":{"type":"LineString","coordinates":[[1.4643347,42.5710361],[1.4648793,42.5712921],[1.4652964,42.5714506],[1.4657435,42.5715851],[1.4663844,42.5717161],[1.4669221,42.571802],[1.4676274,42.5719091],[1.4682706,42.5720318],[1.4686891,42.5721269],[1.4689076,42.5721766],[1.4691377,42.5722447],[1.4694302,42.5723019],[1.4696863,42.5724022],[1.4701516,42.5725472]]}},
{"type":"Feature","id":"way/52692964","properties":{"type":"way","id":52692964,"tags":{"name":"Planelles","name:ca":"Planelles","piste:difficulty":"easy","piste:type":"snow_park","sport":"skiing"},"relations":[],"meta":{}},"geometry":{"type":"LineString","coordinates":[[1.4508096,42.5692483],[1.4513704,42.5691361],[1.4519613,42.5691176],[1.452351,42.5690805],[1.4529796,42.5691083],[1.4537465,42.5692009],[1.4544757,42.5693491],[1.4548277,42.5694324],[1.4550666,42.5694509],[1.4554186,42.5695435],[1.4556449,42.5695805],[1.4559592,42.5695898],[1.4561604,42.5696639],[1.4563596,42.5699114]]}},
{"type":"Feature","id":"way/52692966","properties":{"type":"way","id":52692966,"tags":{"name":"Port Vell","name:ca":"Port Vell","piste:difficulty":"easy","piste:type":"downhill","sport":"skiing"},"relations":[],"meta":{}},"geometry":{"type":"LineString","coordinates":[[1.4506286,42.5692194],[1.450718,42.5690073],[1.4507418,42.5689509],[1.4509098,42.5688141],[1.4510997,42.5686623],[1.4513934,42.5685081],[1.4517612,42.5683606],[1.4522054,42.5682997],[1.4525612,42.5682879],[1.4529897,42.5683072],[1.4535108,42.5683437],[1.4536775,42.568369],[1.4541949,42.5684476],[1.454672,42.5685264],[1.4547547,42.5685401],[1.4549498,42.5685715],[1.4553855,42.5687292],[1.4561893,42.5689401],[1.4569399,42.5691734],[1.4574941,42.5693283],[1.4575721,42.5693405],[1.4579834,42.5694046],[1.4587834,42.5694637],[1.4592029,42.5696083]]}},
{"type":"Feature","id":"way/52692967","properties":{"type":"way","id":52692967,"tags":{"name":"Salador","name:ca":"Salador","piste:difficulty":"easy","piste:type":"downhill","sport":"skiing"},"relations":[],"meta":{}},"geometry":{"type":"LineString","coordinates":[[1.4592029,42.5696083],[1.4596504,42.569862],[1.4604359,42.5702464],[1.461013,42.570638],[1.4615132,42.5709212],[1.4629585,42.571326]]}},
{"type":"Feature","id":"way/52692969","properties":{"type":"way","id":52692969,"tags":{"name":"Margarida","name:ca":"Margarida","piste:difficulty":"easy","piste:type":"downhill","sport":"skiing"},"relations":[],"meta":{}},"geometry":{"type":"LineString","coordinates":[[1.4549498,42.5685715],[1.4558432,42.5685637],[1.4565375,42.568662],[1.4573807,42.5688551],[1.4584911,42.5690921],[1.4585685,42.5691088],[1.4589105,42.5691825],[1.4594808,42.5693055],[1.4595797,42.5693338],[1.4599153,42.5694299],[1.4601969,42.5695484],[1.4606233,42.5697677],[1.46109,42.5699632],[1.4612342,42.5699951],[1.4614119,42.5700343],[1.4617015,42.5700877],[1.4623694,42.5703365],[1.4629406,42.5706506],[1.4634878,42.5709647],[1.4636314,42.5710604],[1.4638257,42.5711898],[1.4638257,42.5712846],[1.4638177,42.571415],[1.4637131,42.5714742],[1.4635843,42.5714979],[1.4633993,42.5715394],[1.4631901,42.571652],[1.4630613,42.5717764],[1.4630555,42.571958],[1.4630784,42.5721131]]}},
{"type":"Feature","id":"way/52692970","properties":{"type":"way","id":52692970,"tags":{"name":"el Cortalet","piste:difficulty":"novice","piste:type":"downhill","sport":"skiing"},"relations":[],"meta":{}},"geometry":{"type":"LineString","coordinates":[[1.4658591,42.5726728],[1.4667867,42.5729793],[1.4672017,42.57311],[1.4676236,42.5732223],[1.4681144,42.5733645],[1.4685408,42.5734474],[1.4689753,42.57356],[1.4693372,42.5736795],[1.469442,42.5737141],[1.4699811,42.5739274],[1.4700857,42.5739925],[1.4702627,42.5741762],[1.4704076,42.5744073],[1.4703995,42.5745673]]}},
{"type":"Feature","id":"way/52692971","properties":{"type":"way","id":52692971,"tags":{"piste:difficulty":"novice","piste:type":"downhill","sport":"skiing"},"relations":[],"meta":{}},"geometry":{"type":"LineString","coordinates":[[1.4657692,42.5728154],[1.4662142,42.5731939],[1.4664364,42.5733569],[1.4667515,42.5735042],[1.4671807,42.5736622],[1.4678362,42.5738931],[1.468382,42.5739996],[1.4686811,42.5741242],[1.4688949,42.5742533],[1.4689995,42.5743718],[1.4693274,42.5746807],[1.4695984,42.5748683],[1.4698777,42.5750769],[1.4699592,42.5752996],[1.4700737,42.5753138],[1.4700158,42.5749517],[1.4701474,42.5748637],[1.4702627,42.5747865],[1.4703271,42.5746977]]}},
{"type":"Feature","id":"way/152826437","properties":{"type":"way","id":152826437,"tags":{"name":"Cami Superior","piste:difficulty":"easy","piste:type":"downhill","sport":"skiing"},"relations":[],"meta":{}},"geometry":{"type":"LineString","coordinates":[[1.4546181,42.5306745],[1.4548214,42.5307294],[1.4550709,42.5306315],[1.4553405,42.5305126],[1.4556626,42.5303742],[1.4562643,42.5299831],[1.4566184,42.529753],[1.4571282,42.529459],[1.457414,42.5293021],[1.4578896,42.52909],[1.4584041,42.5288733],[1.4593891,42.5287721],[1.4607491,42.5284934],[1.4615724,42.5282795],[1.4621641,42.5281265],[1.4626311,42.5280372],[1.4631512,42.52802],[1.4639157,42.5278719],[1.4644282,42.5278154],[1.4654618,42.5278694],[1.4657321,42.5280034],[1.4659359,42.5280291]]}},
{"type":"Feature","id":"way/152826439","properties":{"type":"way","id":152826439,"tags":{"name":"Cami Inferior","piste:difficulty":"easy","piste:type":"downhill","sport":"skiing"},"relations":[{"role":"","rel":18502128,"reltags":{"name":"Cami Inferior","piste:type":"downhill","route":"piste","sport":"skiing","type":"route"}}],"meta":{}},"geometry":{"type":"LineString","coordinates":[[1.4529365,42.534928],[1.4528191,42.534386],[1.4528336,42.5338668],[1.452882,42.533205],[1.4534847,42.5324112],[1.453568,42.5323458],[1.4539805,42.5320219],[1.454003,42.5320043],[1.4554925,42.5316844],[1.4562836,42.5314154],[1.4568948,42.5312218],[1.4576019,42.5307748],[1.4580926,42.5306323],[1.458601,42.5304751],[1.4592916,42.5302398],[1.4598075,42.5302236],[1.4600973,42.5303059],[1.4602826,42.5301782],[1.4603643,42.5298108],[1.460709,42.5296143],[1.462175,42.529154],[1.4625864,42.5290248],[1.4633043,42.5287678],[1.4637344,42.5285897],[1.4642429,42.5283359],[1.4645428,42.5282151],[1.4650179,42.5281422],[1.4654614,42.5281047],[1.4658587,42.5280267]]}},
{"type":"Feature","id":"way/152826440","properties":{"type":"way","id":152826440,"tags":{"name":"Coll de la Botella","name:ca":"Coll de la Botella","piste:difficulty":"easy","piste:type":"downhill","sport":"skiing"},"relations":[],"meta":{}},"geometry":{"type":"LineString","coordinates":[[1.4522319,42.5339742],[1.4522067,42.5343642],[1.4522763,42.534659],[1.4522879,42.5349752],[1.4522879,42.5352828],[1.4523401,42.5355648],[1.4524735,42.5358511],[1.4525372,42.5361203],[1.452514,42.5364236],[1.4524908,42.5367355],[1.4524735,42.5370389],[1.4524735,42.5373123],[1.4525024,42.5375559],[1.4525546,42.5378122],[1.4526068,42.5380856],[1.4526242,42.5383463],[1.4526358,42.5385813],[1.4527228,42.5387564],[1.4527892,42.5388236],[1.452862,42.5388974],[1.4530707,42.5390427],[1.4532621,42.539158],[1.4534418,42.5392563],[1.4536042,42.5392862],[1.4536969,42.5393247],[1.4537491,42.5394101],[1.4537723,42.539628],[1.4537259,42.5399527],[1.4536332,42.5402646],[1.4535288,42.5405209],[1.4534766,42.5407388],[1.453465,42.5409524],[1.4534302,42.5412088],[1.4533954,42.5415292],[1.4534244,42.5418325],[1.4534766,42.5421487],[1.4535114,42.5423452],[1.4535114,42.5425802],[1.4534882,42.5427853],[1.4534476,42.5430117],[1.4534418,42.5432936],[1.45332,42.5436397],[1.4532389,42.5439046],[1.4530591,42.5442164],[1.4529083,42.5444428],[1.4527808,42.544571],[1.4525894,42.544665],[1.4524097,42.5447205],[1.4522763,42.5447291],[1.4521603,42.5446693],[1.452027,42.5445625],[1.4518472,42.5444129],[1.4515979,42.5442079],[1.4513021,42.5440242],[1.4509426,42.5438875],[1.4505831,42.5438319],[1.4503044,42.543804],[1.4500269,42.5437996],[1.4496214,42.5438403],[1.4492901,42.5438936],[1.448984,42.5439491],[1.4486468,42.5440132],[1.4483194,42.5441068],[1.4480103,42.5442193],[1.4476555,42.5443768],[1.4473378,42.5445361],[1.4470908,42.5447245],[1.4468597,42.5450065],[1.4467198,42.5452174],[1.446518,42.5454389],[1.4463571,42.5456412],[1.4461965,42.5458533],[1.4460545,42.5460705],[1.4458805,42.5462328],[1.445753,42.546314],[1.445604,42.5463195]]}},
{"type":"Feature","id":"way/152826441","properties":{"type":"way","id":152826441,"tags":{"name":"Coms","name:ca":"Coms","piste:difficulty":"intermediate","piste:type":"downhill","sport":"skiing"},"relations":[],"meta":{}},"geometry":{"type":"LineString","coordinates":[[1.456226,42.5266013],[1.4569035,42.5274838],[1.457453,42.5278283],[1.457863,42.5281486],[1.4581828,42.5284265],[1.4584944,42.5286683],[1.4588388,42.5288858],[1.459257,42.5290309],[1.4596261,42.5292001],[1.4599869,42.5293391],[1.4603641,42.5294539],[1.4606921,42.5295626],[1.4610365,42.5296714],[1.4614465,42.5298588],[1.461832,42.5300703],[1.462242,42.530312],[1.4626848,42.5306383],[1.4628198,42.5307292],[1.4631604,42.5309586],[1.4635868,42.5312486],[1.4640297,42.5315448],[1.4643249,42.5317442],[1.4647677,42.531998],[1.4651941,42.5322699],[1.4654811,42.5325297],[1.4656861,42.5328379],[1.4658556,42.5330658],[1.4658966,42.5330834],[1.4659621,42.5331114]]}},
{"type":"Feature","id":"way/152826442","properties":{"type":"way","id":152826442,"tags":{"name":"Corpalanca","piste:difficulty":"intermediate","piste:type":"downhill","sport":"skiing"},"relations":[],"meta":{}},"geometry":{"type":"LineString","coordinates":[[1.4741051,42.5306099],[1.4741356,42.5306877],[1.4743242,42.5309986],[1.4745534,42.5313512],[1.4745124,42.5317742],[1.4743484,42.5322153],[1.4741105,42.5327532],[1.4738645,42.5332305],[1.4737169,42.533575],[1.4734135,42.5338046],[1.4728559,42.5339919],[1.4722573,42.5340221],[1.4716012,42.5339617],[1.4711963,42.5339153],[1.470754,42.5338711],[1.4705384,42.5338786],[1.4700298,42.5338531]]}},
{"type":"Feature","id":"way/152826443","properties":{"type":"way","id":152826443,"tags":{"name":"el Bec","name:ca":"el Bec","piste:difficulty":"easy","piste:type":"downhill","sport":"skiing"},"relations":[],"meta":{}},"geometry":{"type":"LineString","coordinates":[[1.4903673,42.5366307],[1.4893013,42.5370114],[1.4879318,42.5374163],[1.4865705,42.53767],[1.4855585,42.5378759],[1.4854471,42.5378996],[1.4847829,42.537809],[1.4844565,42.53772]]}},
{"type":"Feature","id":"way/152826444","properties":{"type":"way","id":152826444,"tags":{"name":"el Besurt","name:ca":"el Besurt","piste:difficulty":"intermediate","piste:type":"downhill","sport":"skiing"},"relations":[],"meta":{}},"geometry":{"type":"LineString","coordinates":[[1.4778089,42.5324268],[1.4780467,42.532735],[1.4783337,42.5331822],[1.4785059,42.5336898],[1.4786699,42.5343122],[1.4787848,42.5346445],[1.4789734,42.5348439],[1.4791866,42.5349769],[1.479572,42.5350735],[1.4800476,42.5352065],[1.4806052,42.5353998],[1.4810507,42.5355384],[1.4810687,42.5356064],[1.4809919,42.5356631]]}},
{"type":"Feature","id":"way/152826445","properties":{"type":"way","id":152826445,"tags":{"name":"el Gall","name:ca":"el Gall","piste:difficulty":"easy","piste:type":"downhill","sport":"skiing"},"relations":[],"meta":{}},"geometry":{"type":"LineString","coordinates":[[1.4741716,42.5303282],[1.4732183,42.5302388],[1.472636,42.5302388],[1.4721522,42.5302147],[1.4716848,42.5301965],[1.4712338,42.5302026],[1.4707128,42.5302526],[1.4703525,42.5302903],[1.4701957,42.5303228],[1.4699569,42.5303637],[1.4697704,42.5304344],[1.4695834,42.5304856],[1.4694054,42.530548],[1.4692839,42.5306566],[1.4690873,42.5307864],[1.4689068,42.530883],[1.4687514,42.5311107],[1.4687112,42.5312948],[1.4687067,42.5314278],[1.4687404,42.5316711],[1.4688362,42.5318714],[1.4688993,42.5320295],[1.4689283,42.5321509],[1.4689039,42.5322213],[1.4688469,42.5322827],[1.4686588,42.5323599],[1.4684538,42.5324203],[1.4681504,42.5325291],[1.4679454,42.5326318],[1.4677486,42.5327769],[1.4675436,42.5328977],[1.467314,42.5329823],[1.4670352,42.5330186],[1.4667072,42.5330488],[1.4664201,42.5330307],[1.4661823,42.5330246],[1.4660291,42.533035],[1.465985,42.533038],[1.4659621,42.5331114],[1.4660312,42.5331461],[1.4661823,42.5332119],[1.4666334,42.5333268],[1.4671336,42.5334355],[1.4674452,42.5335262],[1.4677978,42.5335382],[1.4678841,42.5335448],[1.4681914,42.5335685],[1.4684164,42.5335986],[1.4685522,42.5336168],[1.4688803,42.533641],[1.4688917,42.5336416],[1.4692001,42.5336591],[1.4694707,42.5336954],[1.4695939,42.5337907]]}},
{"type":"Feature","id":"way/152826447","properties":{"type":"way","id":152826447,"tags":{"name":"els Avets","name:ca":"els Avets","piste:difficulty":"easy","piste:type":"downhill","sport":"skiing"},"relations":[],"meta":{}},"geometry":{"type":"LineString","coordinates":[[1.4888666,42.5348422],[1.4880958,42.5353316],[1.4871364,42.5361051],[1.4862179,42.5368422],[1.4853733,42.537374],[1.4849502,42.5375828],[1.4843909,42.5376971]]}},
{"type":"Feature","id":"way/152826448","properties":{"type":"way","id":152826448,"tags":{"name":"Estadi Eslalom","piste:difficulty":"intermediate","piste:type":"downhill","sport":"skiing"},"relations":[],"meta":{}},"geometry":{"type":"LineString","coordinates":[[1.4741051,42.5306099],[1.4740886,42.5306739],[1.4737661,42.5311216],[1.4730527,42.5318286],[1.4721671,42.53259],[1.4713142,42.5332124],[1.470609,42.5336656],[1.4700298,42.5338531]]}},
{"type":"Feature","id":"way/152826449","properties":{"type":"way","id":152826449,"tags":{"name":"Font Roja","name:ca":"Font Roja","piste:difficulty":"intermediate","piste:type":"downhill","sport":"skiing"},"relations":[],"meta":{}},"geometry":{"type":"LineString","coordinates":[[1.4521777,42.539982],[1.4517342,42.5402216],[1.4511544,42.5404694],[1.4504934,42.540683],[1.4497511,42.5408539],[1.4491365,42.5410504],[1.4485334,42.5412128],[1.4477912,42.5413922],[1.447165,42.541546],[1.4466199,42.5416827],[1.4461908,42.5418195],[1.4459241,42.5420331],[1.4455994,42.5424347],[1.445379,42.54299],[1.4451819,42.5434514],[1.4450311,42.5440154],[1.4450079,42.5443828],[1.4451471,42.544716],[1.4453211,42.5449809],[1.4454602,42.5452884],[1.4454834,42.5456046],[1.4454486,42.5459036],[1.4453674,42.5461428],[1.445386,42.5462378],[1.4454365,42.5463091],[1.445604,42.5463195]]}},
{"type":"Feature","id":"way/152826450","properties":{"type":"way","id":152826450,"tags":{"lit":"no","name":"Fontanals","name:ca":"Fontanals","piste:difficulty":"intermediate","piste:type":"downhill","sport":"skiing"},"relations":[],"meta":{}},"geometry":{"type":"LineString","coordinates":[[1.4672357,42.5284258],[1.468298,42.5289307],[1.4690021,42.5291981],[1.4694777,42.5295486],[1.4699697,42.5298387],[1.4702076,42.5300106],[1.4703989,42.5302028],[1.4704917,42.5303439],[1.4704822,42.5304596],[1.4704801,42.5304849],[1.4703873,42.530596],[1.4702134,42.5307113],[1.4700162,42.5308096],[1.4698597,42.5309421],[1.4697491,42.5311082],[1.4697089,42.5311686],[1.4696219,42.5314463],[1.4696335,42.5317155],[1.4697263,42.5320702],[1.4698059,42.5322908],[1.4698249,42.5323436],[1.4699177,42.5325829],[1.4699524,42.532882],[1.4698771,42.5332238],[1.4698829,42.5335058],[1.4698747,42.5338503]]}},
{"type":"Feature","id":"way/152826451","properties":{"type":"way","id":152826451,"tags":{"name":"Fontanals de les Roques","name:ca":"Fontanals de les Roques","piste:difficulty":"intermediate","piste:type":"downhill","sport":"skiing"},"relations":[],"meta":{}},"geometry":{"type":"LineString","coordinates":[[1.4601609,42.5275498],[1.4603503,42.5277513],[1.4605445,42.5278969],[1.4607361,42.5280001],[1.4610313,42.528121],[1.4613498,42.5281985],[1.4615753,42.5282324],[1.4618172,42.5282512],[1.4621835,42.5282122],[1.4624377,42.5281816],[1.462743,42.5281534],[1.4631074,42.528156],[1.4635462,42.5281841],[1.4638469,42.5282213],[1.4642131,42.5282902],[1.4645575,42.5284111],[1.4648855,42.5285199],[1.4652135,42.5287132],[1.4655743,42.5289066],[1.4660828,42.5291967],[1.4664764,42.529523],[1.4668376,42.5299466],[1.4671865,42.5303044],[1.4675096,42.5306712],[1.4677228,42.5309129],[1.467936,42.5311546],[1.4682477,42.5314205]]}},
{"type":"Feature","id":"way/152826452","properties":{"type":"way","id":152826452,"tags":{"name":"la Cot","name:ca":"la Cot","piste:difficulty":"intermediate","piste:type":"downhill","sport":"skiing"},"relations":[],"meta":{}},"geometry":{"type":"LineString","coordinates":[[1.4672369,42.5284253],[1.4675026,42.5290786],[1.4675928,42.5293263],[1.4676912,42.5296889],[1.4678716,42.5301482],[1.4680766,42.530547],[1.4682734,42.5309338],[1.4685194,42.5313326]]}},
{"type":"Feature","id":"way/152826453","properties":{"type":"way","id":152826453,"tags":{"name":"la Serra","name:ca":"la Serra","piste:difficulty":"intermediate","piste:type":"downhill","sport":"skiing"},"relations":[],"meta":{}},"geometry":{"type":"LineString","coordinates":[[1.4566099,42.5262899],[1.45749,42.5264161],[1.4578384,42.5264866],[1.4584616,42.5267526],[1.4591668,42.527097],[1.4598829,42.5274187],[1.4601609,42.5275498],[1.4605571,42.5276845],[1.4608105,42.5277834],[1.4611033,42.5278609],[1.4613849,42.5279103],[1.461709,42.527937],[1.4621846,42.5278947],[1.4627586,42.5278162],[1.463267,42.5277678],[1.4637344,42.5277376],[1.4642347,42.5276953],[1.4646447,42.5276953],[1.465228,42.5276878],[1.4656011,42.5278292],[1.4658587,42.5280267],[1.4659443,42.5280923],[1.4664095,42.5282104],[1.4672395,42.5284271]]}},
{"type":"Feature","id":"way/152826454","properties":{"type":"way","id":152826454,"tags":{"name":"la Serra","name:ca":"la Serra","piste:difficulty":"easy","piste:type":"downhill","sport":"skiing"},"relations":[],"meta":{}},"geometry":{"type":"LineString","coordinates":[[1.4741716,42.5303282],[1.4743352,42.5304043],[1.4745699,42.5305693],[1.4747934,42.5307086],[1.4751515,42.5308658],[1.4756454,42.5310339],[1.4761035,42.5311604],[1.4767239,42.5312843],[1.4774024,42.5314638],[1.4781446,42.5316432],[1.4785969,42.5317672],[1.4791943,42.5319066],[1.4796395,42.53202],[1.4800927,42.5321114],[1.4807747,42.5322613],[1.4816312,42.5324649],[1.4822956,42.5326291],[1.4827274,42.5327288],[1.48343,42.5328476],[1.4841168,42.5330093],[1.4847375,42.5331986],[1.4852201,42.5335892],[1.4856305,42.5339848],[1.4860248,42.5342796],[1.4864481,42.534442],[1.4868018,42.5345573],[1.4872773,42.5346513],[1.4877412,42.5347069],[1.4882514,42.5347539],[1.4885241,42.5347809],[1.4887347,42.5348217],[1.4888666,42.5348422]]}},
{"type":"Feature","id":"way/152826455","properties":{"type":"way","id":152826455,"tags":{"name":"Poselletes","piste:difficulty":"intermediate","piste:type":"downhill","sport":"skiing"},"relations":[],"meta":{}},"geometry":{"type":"LineString","coordinates":[[1.4521861,42.5389345],[1.452488,42.5389741],[1.452546,42.5391364],[1.4525112,42.5394098],[1.4523721,42.5396747],[1.4522329,42.5399054],[1.4521777,42.539982],[1.4520358,42.5401789],[1.4519198,42.5403669],[1.451827,42.540589],[1.4518154,42.5408112],[1.4518618,42.5411615],[1.4519314,42.5416229],[1.4519778,42.5420843],[1.452001,42.5425201],[1.4520358,42.5429302],[1.4520706,42.5433575],[1.452059,42.5437419],[1.4520937,42.5440581],[1.4522097,42.5442973],[1.4522677,42.5444853],[1.4524097,42.5447205]]}},
{"type":"Feature","id":"way/152826456","properties":{"type":"way","id":152826456,"tags":{"name":"Tossa","name:ca":"Tossa","piste:difficulty":"easy","piste:type":"downhill","sport":"skiing"},"relations":[],"meta":{}},"geometry":{"type":"LineString","coordinates":[[1.456226,42.5266013],[1.4557557,42.5269812],[1.4552608,42.5273399],[1.4550686,42.5283406],[1.4547831,42.5294756],[1.4546871,42.529977],[1.4546949,42.5302122],[1.4546181,42.5306745],[1.454331,42.5308657]]}},
{"type":"Feature","id":"way/152826457","properties":{"type":"way","id":152826457,"tags":{"name":"Transversal","name:ca":"Transversal","piste:difficulty":"novice","piste:type":"downhill","sport":"skiing"},"relations":[],"meta":{}},"geometry":{"type":"LineString","coordinates":[[1.4888666,42.5348422],[1.488545,42.5349364],[1.4882864,42.5350856],[1.4874777,42.5351769],[1.4865213,42.5353383],[1.4857341,42.5354525],[1.4848239,42.5355673],[1.4845454,42.5355801],[1.4841678,42.5355975],[1.4835774,42.535531],[1.482987,42.5354283],[1.4824212,42.5354827],[1.4820931,42.5355491],[1.4814617,42.5356337],[1.4809919,42.5356631],[1.4805925,42.5356881],[1.480084,42.5357667],[1.480002,42.5358331],[1.480043,42.5358996],[1.4803055,42.5359177],[1.4810435,42.5360325],[1.4818881,42.5361897],[1.4825032,42.5363709],[1.4830362,42.5365824],[1.4834216,42.5368483],[1.4837906,42.5371866],[1.4842088,42.5376579]]}},
{"type":"Feature","id":"way/152826458","properties":{"type":"way","id":152826458,"tags":{"piste:difficulty":"intermediate","piste:type":"downhill","sport":"skiing"},"relations":[],"meta":{}},"geometry":{"type":"LineString","coordinates":[[1.4527892,42.5388236],[1.4529983,42.5394868],[1.4531607,42.5399994],[1.4532651,42.5404865],[1.4534506,42.5410419]]}},
{"type":"Feature","id":"way/152826460","properties":{"type":"way","id":152826460,"tags":{"piste:difficulty":"novice","piste:type":"downhill","sport":"skiing"},"relations":[],"meta":{}},"geometry":{"type":"LineString","coordinates":[[1.4896988,42.5349054],[1.4899051,42.5351657],[1.4902767,42.5354032],[1.4905435,42.5355844],[1.4908109,42.5356606],[1.4909735,42.5356842],[1.491218,42.5356486]]}},
{"type":"Feature","id":"way/269224749","properties":{"type":"way","id":269224749,"tags":{"name":"Bony","name:ca":"Bony","piste:difficulty":"intermediate","piste:grooming":"classic","piste:type":"downhill","sport":"skiing"},"relations":[],"meta":{}},"geometry":{"type":"LineString","coordinates":[[1.4630784,42.5721131],[1.4638699,42.5719609],[1.4646576,42.5720689],[1.4656354,42.5721049],[1.4664557,42.5721129],[1.467445,42.5721099],[1.4680929,42.5721622],[1.4686278,42.5721978],[1.4691242,42.5722648]]}},
{"type":"Feature","id":"way/269224750","properties":{"type":"way","id":269224750,"tags":{"piste:difficulty":"easy","piste:grooming":"classic","piste:type":"downhill","sport":"skiing"},"relations":[],"meta":{}},"geometry":{"type":"LineString","coordinates":[[1.4506218,42.570781],[1.4510334,42.5706087],[1.4512235,42.5704407],[1.4513376,42.5702286],[1.4513452,42.5698583]]}},
{"type":"Feature","id":"way/269224751","properties":{"type":"way","id":269224751,"tags":{"piste:difficulty":"novice","piste:grooming":"mogul","piste:type":"downhill","sport":"skiing"},"relations":[],"meta":{}},"geometry":{"type":"LineString","coordinates":[[1.4543488,42.5678118],[1.4549781,42.567824],[1.4559831,42.5678961],[1.456635,42.5680681],[1.4572216,42.5681321],[1.4576562,42.5682161],[1.4579659,42.5684122],[1.4583624,42.5686762],[1.4589105,42.5691825]]}},
{"type":"Feature","id":"way/269525356","properties":{"type":"way","id":269525356,"tags":{"name":"Cami Superior","piste:difficulty":"easy","piste:type":"downhill","sport":"skiing"},"relations":[],"meta":{}},"geometry":{"type":"LineString","coordinates":[[1.4659359,42.5280291],[1.4659676,42.5280332],[1.4665961,42.5281136],[1.4671618,42.528244],[1.4678538,42.5283857],[1.4686405,42.5284298],[1.4692123,42.5285534],[1.4698519,42.5288073],[1.4703385,42.5289766],[1.4704423,42.5290127],[1.4709508,42.5291457],[1.471492,42.5292786],[1.4720386,42.5295074],[1.472632,42.5297743],[1.4729999,42.5299029],[1.4730052,42.5298219]]}},
{"type":"Feature","id":"way/269525357","properties":{"type":"way","id":269525357,"tags":{"name":"Cami del Mig","piste:difficulty":"easy","piste:grooming":"classic","piste:type":"downhill","sport":"skiing"},"relations":[],"meta":{}},"geometry":{"type":"LineString","coordinates":[[1.4539805,42.5320219],[1.4544903,42.5315567],[1.4550004,42.531264],[1.455805,42.5307089],[1.4564609,42.5302033],[1.4570361,42.5298804],[1.4576558,42.5295272],[1.4580666,42.5293052],[1.4585391,42.5290756],[1.4593891,42.5287721]]}},
{"type":"Feature","id":"way/269525358","properties":{"type":"way","id":269525358,"tags":{"piste:difficulty":"intermediate","piste:grooming":"classic","piste:type":"downhill","sport":"skiing"},"relations":[],"meta":{}},"geometry":{"type":"LineString","coordinates":[[1.462175,42.529154],[1.462936,42.5294218],[1.4638124,42.5299534],[1.4646549,42.5304958],[1.465214,42.5307667],[1.4656812,42.5309219],[1.4662841,42.5310735],[1.4670103,42.5313304],[1.4678165,42.5316623],[1.4682837,42.5318424],[1.4686106,42.5320512],[1.4688406,42.5321832],[1.4690681,42.5323883],[1.4693223,42.5327737],[1.469545,42.5331786],[1.4696637,42.5334391],[1.4698747,42.5338503]]}},
{"type":"Feature","id":"way/269525359","properties":{"type":"way","id":269525359,"tags":{"piste:difficulty":"intermediate","piste:grooming":"classic","piste:type":"downhill","sport":"skiing"},"relations":[],"meta":{}},"geometry":{"type":"LineString","coordinates":[[1.4697491,42.5311082],[1.4693803,42.5311893],[1.4690037,42.53126],[1.4687067,42.5314278]]}},
{"type":"Feature","id":"way/269525360","properties":{"type":"way","id":269525360,"tags":{"piste:difficulty":"intermediate","piste:grooming":"classic","piste:type":"downhill","sport":"skiing"},"relations":[],"meta":{}},"geometry":{"type":"LineString","coordinates":[[1.4628198,42.5307292],[1.463445,42.5306701],[1.4639655,42.5306166],[1.4645852,42.5306808],[1.465214,42.5307667]]}},
{"type":"Feature","id":"way/1152468770","properties":{"type":"way","id":1152468770,"tags":{"lit":"no","name":"La Comellada","piste:difficulty":"advanced","piste:type":"downhill"},"relations":[],"meta":{}},"geometry":{"type":"LineString","coordinates":[[1.453568,42.5323458],[1.4542261,42.5326241],[1.4545823,42.5328866],[1.4549259,42.5331304],[1.4551422,42.533346],[1.4553585,42.5335054],[1.4555493,42.5336554],[1.455931,42.5337679],[1.4562364,42.533993],[1.4565545,42.534218],[1.4568598,42.5344336],[1.4571906,42.5346117],[1.4576391,42.5348023],[1.4579554,42.5349249],[1.4582059,42.5351059],[1.4584661,42.5352657],[1.4587985,42.5353882],[1.4591382,42.5355213],[1.4593695,42.5356278],[1.4597453,42.5357769],[1.4599774,42.5358417],[1.4602221,42.5359203],[1.4605107,42.5359757],[1.4607868,42.5360358],[1.4609106,42.5360655],[1.4611148,42.5361202],[1.4613345,42.5361886],[1.4615013,42.5362798],[1.4615945,42.5363231],[1.4616673,42.5363589],[1.461807,42.5364141],[1.4618941,42.5364543],[1.4620641,42.5365125],[1.4621714,42.5365379],[1.4622827,42.5365408],[1.4624912,42.5365856],[1.4626289,42.5365841],[1.4627807,42.5365781],[1.4629872,42.5365408],[1.4631592,42.536505],[1.4633131,42.5364528],[1.4634507,42.5363962],[1.463552,42.5363216],[1.4636937,42.5362395],[1.4637787,42.5361769],[1.4638414,42.5360963],[1.4638637,42.5360188],[1.4638779,42.5357682],[1.4638495,42.5356489],[1.4637868,42.5354505],[1.4637402,42.5353088],[1.4636694,42.5351492],[1.4636188,42.5350641],[1.4635034,42.5349418],[1.4634993,42.5348404],[1.4635641,42.5347792],[1.4636228,42.5347062],[1.4636451,42.5346211],[1.4636775,42.5344884],[1.4637281,42.5344242],[1.4638414,42.5344063],[1.4640317,42.5343899],[1.4642382,42.5343452],[1.4644892,42.5342139],[1.4648154,42.5339633],[1.4651714,42.5336381],[1.4653495,42.5334606],[1.4654872,42.533307],[1.4656552,42.5331563],[1.4658131,42.5331026],[1.4658966,42.5330834]]}},
{"type":"Feature","id":"way/1152470084","properties":{"type":"way","id":1152470084,"tags":{"lit":"no","name":"Acces TK La Pala","piste:difficulty":"intermediate","piste:type":"downhill"},"relations":[],"meta":{}},"geometry":{"type":"LineString","coordinates":[[1.44681,42.5655696],[1.4469983,42.5653788],[1.4471755,42.5652053],[1.447502,42.5650851],[1.4477655,42.565049],[1.4481083,42.5650662],[1.4483741,42.5650147],[1.4486142,42.5649632],[1.4488784,42.5648595]]}},
{"type":"Feature","id":"way/1242377780","properties":{"type":"way","id":1242377780,"tags":{"highway":"path","sac_scale":"hiking"},"relations":[{"role":"","rel":17072271,"reltags":{"description":"Snowshoe trail","distance":"1.7","name":"guineu","osmc:symbol":"red:white:red_drop_line","piste:type":"hike","route":"piste","symbol":"snowshoe","type":"route"}}],"meta":{}},"geometry":{"type":"LineString","coordinates":[[1.4747228,42.5303034],[1.4748797,42.5304547],[1.47494,42.5305565],[1.4750755,42.5306928],[1.4751439,42.5307462],[1.4753276,42.5308371],[1.4756468,42.5309448],[1.4760062,42.5310832],[1.4763294,42.5311712],[1.4767224,42.5312235],[1.4772803,42.531353],[1.4776517,42.5314321],[1.4782217,42.5315408],[1.4785114,42.5316564],[1.4793684,42.5318165],[1.4798458,42.5319104],[1.4809334,42.5321673],[1.4820586,42.5324322],[1.4832401,42.5326545],[1.4843935,42.5329312],[1.4849608,42.533124],[1.485292,42.533456],[1.4856608,42.5338543],[1.4860283,42.5341517],[1.4863394,42.5342634],[1.4870837,42.5345174],[1.4874673,42.5346093],[1.4881311,42.5346587],[1.4888151,42.5346982],[1.4893422,42.5347605],[1.4898115,42.5347881],[1.4903802,42.5349433],[1.4907542,42.5351224],[1.4911662,42.5353232],[1.4913229,42.5354088],[1.4915711,42.5357062]]}},
{"type":"Feature","id":"way/1242377781","properties":{"type":"way","id":1242377781,"tags":{"name":"la Serra","piste:difficulty":"easy","piste:type":"downhill","sport":"skiing"},"relations":[],"meta":{}},"geometry":{"type":"LineString","coordinates":[[1.4888666,42.5348422],[1.4890561,42.5349173],[1.4892666,42.534998]]}},
{"type":"Feature","id":"way/1242377782","properties":{"type":"way","id":1242377782,"tags":{"name":"la Serra","piste:difficulty":"easy","piste:type":"downhill","sport":"skiing"},"relations":[],"meta":{}},"geometry":{"type":"LineString","coordinates":[[1.4888666,42.5348422],[1.4894576,42.5348697],[1.4896988,42.5349054]]}},
{"type":"Feature","id":"way/1348519493","properties":{"type":"way","id":1348519493,"tags":{"name":"Cami Inferior","piste:difficulty":"easy","piste:type":"downhill","sport":"skiing"},"relations":[{"role":"alternative","rel":18502128,"reltags":{"name":"Cami Inferior","piste:type":"downhill","route":"piste","sport":"skiing","type":"route"}}],"meta":{}},"geometry":{"type":"LineString","coordinates":[[1.4592916,42.5302398],[1.4595721,42.5301528],[1.4598345,42.5301335],[1.4601263,42.5300272],[1.4602706,42.5299112],[1.4603643,42.5298108]]}},
{"type":"Feature","id":"way/1355803567","properties":{"type":"way","id":1355803567,"tags":{"piste:type":"connection"},"relations":[],"meta":{}},"geometry":{"type":"LineString","coordinates":[[1.4797452,42.5770645],[1.4798921,42.5770957],[1.4799654,42.5769591]]}},
{"type":"Feature","id":"way/1355803568","properties":{"type":"way","id":1355803568,"tags":{"piste:type":"connection"},"relations":[],"meta":{}},"geometry":{"type":"LineString","coordinates":[[1.4834414,42.5726073],[1.4835962,42.5726135]]}},
{"type":"Feature","id":"way/1355803569","properties":{"type":"way","id":1355803569,"tags":{"piste:type":"connection"},"relations":[],"meta":{}},"geometry":{"type":"LineString","coordinates":[[1.4701516,42.5725472],[1.4702486,42.5726015],[1.4702194,42.5725355]]}},
{"type":"Feature","id":"way/1355803570","properties":{"type":"way","id":1355803570,"tags":{"piste:type":"connection"},"relations":[],"meta":{}},"geometry":{"type":"LineString","coordinates":[[1.4706909,42.5725722],[1.4709595,42.5725747],[1.4709669,42.5724319]]}},
{"type":"Feature","id":"way/1355803571","properties":{"type":"way","id":1355803571,"tags":{"piste:difficulty":"novice","piste:type":"downhill"},"relations":[],"meta":{}},"geometry":{"type":"LineString","coordinates":[[1.4694886,42.5735168],[1.4693464,42.5735219],[1.4693372,42.5736795]]}},
{"type":"Feature","id":"way/1355803572","properties":{"type":"way","id":1355803572,"tags":{"name":"Beginner Area","piste:difficulty":"novice","piste:type":"downhill"},"relations":[],"meta":{}},"geometry":{"type":"LineString","coordinates":[[1.4694886,42.5735168],[1.4696005,42.5732437],[1.4704786,42.5736042],[1.4703992,42.5737398]]}},
{"type":"Feature","id":"way/1355803573","properties":{"type":"way","id":1355803573,"tags":{"piste:difficulty":"easy","piste:type":"downhill"},"relations":[],"meta":{}},"geometry":{"type":"LineString","coordinates":[[1.4695473,42.5729159],[1.4696005,42.5732437]]}},
{"type":"Feature","id":"way/1355803574","properties":{"type":"way","id":1355803574,"tags":{"piste:difficulty":"novice","piste:type":"downhill"},"relations":[],"meta":{}},"geometry":{"type":"LineString","coordinates":[[1.4700857,42.5739925],[1.4703931,42.5737608]]}},
{"type":"Feature","id":"way/1355803575","properties":{"type":"way","id":1355803575,"tags":{"piste:type":"connection"},"relations":[],"meta":{}},"geometry":{"type":"LineString","coordinates":[[1.4709595,42.5725747],[1.470905,42.5728202],[1.4709828,42.5729011],[1.4709862,42.5730394],[1.4709407,42.5731032],[1.4708954,42.5731665],[1.4708518,42.5732181],[1.4707984,42.5732813],[1.4708756,42.5733948],[1.470952,42.5738381],[1.470846,42.5739392],[1.4706643,42.5741123]]}},
{"type":"Feature","id":"way/1355803576","properties":{"type":"way","id":1355803576,"tags":{"piste:type":"connection"},"relations":[],"meta":{}},"geometry":{"type":"LineString","coordinates":[[1.4712125,42.5731073],[1.4709407,42.5731032]]}},
{"type":"Feature","id":"way/1355803577","properties":{"type":"way","id":1355803577,"tags":{"piste:type":"connection"},"relations":[],"meta":{}},"geometry":{"type":"LineString","coordinates":[[1.4710011,42.5732869],[1.4708518,42.5732181]]}},
{"type":"Feature","id":"way/1355803578","properties":{"type":"way","id":1355803578,"tags":{"piste:type":"connection"},"relations":[],"meta":{}},"geometry":{"type":"LineString","coordinates":[[1.4704786,42.5736042],[1.4706643,42.5741123]]}},
{"type":"Feature","id":"way/1355803579","properties":{"type":"way","id":1355803579,"tags":{"piste:type":"connection"},"relations":[],"meta":{}},"geometry":{"type":"LineString","coordinates":[[1.4703995,42.5745673],[1.4703624,42.5746083],[1.4703271,42.5746977]]}},
{"type":"Feature","id":"way/1355803580","properties":{"type":"way","id":1355803580,"tags":{"piste:type":"connection"},"relations":[],"meta":{}},"geometry":{"type":"LineString","coordinates":[[1.4706643,42.5741123],[1.4705017,42.574249],[1.470515,42.5744832],[1.470518,42.5746709],[1.4703651,42.5748388],[1.4702238,42.5749246],[1.4701474,42.5748637]]}},
{"type":"Feature","id":"way/1355803581","properties":{"type":"way","id":1355803581,"tags":{"piste:type":"connection"},"relations":[],"meta":{}},"geometry":{"type":"LineString","coordinates":[[1.4705017,42.574249],[1.4704076,42.5744073]]}},
{"type":"Feature","id":"way/1355803582","properties":{"type":"way","id":1355803582,"tags":{"name":"Comallemple","piste:difficulty":"easy","piste:type":"downhill"},"relations":[],"meta":{}},"geometry":{"type":"LineString","coordinates":[[1.470846,42.5739392],[1.4709959,42.5739419],[1.4710993,42.5741036],[1.4712599,42.5742296],[1.4714006,42.5743946],[1.4716652,42.5746679],[1.471935,42.574876]]}},
{"type":"Feature","id":"way/1355803583","properties":{"type":"way","id":1355803583,"tags":{"piste:difficulty":"intermediate","piste:type":"connection"},"relations":[],"meta":{}},"geometry":{"type":"LineString","coordinates":[[1.4691242,42.5722648],[1.4691377,42.5722447]]}},
{"type":"Feature","id":"way/1355803584","properties":{"type":"way","id":1355803584,"tags":{"piste:type":"connection"},"relations":[],"meta":{}},"geometry":{"type":"LineString","coordinates":[[1.4634919,42.5712068],[1.4636143,42.571241],[1.4636314,42.5710604]]}},
{"type":"Feature","id":"way/1355803585","properties":{"type":"way","id":1355803585,"tags":{"piste:type":"connection"},"relations":[],"meta":{}},"geometry":{"type":"LineString","coordinates":[[1.4638257,42.5711898],[1.4640225,42.5712973]]}},
{"type":"Feature","id":"way/1355803586","properties":{"type":"way","id":1355803586,"tags":{"piste:type":"downhill"},"relations":[],"meta":{}},"geometry":{"type":"LineString","coordinates":[[1.4636314,42.5710604],[1.4643347,42.5710361]]}},
{"type":"Feature","id":"way/1355803587","properties":{"type":"way","id":1355803587,"tags":{"piste:type":"connection"},"relations":[],"meta":{}},"geometry":{"type":"LineString","coordinates":[[1.4643347,42.5710361],[1.4643544,42.5709811]]}},
{"type":"Feature","id":"way/1355803588","properties":{"type":"way","id":1355803588,"tags":{"piste:type":"connection"},"relations":[],"meta":{}},"geometry":{"type":"LineString","coordinates":[[1.4589105,42.5691825],[1.4591642,42.5690747]]}},
{"type":"Feature","id":"way/1355803589","properties":{"type":"way","id":1355803589,"tags":{"name":"Port Vell","piste:difficulty":"easy","piste:type":"downhill"},"relations":[],"meta":{}},"geometry":{"type":"LineString","coordinates":[[1.4592029,42.5696083],[1.4597066,42.5696492],[1.460502,42.5699299],[1.4612342,42.5699951]]}},
{"type":"Feature","id":"way/1355803590","properties":{"type":"way","id":1355803590,"tags":{"name":"Snow Park","piste:difficulty":"easy","piste:type":"downhill"},"relations":[],"meta":{}},"geometry":{"type":"LineString","coordinates":[[1.4508096,42.5692483],[1.4513982,42.5689522],[1.4523609,42.5687389],[1.4533823,42.5688778],[1.4545363,42.5690502],[1.4558425,42.5694219],[1.4560331,42.5695226],[1.4563596,42.5699114]]}},
{"type":"Feature","id":"way/1355803591","properties":{"type":"way","id":1355803591,"tags":{"piste:type":"connection"},"relations":[],"meta":{}},"geometry":{"type":"LineString","coordinates":[[1.4545363,42.5690502],[1.4543134,42.5688912],[1.4536775,42.568369]]}},
{"type":"Feature","id":"way/1355803592","properties":{"type":"way","id":1355803592,"tags":{"piste:type":"connection"},"relations":[],"meta":{}},"geometry":{"type":"LineString","coordinates":[[1.4558425,42.5694219],[1.4549498,42.5685715]]}},
{"type":"Feature","id":"way/1355803593","properties":{"type":"way","id":1355803593,"tags":{"piste:type":"connection"},"relations":[],"meta":{}},"geometry":{"type":"LineString","coordinates":[[1.4510032,42.5700438],[1.4507669,42.5696361],[1.4506286,42.5692194],[1.4508096,42.5692483]]}},
{"type":"Feature","id":"way/1355803594","properties":{"type":"way","id":1355803594,"tags":{"piste:difficulty":"easy","piste:type":"downhill"},"relations":[],"meta":{}},"geometry":{"type":"LineString","coordinates":[[1.4501884,42.5693016],[1.450718,42.5690073]]}},
{"type":"Feature","id":"way/1355803595","properties":{"type":"way","id":1355803595,"tags":{"piste:difficulty":"intermediate","piste:type":"downhill"},"relations":[],"meta":{}},"geometry":{"type":"LineString","coordinates":[[1.4521162,42.5679778],[1.4525612,42.5682879]]}},
{"type":"Feature","id":"way/1355803596","properties":{"type":"way","id":1355803596,"tags":{"piste:difficulty":"easy","piste:type":"downhill"},"relations":[],"meta":{}},"geometry":{"type":"LineString","coordinates":[[1.4563596,42.5699114],[1.4563499,42.5702461],[1.4563725,42.5705364]]}},
{"type":"Feature","id":"way/1355803597","properties":{"type":"way","id":1355803597,"tags":{"name":"Niu","piste:difficulty":"easy","piste:type":"downhill"},"relations":[],"meta":{}},"geometry":{"type":"LineString","coordinates":[[1.4583102,42.5709416],[1.4614833,42.5713546]]}},
{"type":"Feature","id":"way/1355803598","properties":{"type":"way","id":1355803598,"tags":{"name":"Niu","piste:difficulty":"easy","piste:type":"downhill","sport":"skiing"},"relations":[],"meta":{}},"geometry":{"type":"LineString","coordinates":[[1.4614833,42.5713546],[1.4629585,42.571326],[1.4636415,42.5714175],[1.4637047,42.5713757],[1.4636143,42.571241]]}},
{"type":"Feature","id":"way/1355803599","properties":{"type":"way","id":1355803599,"tags":{"piste:difficulty":"easy","piste:type":"downhill"},"relations":[],"meta":{}},"geometry":{"type":"LineString","coordinates":[[1.4691242,42.5722648],[1.4695473,42.5729159]]}},
{"type":"Feature","id":"way/1355803600","properties":{"type":"way","id":1355803600,"tags":{"piste:type":"connection"},"relations":[],"meta":{}},"geometry":{"type":"LineString","coordinates":[[1.4657692,42.5728154],[1.4658546,42.5727555],[1.4658591,42.5726728]]}},
{"type":"Feature","id":"way/1355803601","properties":{"type":"way","id":1355803601,"tags":{"piste:difficulty":"easy","piste:type":"downhill"},"relations":[],"meta":{}},"geometry":{"type":"LineString","coordinates":[[1.4640177,42.572274],[1.4657692,42.5728154]]}},
{"type":"Feature","id":"way/1355803602","properties":{"type":"way","id":1355803602,"tags":{"piste:type":"connection"},"relations":[],"meta":{}},"geometry":{"type":"LineString","coordinates":[[1.4457243,42.5662107],[1.4456115,42.5661931],[1.4455356,42.5662285],[1.4452704,42.5660945],[1.4449258,42.5660356],[1.4446388,42.5660667],[1.4444995,42.5660871],[1.4444791,42.5660066]]}},
{"type":"Feature","id":"way/1355803603","properties":{"type":"way","id":1355803603,"tags":{"piste:type":"connection"},"relations":[],"meta":{}},"geometry":{"type":"LineString","coordinates":[[1.452264,42.5453115],[1.4524097,42.5447205],[1.4524549,42.5444649]]}},
{"type":"Feature","id":"way/1355803604","properties":{"type":"way","id":1355803604,"tags":{"piste:type":"connection"},"relations":[],"meta":{}},"geometry":{"type":"LineString","coordinates":[[1.4542355,42.5310549],[1.454331,42.5308657],[1.4541658,42.5310252]]}},
{"type":"Feature","id":"way/1355803605","properties":{"type":"way","id":1355803605,"tags":{"piste:type":"connection"},"relations":[],"meta":{}},"geometry":{"type":"LineString","coordinates":[[1.4563913,42.5266947],[1.456226,42.5266013],[1.4566099,42.5262899],[1.4567086,42.5263372]]}},
{"type":"Feature","id":"way/1355803606","properties":{"type":"way","id":1355803606,"tags":{"piste:type":"connection"},"relations":[],"meta":{}},"geometry":{"type":"LineString","coordinates":[[1.4741801,42.5301506],[1.4742693,42.5302091]]}},
{"type":"Feature","id":"way/1355803607","properties":{"type":"way","id":1355803607,"tags":{"piste:type":"connection"},"relations":[],"meta":{}},"geometry":{"type":"LineString","coordinates":[[1.4748116,42.53045],[1.4747465,42.5305057],[1.4741716,42.5303282],[1.4742693,42.5302091]]}},
{"type":"Feature","id":"way/1355803608","properties":{"type":"way","id":1355803608,"tags":{"piste:type":"connection"},"relations":[],"meta":{}},"geometry":{"type":"LineString","coordinates":[[1.4741716,42.5303282],[1.4741051,42.5306099]]}},
{"type":"Feature","id":"way/1355803609","properties":{"type":"way","id":1355803609,"tags":{"piste:type":"connection"},"relations":[],"meta":{}},"geometry":{"type":"LineString","coordinates":[[1.4738145,42.5305625],[1.4741051,42.5306099]]}},
{"type":"Feature","id":"way/1355803610","properties":{"type":"way","id":1355803610,"tags":{"piste:difficulty":"easy","piste:type":"downhill"},"relations":[],"meta":{}},"geometry":{"type":"LineString","coordinates":[[1.4695939,42.5337907],[1.468895,42.5339072]]}},
{"type":"Feature","id":"way/1355803611","properties":{"type":"way","id":1355803611,"tags":{"piste:type":"connection"},"relations":[],"meta":{}},"geometry":{"type":"LineString","coordinates":[[1.4680287,42.5313772],[1.4682477,42.5314205],[1.4685194,42.5313326]]}},
{"type":"Feature","id":"way/1355803612","properties":{"type":"way","id":1355803612,"tags":{"piste:type":"connection"},"relations":[],"meta":{}},"geometry":{"type":"LineString","coordinates":[[1.4687067,42.5314278],[1.4685194,42.5313326]]}},
{"type":"Feature","id":"way/1355803614","properties":{"type":"way","id":1355803614,"tags":{"piste:difficulty":"easy","piste:type":"connection"},"relations":[],"meta":{}},"geometry":{"type":"LineString","coordinates":[[1.4700298,42.5338531],[1.4698747,42.5338503]]}},
{"type":"Feature","id":"way/1355803615","properties":{"type":"way","id":1355803615,"tags":{"piste:difficulty":"easy","piste:type":"connection"},"relations":[],"meta":{}},"geometry":{"type":"LineString","coordinates":[[1.4698747,42.5338503],[1.4695939,42.5337907]]}},
{"type":"Feature","id":"way/1355803616","properties":{"type":"way","id":1355803616,"tags":{"piste:type":"connection"},"relations":[],"meta":{}},"geometry":{"type":"LineString","coordinates":[[1.4554605,42.527373],[1.4552608,42.5273399]]}},
{"type":"Feature","id":"way/1355803617","properties":{"type":"way","id":1355803617,"tags":{"piste:type":"connection"},"relations":[],"meta":{}},"geometry":{"type":"LineString","coordinates":[[1.452488,42.5389741],[1.4527892,42.5388236]]}},
{"type":"Feature","id":"way/1355807992","properties":{"type":"way","id":1355807992,"tags":{"piste:type":"connection"},"relations":[],"meta":{}},"geometry":{"type":"LineString","coordinates":[[1.4898796,42.5364868],[1.4902476,42.5364238],[1.4903673,42.5366307]]}},
{"type":"Feature","id":"way/1355807993","properties":{"type":"way","id":1355807993,"tags":{"piste:type":"connection"},"relations":[],"meta":{}},"geometry":{"type":"LineString","coordinates":[[1.4903673,42.5366307],[1.4906313,42.5364955],[1.4909123,42.5363516],[1.4911072,42.5361422]]}},
{"type":"Feature","id":"way/1355807994","properties":{"type":"way","id":1355807994,"tags":{"piste:type":"connection"},"relations":[],"meta":{}},"geometry":{"type":"LineString","coordinates":[[1.4911072,42.5361422],[1.4911888,42.5358134],[1.491218,42.5356486],[1.4911647,42.53564],[1.4912025,42.5356267],[1.491218,42.5356486]]}},
{"type":"Feature","id":"way/1355807995","properties":{"type":"way","id":1355807995,"tags":{"piste:type":"connection"},"relations":[],"meta":{}},"geometry":{"type":"LineString","coordinates":[[1.4911408,42.5372017],[1.4909194,42.5370427],[1.4909086,42.5369177],[1.4908819,42.5367396],[1.4906313,42.5364955]]}},
{"type":"Feature","id":"way/1355807996","properties":{"type":"way","id":1355807996,"tags":{"piste:type":"connection"},"relations":[],"meta":{}},"geometry":{"type":"LineString","coordinates":[[1.5138582,42.5472953],[1.5139662,42.547274]]}},
{"type":"Feature","id":"way/1355809997","properties":{"type":"way","id":1355809997,"tags":{"piste:type":"connection"},"relations":[],"meta":{}},"geometry":{"type":"LineString","coordinates":[[1.4842088,42.5376579],[1.484263,42.5376659],[1.4843909,42.5376971],[1.4844565,42.53772]]}},
{"type":"Feature","id":"way/1355809998","properties":{"type":"way","id":1355809998,"tags":{"piste:type":"connection"},"relations":[],"meta":{}},"geometry":{"type":"LineString","coordinates":[[1.4845831,42.5375895],[1.4843909,42.5376971]]}},
{"type":"Feature","id":"way/1355809999","properties":{"type":"way","id":1355809999,"tags":{"piste:type":"connection"},"relations":[],"meta":{}},"geometry":{"type":"LineString","coordinates":[[1.4842088,42.5376579],[1.4837975,42.5374631]]}},
{"type":"Feature","id":"way/1355810000","properties":{"type":"way","id":1355810000,"tags":{"piste:type":"connection"},"relations":[],"meta":{}},"geometry":{"type":"LineString","coordinates":[[1.4743926,42.5305222],[1.4741716,42.5303282]]}},
{"type":"Feature","id":"way/1355810001","properties":{"type":"way","id":1355810001,"tags":{"piste:type":"connection"},"relations":[],"meta":{}},"geometry":{"type":"LineString","coordinates":[[1.4521031,42.5339623],[1.4522319,42.5339742]]}},
{"type":"Feature","id":"way/1358883554","properties":{"type":"way","id":1358883554,"tags":{"name":"Route to Snow Park","piste:type":"downhill"},"relations":[],"meta":{}},"geometry":{"type":"LineString","coordinates":[[1.4558084,42.5704231],[1.4561124,42.5703692],[1.4563499,42.5702461],[1.4563596,42.5699114]]}},
{"type":"Feature","id":"node/323129883","properties":{"type":"node","id":323129883,"tags":{"aerialway":"station","aerialway:access":"both","name":"Telecabina La Massana","name:ca":"Telecabina La Massana","public_transport":"station"},"relations":[],"meta":{}},"geometry":{"type":"Point","coordinates":[1.5138582,42.5472953]}},
{"type":"Feature","id":"node/323130871","properties":{"type":"node","id":323130871,"tags":{"aerialway":"station","public_transport":"station"},"relations":[],"meta":{}},"geometry":{"type":"Point","coordinates":[1.4834414,42.5726073]}},
{"type":"Feature","id":"node/323130873","properties":{"type":"node","id":323130873,"tags":{"aerialway":"station","public_transport":"station"},"relations":[],"meta":{}},"geometry":{"type":"Point","coordinates":[1.4712125,42.5731073]}},
{"type":"Feature","id":"node/521153185","properties":{"type":"node","id":521153185,"tags":{"aerialway":"station","aerialway:access":"exit","public_transport":"station","wheelchair":"no"},"relations":[],"meta":{}},"geometry":{"type":"Point","coordinates":[1.4710011,42.5732869]}},
{"type":"Feature","id":"node/521153188","properties":{"type":"node","id":521153188,"tags":{"aerialway":"station","aerialway:access":"entry","public_transport":"station"},"relations":[],"meta":{}},"geometry":{"type":"Point","coordinates":[1.4799654,42.5769591]}},
{"type":"Feature","id":"node/663075945","properties":{"type":"node","id":663075945,"tags":{"aerialway":"station","aerialway:access":"exit","public_transport":"station"},"relations":[],"meta":{}},"geometry":{"type":"Point","coordinates":[1.4888794,42.5350001]}},
{"type":"Feature","id":"node/663075946","properties":{"type":"node","id":663075946,"tags":{"aerialway":"station","aerialway:access":"entry","public_transport":"station"},"relations":[],"meta":{}},"geometry":{"type":"Point","coordinates":[1.4902476,42.5364238]}},
{"type":"Feature","id":"node/663078912","properties":{"type":"node","id":663078912,"tags":{"aerialway":"station","aerialway:access":"entry","name":"LA SERRA","public_transport":"station"},"relations":[],"meta":{}},"geometry":{"type":"Point","coordinates":[1.4898796,42.5364868]}},
{"type":"Feature","id":"node/663080313","properties":{"type":"node","id":663080313,"tags":{"aerialway":"station","aerialway:access":"entry","public_transport":"station"},"relations":[],"meta":{}},"geometry":{"type":"Point","coordinates":[1.4845831,42.5375895]}},
{"type":"Feature","id":"node/663084328","properties":{"type":"node","id":663084328,"tags":{"aerialway":"station","aerialway:access":"entry","name":"LA SERRA 2","public_transport":"station"},"relations":[],"meta":{}},"geometry":{"type":"Point","coordinates":[1.4837975,42.5374631]}},
{"type":"Feature","id":"node/663092389","properties":{"type":"node","id":663092389,"tags":{"aerialway":"station","aerialway:access":"exit","public_transport":"station"},"relations":[],"meta":{}},"geometry":{"type":"Point","coordinates":[1.4529365,42.534928]}},
{"type":"Feature","id":"node/663092390","properties":{"type":"node","id":663092390,"tags":{"aerialway":"station","aerialway:access":"entry","public_transport":"station"},"relations":[],"meta":{}},"geometry":{"type":"Point","coordinates":[1.4524549,42.5444649]}},
{"type":"Feature","id":"node/663093429","properties":{"type":"node","id":663093429,"tags":{"aerialway":"station","aerialway:access":"exit","public_transport":"station"},"relations":[],"meta":{}},"geometry":{"type":"Point","coordinates":[1.4521861,42.5389345]}},
{"type":"Feature","id":"node/663093430","properties":{"type":"node","id":663093430,"tags":{"aerialway":"station","aerialway:access":"entry","public_transport":"station"},"relations":[],"meta":{}},"geometry":{"type":"Point","coordinates":[1.445604,42.5463195]}},
{"type":"Feature","id":"node/663095052","properties":{"type":"node","id":663095052,"tags":{"aerialway":"station","aerialway:access":"entry","name":"EL CUBIL","public_transport":"station"},"relations":[],"meta":{}},"geometry":{"type":"Point","coordinates":[1.468895,42.5339072]}},
{"type":"Feature","id":"node/663372539","properties":{"type":"node","id":663372539,"tags":{"aerialway":"station","aerialway:access":"exit","public_transport":"station"},"relations":[],"meta":{}},"geometry":{"type":"Point","coordinates":[1.4510032,42.5700438]}},
{"type":"Feature","id":"node/663372540","properties":{"type":"node","id":663372540,"tags":{"aerialway":"station","aerialway:access":"entry","public_transport":"station"},"relations":[],"meta":{}},"geometry":{"type":"Point","coordinates":[1.4709669,42.5724319]}},
{"type":"Feature","id":"node/663373401","properties":{"type":"node","id":663373401,"tags":{"aerialway":"station","aerialway:access":"exit","public_transport":"station"},"relations":[],"meta":{}},"geometry":{"type":"Point","coordinates":[1.4658546,42.5727555]}},
{"type":"Feature","id":"node/663373402","properties":{"type":"node","id":663373402,"tags":{"aerialway":"station","aerialway:access":"entry","public_transport":"station"},"relations":[],"meta":{}},"geometry":{"type":"Point","coordinates":[1.4703624,42.5746083]}},
{"type":"Feature","id":"node/664085283","properties":{"type":"node","id":664085283,"tags":{"aerialway":"station","aerialway:access":"entry","name":"La Sierra","public_transport":"station"},"relations":[],"meta":{}},"geometry":{"type":"Point","coordinates":[1.4700298,42.5338531]}},
{"type":"Feature","id":"node/664085288","properties":{"type":"node","id":664085288,"tags":{"aerialway":"station","aerialway:access":"exit","name":"LA SERRA","public_transport":"station"},"relations":[],"meta":{}},"geometry":{"type":"Point","coordinates":[1.4738145,42.5305625]}},
{"type":"Feature","id":"node/664115752","properties":{"type":"node","id":664115752,"tags":{"aerialway":"station","aerialway:access":"exit","public_transport":"station"},"relations":[],"meta":{}},"geometry":{"type":"Point","coordinates":[1.4554605,42.527373]}},
{"type":"Feature","id":"node/664115755","properties":{"type":"node","id":664115755,"tags":{"aerialway":"station","aerialway:access":"exit","public_transport":"station"},"relations":[],"meta":{}},"geometry":{"type":"Point","coordinates":[1.4567086,42.5263372]}},
{"type":"Feature","id":"node/664115932","properties":{"type":"node","id":664115932,"tags":{"aerialway":"station","aerialway:access":"entry","public_transport":"station"},"relations":[],"meta":{}},"geometry":{"type":"Point","coordinates":[1.4680287,42.5313772]}},
{"type":"Feature","id":"node/664116091","properties":{"type":"node","id":664116091,"tags":{"aerialway":"station","aerialway:access":"both","public_transport":"station"},"relations":[],"meta":{}},"geometry":{"type":"Point","coordinates":[1.4444791,42.5660066]}},
{"type":"Feature","id":"node/664192681","properties":{"type":"node","id":664192681,"tags":{"aerialway":"station","aerialway:access":"both","public_transport":"station"},"relations":[],"meta":{}},"geometry":{"type":"Point","coordinates":[1.452264,42.5453115]}},
{"type":"Feature","id":"node/664195007","properties":{"type":"node","id":664195007,"tags":{"aerialway":"station","aerialway:access":"entry","public_transport":"station"},"relations":[],"meta":{}},"geometry":{"type":"Point","coordinates":[1.4488784,42.5648595]}},
{"type":"Feature","id":"node/664195008","properties":{"type":"node","id":664195008,"tags":{"aerialway":"station","aerialway:access":"exit","public_transport":"station"},"relations":[],"meta":{}},"geometry":{"type":"Point","coordinates":[1.4533577,42.563449]}},
{"type":"Feature","id":"node/668878457","properties":{"type":"node","id":668878457,"tags":{"aerialway":"station","aerialway:access":"exit","public_transport":"station"},"relations":[],"meta":{}},"geometry":{"type":"Point","coordinates":[1.4508096,42.5692483]}},
{"type":"Feature","id":"node/668878558","properties":{"type":"node","id":668878558,"tags":{"aerialway":"station","aerialway:access":"exit","public_transport":"station"},"relations":[],"meta":{}},"geometry":{"type":"Point","coordinates":[1.4591642,42.5690747]}},
{"type":"Feature","id":"node/668878595","properties":{"type":"node","id":668878595,"tags":{"aerialway":"station","aerialway:access":"entry","public_transport":"station"},"relations":[],"meta":{}},"geometry":{"type":"Point","coordinates":[1.4563596,42.5699114]}},
{"type":"Feature","id":"node/1134180054","properties":{"type":"node","id":1134180054,"tags":{"aerialway":"station","aerialway:access":"exit","public_transport":"station"},"relations":[],"meta":{}},"geometry":{"type":"Point","coordinates":[1.4521031,42.5339623]}},
{"type":"Feature","id":"node/1134181578","properties":{"type":"node","id":1134181578,"tags":{"aerialway":"station","name":"el Planell I","name:ca":"el Planell I"},"relations":[],"meta":{}},"geometry":{"type":"Point","coordinates":[1.4912025,42.5356267]}},
{"type":"Feature","id":"node/1134181653","properties":{"type":"node","id":1134181653,"tags":{"aerialway":"station","aerialway:access":"entry","public_transport":"station"},"relations":[],"meta":{}},"geometry":{"type":"Point","coordinates":[1.4541658,42.5310252]}},
{"type":"Feature","id":"node/2340797296","properties":{"type":"node","id":2340797296,"tags":{"aerialway":"station","aerialway:access":"exit","name":"LA SERRA 2","public_transport":"station"},"relations":[],"meta":{}},"geometry":{"type":"Point","coordinates":[1.4743926,42.5305222]}},
{"type":"Feature","id":"node/2340797297","properties":{"type":"node","id":2340797297,"tags":{"aerialway":"station","aerialway:access":"exit","name":"LA SERRA 1","public_transport":"station"},"relations":[],"meta":{}},"geometry":{"type":"Point","coordinates":[1.4747465,42.5305057]}},
{"type":"Feature","id":"node/2340901723","properties":{"type":"node","id":2340901723,"tags":{"aerialway":"station","aerialway:access":"exit","public_transport":"station"},"relations":[],"meta":{}},"geometry":{"type":"Point","coordinates":[1.4563913,42.5266947]}},
{"type":"Feature","id":"node/2340901724","properties":{"type":"node","id":2340901724,"tags":{"aerialway":"station","aerialway:access":"both","name":"Telecabina La Massana","name:ca":"Telecabina La Massana","public_transport":"station"},"relations":[],"meta":{}},"geometry":{"type":"Point","coordinates":[1.4911408,42.5372017]}},
{"type":"Feature","id":"node/2671550831","properties":{"type":"node","id":2671550831,"tags":{"aerialway":"station","name":"Pla de la Cot I","name:ca":"Pla de la Cot I"},"relations":[],"meta":{}},"geometry":{"type":"Point","coordinates":[1.4741801,42.5301506]}},
{"type":"Feature","id":"node/2671550832","properties":{"type":"node","id":2671550832,"tags":{"aerialway":"station"},"relations":[],"meta":{}},"geometry":{"type":"Point","coordinates":[1.4730052,42.5298219]}},
{"type":"Feature","id":"node/2671553323","properties":{"type":"node","id":2671553323,"tags":{"aerialway":"station","aerialway:access":"exit","public_transport":"station"},"relations":[],"meta":{}},"geometry":{"type":"Point","coordinates":[1.4522319,42.5339742]}},
{"type":"Feature","id":"node/2671553324","properties":{"type":"node","id":2671553324,"tags":{"aerialway":"station","aerialway:access":"entry","public_transport":"station"},"relations":[],"meta":{}},"geometry":{"type":"Point","coordinates":[1.4542355,42.5310549]}},
{"type":"Feature","id":"node/11179138117","properties":{"type":"node","id":11179138117,"tags":{"aerialway":"station","name":"Pla de la Cot II","name:ca":"Pla de la Cot II"},"relations":[],"meta":{}},"geometry":{"type":"Point","coordinates":[1.4742693,42.5302091]}},
{"type":"Feature","id":"node/11179138118","properties":{"type":"node","id":11179138118,"tags":{"aerialway":"station","name":"Pla de la Cot II","name:ca":"Pla de la Cot II"},"relations":[],"meta":{}},"geometry":{"type":"Point","coordinates":[1.4748116,42.53045]}},
{"type":"Feature","id":"node/11544800846","properties":{"type":"node","id":11544800846,"tags":{"aerialway":"station","name":"Pedres Blanques II"},"relations":[],"meta":{}},"geometry":{"type":"Point","coordinates":[1.4909086,42.5369177]}},
{"type":"Feature","id":"node/11544800850","properties":{"type":"node","id":11544800850,"tags":{"aerialway":"station","name":"el Planell II"},"relations":[],"meta":{}},"geometry":{"type":"Point","coordinates":[1.4911647,42.53564]}}
]
}
