{
"type": "FeatureCollection",
"features": [
{"type":"Feature","id":"way/1127880457","properties":{"type":"way","id":1127880457,"tags":{"aerialway":"station","public_transport":"station"},"relations":[],"meta":{}},"geometry":{"type":"Polygon","coordinates":[[[1.4509755,42.5700192],[1.4511948,42.5700464],[1.4511805,42.570109],[1.4509612,42.5700818],[1.4509755,42.5700192]]]}},
{"type":"Feature","id":"way/1349056257","properties":{"type":"way","id":1349056257,"tags":{"aerialway":"station","aerialway:access":"entry","public_transport":"station"},"relations":[],"meta":{}},"geometry":{"type":"Polygon","coordinates":[[[1.4632471,42.5711648],[1.4632841,42.571099],[1.4635629,42.5711864],[1.4635259,42.5712409],[1.4632471,42.5711648]]]}},
{"type":"Feature","id":"way/1349056258","properties":{"type":"way","id":1349056258,"tags":{"aerialway":"station","aerialway:access":"exit","public_transport":"station"},"relations":[],"meta":{}},"geometry":{"type":"Polygon","coordinates":[[[1.4456697,42.5662199],[1.4456959,42.5661756],[1.4458993,42.5662301],[1.44587,42.5662777],[1.4456697,42.5662199]]]}},
{"type":"Feature","id":"way/29376254","properties":{"type":"way","id":29376254,"tags":{"aerialway":"gondola","aerialway:duration":"8","aerialway:heating":"no","aerialway:occupancy":"16","name":"Telecabina La Massana","name:ca":"Telecabina La Massana","name:en":"Cable Car La Massana"},"relations":[],"meta":{}},"geometry":{"type":"LineString","coordinates":[[1.5138582,42.5472953],[1.5129537,42.5468919],[1.5125662,42.5467198],[1.5111062,42.5460702],[1.5105583,42.5458265],[1.5055046,42.5435817],[1.5007856,42.5414857],[1.4972444,42.5399128],[1.4947953,42.5388249],[1.4926992,42.5378939],[1.4911408,42.5372017]]}},
{"type":"Feature","id":"way/29376356","properties":{"type":"way","id":29376356,"tags":{"aerialway":"gondola","name":"els Orriols","name:ca":"els Orriols"},"relations":[],"meta":{}},"geometry":{"type":"LineString","coordinates":[[1.4834414,42.5726073],[1.4828802,42.5726302],[1.4803379,42.5727342],[1.4799705,42.5727492],[1.4783174,42.5728168],[1.4769397,42.5728731],[1.4754888,42.5729325],[1.4751174,42.5729476],[1.4716959,42.5730875],[1.4712125,42.5731073]]}},
{"type":"Feature","id":"way/42014211","properties":{"type":"way","id":42014211,"tags":{"aerialway":"chair_lift","aerialway:occupancy":"6","name":"Arinsal","name:ca":"Arinsal"},"relations":[],"meta":{}},"geometry":{"type":"LineString","coordinates":[[1.4799654,42.5769591],[1.4796886,42.5768457],[1.478901,42.5765231],[1.4781508,42.5762158],[1.4769636,42.5757294],[1.4758657,42.5752797],[1.4751086,42.5749695],[1.4742519,42.5746186],[1.4728608,42.5740487],[1.4718431,42.5736318],[1.4713665,42.5734366],[1.4710011,42.5732869]]}},
{"type":"Feature","id":"way/52008425","properties":{"type":"way","id":52008425,"tags":{"aerialway":"chair_lift","aerialway:occupancy":"2","name":"la Caubella"},"relations":[],"meta":{}},"geometry":{"type":"LineString","coordinates":[[1.4902476,42.5364238],[1.489892,42.5360538],[1.4891744,42.535307],[1.4888794,42.5350001]]}},
{"type":"Feature","id":"way/52008767","properties":{"type":"way","id":52008767,"tags":{"aerialway":"chair_lift","aerialway:occupancy":"2","name":"la Serra","name:ca":"la Serra"},"relations":[],"meta":{}},"geometry":{"type":"LineString","coordinates":[[1.4898796,42.5364868],[1.4888171,42.5360729],[1.4878494,42.5356958],[1.487107,42.5354066],[1.4858436,42.5349143],[1.4849461,42.5345647],[1.4837012,42.5340797],[1.4826044,42.5336523],[1.4822704,42.5335222],[1.4815721,42.5332422],[1.4800163,42.5326185],[1.4795327,42.5324246],[1.4763043,42.5311303],[1.4752587,42.5307111],[1.4747465,42.5305057]]}},
{"type":"Feature","id":"way/52009081","properties":{"type":"way","id":52009081,"tags":{"aerialway":"chair_lift","aerialway:occupancy":"4","name":"la Carbonera","name:ca":"la Carbonera"},"relations":[],"meta":{}},"geometry":{"type":"LineString","coordinates":[[1.4845831,42.5375895],[1.4849869,42.5372846],[1.485803,42.5366684],[1.4867279,42.5359701],[1.4872942,42.5355425],[1.4880176,42.5349962],[1.4882139,42.534848]]}},
{"type":"Feature","id":"way/52009565","properties":{"type":"way","id":52009565,"tags":{"aerialway":"chair_lift","aerialway:occupancy":"4","name":"la Serra 2","name:ca":"la Serra 2"},"relations":[],"meta":{}},"geometry":{"type":"LineString","coordinates":[[1.4837975,42.5374631],[1.4834181,42.5371831],[1.4831434,42.5369804],[1.4817637,42.5359622],[1.4803229,42.5348989],[1.4789513,42.5338867],[1.4779323,42.5331346],[1.4767393,42.5322542],[1.4755309,42.5313623],[1.474986,42.5309602],[1.4743926,42.5305222]]}},
{"type":"Feature","id":"way/52010630","properties":{"type":"way","id":52010630,"tags":{"aerialway":"chair_lift","aerialway:bubble":"no","aerialway:heating":"yes","aerialway:occupancy":"4","name":"la Botella","name:ca":"la Botella","oneway":"yes"},"relations":[],"meta":{}},"geometry":{"type":"LineString","coordinates":[[1.4524549,42.5444649],[1.4524714,42.5441378],[1.4524854,42.5438613],[1.452502,42.5435323],[1.452591,42.5417705],[1.4526614,42.5403763],[1.4527027,42.5395583],[1.4527196,42.5392228],[1.4527373,42.5388723],[1.4527542,42.5385387],[1.452816,42.5373136],[1.4528912,42.5358257],[1.452908,42.5354934],[1.4529241,42.5351735],[1.4529365,42.534928]]}},
{"type":"Feature","id":"way/52010729","properties":{"type":"way","id":52010729,"tags":{"aerialway":"chair_lift","aerialway:occupancy":"4","name":"Setúria","name:ca":"Setúria"},"relations":[],"meta":{}},"geometry":{"type":"LineString","coordinates":[[1.445604,42.5463195],[1.4459542,42.5459266],[1.4463044,42.5455337],[1.4479447,42.5436933],[1.448781,42.5427551],[1.4496929,42.541732],[1.4504658,42.5408647],[1.451349,42.5398737],[1.4517797,42.5393905],[1.4521861,42.5389345]]}},
{"type":"Feature","id":"way/52010876","properties":{"type":"way","id":52010876,"tags":{"aerialway":"chair_lift","aerialway:occupancy":"6","name":"El Cubil"},"relations":[],"meta":{}},"geometry":{"type":"LineString","coordinates":[[1.468895,42.5339072],[1.4684687,42.5336613],[1.4678895,42.5333272],[1.4668912,42.5327514],[1.4655586,42.5319827],[1.4643901,42.5313087],[1.4630443,42.5305325],[1.4619833,42.5299204],[1.4606184,42.5291331],[1.4592581,42.5283484],[1.4579441,42.5275905],[1.4567553,42.5269047],[1.4565827,42.5268051],[1.4563913,42.5266947]]}},
{"type":"Feature","id":"way/52038527","properties":{"type":"way","id":52038527,"tags":{"aerialway":"chair_lift","aerialway:occupancy":"6","name":"les Fonts","name:ca":"les Fonts"},"relations":[],"meta":{}},"geometry":{"type":"LineString","coordinates":[[1.4709669,42.5724319],[1.4700903,42.5723326],[1.4689127,42.5721914],[1.4679562,42.5720767],[1.4669317,42.5719539],[1.465714,42.5718079],[1.4642053,42.5716269],[1.4628586,42.5714655],[1.4609365,42.571235],[1.4595058,42.5710634],[1.4578236,42.5708617],[1.4567059,42.5707276],[1.4551062,42.5705358],[1.4538953,42.5703906],[1.4521312,42.5701791],[1.4510032,42.5700438]]}},
{"type":"Feature","id":"way/52038627","properties":{"type":"way","id":52038627,"tags":{"aerialway":"chair_lift","aerialway:occupancy":"4","name":"el Cortal","name:ca":"el Cortal"},"relations":[],"meta":{}},"geometry":{"type":"LineString","coordinates":[[1.4703624,42.5746083],[1.4697899,42.574373],[1.4689988,42.5740478],[1.4682998,42.5737605],[1.4671514,42.5732885],[1.4660847,42.57285],[1.4658546,42.5727555]]}},
{"type":"Feature","id":"way/52112646","properties":{"type":"way","id":52112646,"tags":{"aerialway":"drag_lift","name":"la Serra","name:ca":"la Serra"},"relations":[],"meta":{}},"geometry":{"type":"LineString","coordinates":[[1.4700298,42.5338531],[1.4738145,42.5305625]]}},
{"type":"Feature","id":"way/52114939","properties":{"type":"way","id":52114939,"tags":{"aerialway":"drag_lift","name":"el Cubil"},"relations":[],"meta":{}},"geometry":{"type":"LineString","coordinates":[[1.4680287,42.5313772],[1.4671172,42.5309714],[1.4658813,42.5304212],[1.4628501,42.5290716],[1.4620965,42.5287361],[1.4609819,42.5282398],[1.4603811,42.5279723],[1.4593885,42.5275304],[1.4578955,42.5268657],[1.4571687,42.5265421],[1.4567086,42.5263372]]}},
{"type":"Feature","id":"way/52114942","properties":{"type":"way","id":52114942,"tags":{"aerialway":"drag_lift","name":"els Coms","name:ca":"els Coms"},"relations":[],"meta":{}},"geometry":{"type":"LineString","coordinates":[[1.4601287,42.5301064],[1.4554605,42.527373]]}},
{"type":"Feature","id":"way/52114952","properties":{"type":"way","id":52114952,"tags":{"aerialway":"cable_car","aerialway:occupancy":"50","name":"Arinsal-Pal","name:ca":"Arinsal-Pal"},"relations":[],"meta":{}},"geometry":{"type":"LineString","coordinates":[[1.452264,42.5453115],[1.4488574,42.5543684],[1.4446335,42.5655964],[1.4444791,42.5660066]]}},
{"type":"Feature","id":"way/52121995","properties":{"type":"way","id":52121995,"tags":{"aerialway":"platter","name":"la Capa","name:ca":"la Capa"},"relations":[],"meta":{}},"geometry":{"type":"LineString","coordinates":[[1.4488784,42.5648595],[1.4533577,42.563449]]}},
{"type":"Feature","id":"way/52692961","properties":{"type":"way","id":52692961,"tags":{"aerialway":"chair_lift","aerialway:occupancy":"4","name":"la Tossa","name:ca":"la Tossa"},"relations":[],"meta":{}},"geometry":{"type":"LineString","coordinates":[[1.4709073,42.572291],[1.4696987,42.57196],[1.4684417,42.5716157],[1.4670344,42.5712303],[1.4661413,42.5709857],[1.4654189,42.5707878],[1.4638565,42.5703599],[1.4626343,42.5700251],[1.4610413,42.5695888],[1.4602907,42.5693832],[1.4593911,42.5691368],[1.4591642,42.5690747]]}},
{"type":"Feature","id":"way/52692965","properties":{"type":"way","id":52692965,"tags":{"aerialway":"drag_lift","name":"els Planels"},"relations":[],"meta":{}},"geometry":{"type":"LineString","coordinates":[[1.4563596,42.5699114],[1.4508096,42.5692483]]}},
{"type":"Feature","id":"way/98007155","properties":{"type":"way","id":98007155,"tags":{"aerialway":"drag_lift","name":"La Tossa I","name:ca":"La Tossa I"},"relations":[],"meta":{}},"geometry":{"type":"LineString","coordinates":[[1.4541658,42.5310252],[1.4521031,42.5339623]]}},
{"type":"Feature","id":"way/98007176","properties":{"type":"way","id":98007176,"tags":{"aerialway":"magic_carpet","name":"el Planell I","name:ca":"el Planell I"},"relations":[],"meta":{}},"geometry":{"type":"LineString","coordinates":[[1.4912025,42.5356267],[1.4897883,42.5348979]]}},
{"type":"Feature","id":"way/261555164","properties":{"type":"way","id":261555164,"tags":{"aerialway":"magic_carpet","name":"Pedres Blanques II","name:ca":"Pedres Blanques II"},"relations":[],"meta":{}},"geometry":{"type":"LineString","coordinates":[[1.4911314,42.5383564],[1.4907025,42.5377977]]}},
{"type":"Feature","id":"way/261556519","properties":{"type":"way","id":261556519,"tags":{"aerialway":"magic_carpet","aerialway:heating":"no","name":"Pla de la Cot I","name:ca":"Pla de la Cot I"},"relations":[],"meta":{}},"geometry":{"type":"LineString","coordinates":[[1.4730052,42.5298219],[1.4741801,42.5301506]]}},
{"type":"Feature","id":"way/261556791","properties":{"type":"way","id":261556791,"tags":{"aerialway":"drag_lift","name":"La Tossa II","name:ca":"La Tossa II"},"relations":[],"meta":{}},"geometry":{"type":"LineString","coordinates":[[1.4542355,42.5310549],[1.4522319,42.5339742]]}},
{"type":"Feature","id":"way/261559361","properties":{"type":"way","id":261559361,"tags":{"aerialway":"magic_carpet","name":"l'Escola I","name:ca":"l'Escola I"},"relations":[],"meta":{}},"geometry":{"type":"LineString","coordinates":[[1.4703931,42.5737608],[1.4694886,42.5735168]]}},
{"type":"Feature","id":"way/261559362","properties":{"type":"way","id":261559362,"tags":{"aerialway":"magic_carpet","name":"l'Escola II","name:ca":"l'Escola II"},"relations":[],"meta":{}},"geometry":{"type":"LineString","coordinates":[[1.4703992,42.5737398],[1.4694967,42.5735018]]}},
{"type":"Feature","id":"way/1206430892","properties":{"type":"way","id":1206430892,"tags":{"aerialway":"magic_carpet","aerialway:heating":"no","name":"Pla de la Cot II","name:ca":"Pla de la Cot II"},"relations":[],"meta":{}},"geometry":{"type":"LineString","coordinates":[[1.4742693,42.5302091],[1.4748116,42.53045]]}},
{"type":"Feature","id":"way/1242378365","properties":{"type":"way","id":1242378365,"tags":{"aerialway":"magic_carpet"},"relations":[],"meta":{}},"geometry":{"type":"LineString","coordinates":[[1.490175,42.5369632],[1.4909086,42.5369177]]}},
{"type":"Feature","id":"way/1242378366","properties":{"type":"way","id":1242378366,"tags":{"aerialway":"magic_carpet","name":"Pedres Blanques I"},"relations":[],"meta":{}},"geometry":{"type":"LineString","coordinates":[[1.4912143,42.5383367],[1.4907959,42.5377932]]}},
{"type":"Feature","id":"way/1242378367","properties":{"type":"way","id":1242378367,"tags":{"aerialway":"magic_carpet","name":"el Planell II"},"relations":[],"meta":{}},"geometry":{"type":"LineString","coordinates":[[1.4911647,42.53564],[1.490643,42.5353791]]}},
{"type":"Feature","id":"way/1349056256","properties":{"type":"way","id":1349056256,"tags":{"aerialway":"chair_lift","aerialway:occupancy":"4","name":"Port Negre","oneway":"yes"},"relations":[],"meta":{}},"geometry":{"type":"LineString","coordinates":[[1.4634919,42.5712068],[1.4631784,42.5711325],[1.4626657,42.5710032],[1.4613219,42.5706421],[1.4595864,42.570151],[1.4575137,42.5695644],[1.4554781,42.5689883],[1.4534956,42.5684272],[1.4514569,42.5678502],[1.4499382,42.5674204],[1.4484605,42.5670021],[1.4472628,42.5666631],[1.4457243,42.5662107]]}},
{"type":"Feature","id":"node/323129883","properties":{"type":"node","id":323129883,"tags":{"aerialway":"station","aerialway:access":"both","name":"Telecabina La Massana","name:ca":"Telecabina La Massana","public_transport":"station"},"relations":[],"meta":{}},"geometry":{"type":"Point","coordinates":[1.5138582,42.5472953]}},
{"type":"Feature","id":"node/323130871","properties":{"type":"node","id":323130871,"tags":{"aerialway":"station","public_transport":"station"},"relations":[],"meta":{}},"geometry":{"type":"Point","coordinates":[1.4834414,42.5726073]}},
{"type":"Feature","id":"node/323130873","properties":{"type":"node","id":323130873,"tags":{"aerialway":"station","public_transport":"station"},"relations":[],"meta":{}},"geometry":{"type":"Point","coordinates":[1.4712125,42.5731073]}},
{"type":"Feature","id":"node/521153185","properties":{"type":"node","id":521153185,"tags":{"aerialway":"station","aerialway:access":"exit","public_transport":"station","wheelchair":"no"},"relations":[],"meta":{}},"geometry":{"type":"Point","coordinates":[1.4710011,42.5732869]}},
{"type":"Feature","id":"node/521153188","properties":{"type":"node","id":521153188,"tags":{"aerialway":"station","aerialway:access":"entry","public_transport":"station"},"relations":[],"meta":{}},"geometry":{"type":"Point","coordinates":[1.4799654,42.5769591]}},
{"type":"Feature","id":"node/663075945","properties":{"type":"node","id":663075945,"tags":{"aerialway":"station","aerialway:access":"exit","public_transport":"station"},"relations":[],"meta":{}},"geometry":{"type":"Point","coordinates":[1.4888794,42.5350001]}},
{"type":"Feature","id":"node/663075946","properties":{"type":"node","id":663075946,"tags":{"aerialway":"station","aerialway:access":"entry","public_transport":"station"},"relations":[],"meta":{}},"geometry":{"type":"Point","coordinates":[1.4902476,42.5364238]}},
{"type":"Feature","id":"node/663078912","properties":{"type":"node","id":663078912,"tags":{"aerialway":"station","aerialway:access":"entry","name":"LA SERRA","public_transport":"station"},"relations":[],"meta":{}},"geometry":{"type":"Point","coordinates":[1.4898796,42.5364868]}},
{"type":"Feature","id":"node/663080312","properties":{"type":"node","id":663080312,"tags":{"aerialway":"station","aerialway:access":"exit","public_transport":"station"},"relations":[],"meta":{}},"geometry":{"type":"Point","coordinates":[1.4882139,42.534848]}},
{"type":"Feature","id":"node/663080313","properties":{"type":"node","id":663080313,"tags":{"aerialway":"station","aerialway:access":"entry","public_transport":"station"},"relations":[],"meta":{}},"geometry":{"type":"Point","coordinates":[1.4845831,42.5375895]}},
{"type":"Feature","id":"node/663084328","properties":{"type":"node","id":663084328,"tags":{"aerialway":"station","aerialway:access":"entry","name":"LA SERRA 2","public_transport":"station"},"relations":[],"meta":{}},"geometry":{"type":"Point","coordinates":[1.4837975,42.5374631]}},
{"type":"Feature","id":"node/663092389","properties":{"type":"node","id":663092389,"tags":{"aerialway":"station","aerialway:access":"exit","public_transport":"station"},"relations":[],"meta":{}},"geometry":{"type":"Point","coordinates":[1.4529365,42.534928]}},
{"type":"Feature","id":"node/663092390","properties":{"type":"node","id":663092390,"tags":{"aerialway":"station","aerialway:access":"entry","public_transport":"station"},"relations":[],"meta":{}},"geometry":{"type":"Point","coordinates":[1.4524549,42.5444649]}},
{"type":"Feature","id":"node/663093429","properties":{"type":"node","id":663093429,"tags":{"aerialway":"station","aerialway:access":"exit","public_transport":"station"},"relations":[],"meta":{}},"geometry":{"type":"Point","coordinates":[1.4521861,42.5389345]}},
{"type":"Feature","id":"node/663093430","properties":{"type":"node","id":663093430,"tags":{"aerialway":"station","aerialway:access":"entry","public_transport":"station"},"relations":[],"meta":{}},"geometry":{"type":"Point","coordinates":[1.445604,42.5463195]}},
{"type":"Feature","id":"node/663095052","properties":{"type":"node","id":663095052,"tags":{"aerialway":"station","aerialway:access":"entry","name":"EL CUBIL","public_transport":"station"},"relations":[],"meta":{}},"geometry":{"type":"Point","coordinates":[1.468895,42.5339072]}},
{"type":"Feature","id":"node/663372539","properties":{"type":"node","id":663372539,"tags":{"aerialway":"station","aerialway:access":"exit","public_transport":"station"},"relations":[],"meta":{}},"geometry":{"type":"Point","coordinates":[1.4510032,42.5700438]}},
{"type":"Feature","id":"node/663372540","properties":{"type":"node","id":663372540,"tags":{"aerialway":"station","aerialway:access":"entry","public_transport":"station"},"relations":[],"meta":{}},"geometry":{"type":"Point","coordinates":[1.4709669,42.5724319]}},
{"type":"Feature","id":"node/663373401","properties":{"type":"node","id":663373401,"tags":{"aerialway":"station","aerialway:access":"exit","public_transport":"station"},"relations":[],"meta":{}},"geometry":{"type":"Point","coordinates":[1.4658546,42.5727555]}},
{"type":"Feature","id":"node/663373402","properties":{"type":"node","id":663373402,"tags":{"aerialway":"station","aerialway:access":"entry","public_transport":"station"},"relations":[],"meta":{}},"geometry":{"type":"Point","coordinates":[1.4703624,42.5746083]}},
{"type":"Feature","id":"node/664085283","properties":{"type":"node","id":664085283,"tags":{"aerialway":"station","aerialway:access":"entry","name":"La Sierra","public_transport":"station"},"relations":[],"meta":{}},"geometry":{"type":"Point","coordinates":[1.4700298,42.5338531]}},
{"type":"Feature","id":"node/664085288","properties":{"type":"node","id":664085288,"tags":{"aerialway":"station","aerialway:access":"exit","name":"LA SERRA","public_transport":"station"},"relations":[],"meta":{}},"geometry":{"type":"Point","coordinates":[1.4738145,42.5305625]}},
{"type":"Feature","id":"node/664115752","properties":{"type":"node","id":664115752,"tags":{"aerialway":"station","aerialway:access":"exit","public_transport":"station"},"relations":[],"meta":{}},"geometry":{"type":"Point","coordinates":[1.4554605,42.527373]}},
{"type":"Feature","id":"node/664115755","properties":{"type":"node","id":664115755,"tags":{"aerialway":"station","aerialway:access":"exit","public_transport":"station"},"relations":[],"meta":{}},"geometry":{"type":"Point","coordinates":[1.4567086,42.5263372]}},
{"type":"Feature","id":"node/664115810","properties":{"type":"node","id":664115810,"tags":{"aerialway":"station","aerialway:access":"entry","public_transport":"station"},"relations":[],"meta":{}},"geometry":{"type":"Point","coordinates":[1.4601287,42.5301064]}},
{"type":"Feature","id":"node/664115932","properties":{"type":"node","id":664115932,"tags":{"aerialway":"station","aerialway:access":"entry","public_transport":"station"},"relations":[],"meta":{}},"geometry":{"type":"Point","coordinates":[1.4680287,42.5313772]}},
{"type":"Feature","id":"node/664116091","properties":{"type":"node","id":664116091,"tags":{"aerialway":"station","aerialway:access":"both","public_transport":"station"},"relations":[],"meta":{}},"geometry":{"type":"Point","coordinates":[1.4444791,42.5660066]}},
{"type":"Feature","id":"node/664192679","properties":{"type":"node","id":664192679,"tags":{"aerialway":"pylon"},"relations":[],"meta":{}},"geometry":{"type":"Point","coordinates":[1.4488574,42.5543684]}},
{"type":"Feature","id":"node/664192680","properties":{"type":"node","id":664192680,"tags":{"aerialway":"pylon"},"relations":[],"meta":{}},"geometry":{"type":"Point","coordinates":[1.4446335,42.5655964]}},
{"type":"Feature","id":"node/664192681","properties":{"type":"node","id":664192681,"tags":{"aerialway":"station","aerialway:access":"both","public_transport":"station"},"relations":[],"meta":{}},"geometry":{"type":"Point","coordinates":[1.452264,42.5453115]}},
{"type":"Feature","id":"node/664195007","properties":{"type":"node","id":664195007,"tags":{"aerialway":"station","aerialway:access":"entry","public_transport":"station"},"relations":[],"meta":{}},"geometry":{"type":"Point","coordinates":[1.4488784,42.5648595]}},
{"type":"Feature","id":"node/664195008","properties":{"type":"node","id":664195008,"tags":{"aerialway":"station","aerialway:access":"exit","public_transport":"station"},"relations":[],"meta":{}},"geometry":{"type":"Point","coordinates":[1.4533577,42.563449]}},
{"type":"Feature","id":"node/664225476","properties":{"type":"node","id":664225476,"tags":{"aerialway":"pylon"},"relations":[],"meta":{}},"geometry":{"type":"Point","coordinates":[1.4718431,42.5736318]}},
{"type":"Feature","id":"node/664225514","properties":{"type":"node","id":664225514,"tags":{"aerialway":"pylon"},"relations":[],"meta":{}},"geometry":{"type":"Point","coordinates":[1.4713665,42.5734366]}},
{"type":"Feature","id":"node/664225516","properties":{"type":"node","id":664225516,"tags":{"aerialway":"pylon"},"relations":[],"meta":{}},"geometry":{"type":"Point","coordinates":[1.4742519,42.5746186]}},
{"type":"Feature","id":"node/664225519","properties":{"type":"node","id":664225519,"tags":{"aerialway":"pylon"},"relations":[],"meta":{}},"geometry":{"type":"Point","coordinates":[1.4728608,42.5740487]}},
{"type":"Feature","id":"node/664225521","properties":{"type":"node","id":664225521,"tags":{"aerialway":"pylon"},"relations":[],"meta":{}},"geometry":{"type":"Point","coordinates":[1.4769636,42.5757294]}},
{"type":"Feature","id":"node/664225523","properties":{"type":"node","id":664225523,"tags":{"aerialway":"pylon"},"relations":[],"meta":{}},"geometry":{"type":"Point","coordinates":[1.4758657,42.5752797]}},
{"type":"Feature","id":"node/664225525","properties":{"type":"node","id":664225525,"tags":{"aerialway":"pylon"},"relations":[],"meta":{}},"geometry":{"type":"Point","coordinates":[1.4751086,42.5749695]}},
{"type":"Feature","id":"node/664225527","properties":{"type":"node","id":664225527,"tags":{"aerialway":"pylon"},"relations":[],"meta":{}},"geometry":{"type":"Point","coordinates":[1.478901,42.5765231]}},
{"type":"Feature","id":"node/664225529","properties":{"type":"node","id":664225529,"tags":{"aerialway":"pylon"},"relations":[],"meta":{}},"geometry":{"type":"Point","coordinates":[1.4781508,42.5762158]}},
{"type":"Feature","id":"node/664225531","properties":{"type":"node","id":664225531,"tags":{"aerialway":"pylon"},"relations":[],"meta":{}},"geometry":{"type":"Point","coordinates":[1.4796886,42.5768457]}},
{"type":"Feature","id":"node/664236924","properties":{"type":"node","id":664236924,"tags":{"aerialway":"pylon"},"relations":[],"meta":{}},"geometry":{"type":"Point","coordinates":[1.4660847,42.57285]}},
{"type":"Feature","id":"node/664236925","properties":{"type":"node","id":664236925,"tags":{"aerialway":"pylon"},"relations":[],"meta":{}},"geometry":{"type":"Point","coordinates":[1.4671514,42.5732885]}},
{"type":"Feature","id":"node/664236926","properties":{"type":"node","id":664236926,"tags":{"aerialway":"pylon"},"relations":[],"meta":{}},"geometry":{"type":"Point","coordinates":[1.4689988,42.5740478]}},
{"type":"Feature","id":"node/664236927","properties":{"type":"node","id":664236927,"tags":{"aerialway":"pylon"},"relations":[],"meta":{}},"geometry":{"type":"Point","coordinates":[1.4682998,42.5737605]}},
{"type":"Feature","id":"node/664236928","properties":{"type":"node","id":664236928,"tags":{"aerialway":"pylon"},"relations":[],"meta":{}},"geometry":{"type":"Point","coordinates":[1.4697899,42.574373]}},
{"type":"Feature","id":"node/668878457","properties":{"type":"node","id":668878457,"tags":{"aerialway":"station","aerialway:access":"exit","public_transport":"station"},"relations":[],"meta":{}},"geometry":{"type":"Point","coordinates":[1.4508096,42.5692483]}},
{"type":"Feature","id":"node/668878558","properties":{"type":"node","id":668878558,"tags":{"aerialway":"station","aerialway:access":"exit","public_transport":"station"},"relations":[],"meta":{}},"geometry":{"type":"Point","coordinates":[1.4591642,42.5690747]}},
{"type":"Feature","id":"node/668878595","properties":{"type":"node","id":668878595,"tags":{"aerialway":"station","aerialway:access":"entry","public_transport":"station"},"relations":[],"meta":{}},"geometry":{"type":"Point","coordinates":[1.4563596,42.5699114]}},
{"type":"Feature","id":"node/668878850","properties":{"type":"node","id":668878850,"tags":{"aerialway":"station","aerialway:access":"entry","public_transport":"station"},"relations":[],"meta":{}},"geometry":{"type":"Point","coordinates":[1.4709073,42.572291]}},
{"type":"Feature","id":"node/1134180054","properties":{"type":"node","id":1134180054,"tags":{"aerialway":"station","aerialway:access":"exit","public_transport":"station"},"relations":[],"meta":{}},"geometry":{"type":"Point","coordinates":[1.4521031,42.5339623]}},
{"type":"Feature","id":"node/1134181578","properties":{"type":"node","id":1134181578,"tags":{"aerialway":"station","name":"el Planell I","name:ca":"el Planell I"},"relations":[],"meta":{}},"geometry":{"type":"Point","coordinates":[1.4912025,42.5356267]}},
{"type":"Feature","id":"node/1134181653","properties":{"type":"node","id":1134181653,"tags":{"aerialway":"station","aerialway:access":"entry","public_transport":"station"},"relations":[],"meta":{}},"geometry":{"type":"Point","coordinates":[1.4541658,42.5310252]}},
{"type":"Feature","id":"node/1134182416","properties":{"type":"node","id":1134182416,"tags":{"aerialway":"station","name":"el Planell I","name:ca":"el Planell I"},"relations":[],"meta":{}},"geometry":{"type":"Point","coordinates":[1.4897883,42.5348979]}},
{"type":"Feature","id":"node/2340797296","properties":{"type":"node","id":2340797296,"tags":{"aerialway":"station","aerialway:access":"exit","name":"LA SERRA 2","public_transport":"station"},"relations":[],"meta":{}},"geometry":{"type":"Point","coordinates":[1.4743926,42.5305222]}},
{"type":"Feature","id":"node/2340797297","properties":{"type":"node","id":2340797297,"tags":{"aerialway":"station","aerialway:access":"exit","name":"LA SERRA 1","public_transport":"station"},"relations":[],"meta":{}},"geometry":{"type":"Point","coordinates":[1.4747465,42.5305057]}},
{"type":"Feature","id":"node/2340901723","properties":{"type":"node","id":2340901723,"tags":{"aerialway":"station","aerialway:access":"exit","public_transport":"station"},"relations":[],"meta":{}},"geometry":{"type":"Point","coordinates":[1.4563913,42.5266947]}},
{"type":"Feature","id":"node/2340901724","properties":{"type":"node","id":2340901724,"tags":{"aerialway":"station","aerialway:access":"both","name":"Telecabina La Massana","name:ca":"Telecabina La Massana","public_transport":"station"},"relations":[],"meta":{}},"geometry":{"type":"Point","coordinates":[1.4911408,42.5372017]}},
{"type":"Feature","id":"node/2671540906","properties":{"type":"node","id":2671540906,"tags":{"aerialway":"station","name":"Pedres Blanques II"},"relations":[],"meta":{}},"geometry":{"type":"Point","coordinates":[1.4911314,42.5383564]}},
{"type":"Feature","id":"node/2671540907","properties":{"type":"node","id":2671540907,"tags":{"aerialway":"station","name":"Pedres Blanques II"},"relations":[],"meta":{}},"geometry":{"type":"Point","coordinates":[1.4907025,42.5377977]}},
{"type":"Feature","id":"node/2671550831","properties":{"type":"node","id":2671550831,"tags":{"aerialway":"station","name":"Pla de la Cot I","name:ca":"Pla de la Cot I"},"relations":[],"meta":{}},"geometry":{"type":"Point","coordinates":[1.4741801,42.5301506]}},
{"type":"Feature","id":"node/2671550832","properties":{"type":"node","id":2671550832,"tags":{"aerialway":"station"},"relations":[],"meta":{}},"geometry":{"type":"Point","coordinates":[1.4730052,42.5298219]}},
{"type":"Feature","id":"node/2671553323","properties":{"type":"node","id":2671553323,"tags":{"aerialway":"station","aerialway:access":"exit","public_transport":"station"},"relations":[],"meta":{}},"geometry":{"type":"Point","coordinates":[1.4522319,42.5339742]}},
{"type":"Feature","id":"node/2671553324","properties":{"type":"node","id":2671553324,"tags":{"aerialway":"station","aerialway:access":"entry","public_transport":"station"},"relations":[],"meta":{}},"geometry":{"type":"Point","coordinates":[1.4542355,42.5310549]}},
{"type":"Feature","id":"node/7274995370","properties":{"type":"node","id":7274995370,"tags":{"aerialway":"pylon"},"relations":[],"meta":{}},"geometry":{"type":"Point","coordinates":[1.4795327,42.5324246]}},
{"type":"Feature","id":"node/7274995371","properties":{"type":"node","id":7274995371,"tags":{"aerialway":"pylon"},"relations":[],"meta":{}},"geometry":{"type":"Point","coordinates":[1.4891744,42.535307]}},
{"type":"Feature","id":"node/7274995372","properties":{"type":"node","id":7274995372,"tags":{"aerialway":"pylon"},"relations":[],"meta":{}},"geometry":{"type":"Point","coordinates":[1.4800163,42.5326185]}},
{"type":"Feature","id":"node/7274995373","properties":{"type":"node","id":7274995373,"tags":{"aerialway":"pylon"},"relations":[],"meta":{}},"geometry":{"type":"Point","coordinates":[1.489892,42.5360538]}},
{"type":"Feature","id":"node/7274995374","properties":{"type":"node","id":7274995374,"tags":{"aerialway":"pylon"},"relations":[],"meta":{}},"geometry":{"type":"Point","coordinates":[1.4815721,42.5332422]}},
{"type":"Feature","id":"node/7274995375","properties":{"type":"node","id":7274995375,"tags":{"aerialway":"pylon"},"relations":[],"meta":{}},"geometry":{"type":"Point","coordinates":[1.5111062,42.5460702]}},
{"type":"Feature","id":"node/7274995376","properties":{"type":"node","id":7274995376,"tags":{"aerialway":"pylon"},"relations":[],"meta":{}},"geometry":{"type":"Point","coordinates":[1.4826044,42.5336523]}},
{"type":"Feature","id":"node/7274995377","properties":{"type":"node","id":7274995377,"tags":{"aerialway":"pylon"},"relations":[],"meta":{}},"geometry":{"type":"Point","coordinates":[1.5055046,42.5435817]}},
{"type":"Feature","id":"node/7274995378","properties":{"type":"node","id":7274995378,"tags":{"aerialway":"pylon"},"relations":[],"meta":{}},"geometry":{"type":"Point","coordinates":[1.4837012,42.5340797]}},
{"type":"Feature","id":"node/7274995379","properties":{"type":"node","id":7274995379,"tags":{"aerialway":"pylon"},"relations":[],"meta":{}},"geometry":{"type":"Point","coordinates":[1.5007856,42.5414857]}},
{"type":"Feature","id":"node/7274995380","properties":{"type":"node","id":7274995380,"tags":{"aerialway":"pylon"},"relations":[],"meta":{}},"geometry":{"type":"Point","coordinates":[1.4849461,42.5345647]}},
{"type":"Feature","id":"node/7274995381","properties":{"type":"node","id":7274995381,"tags":{"aerialway":"pylon"},"relations":[],"meta":{}},"geometry":{"type":"Point","coordinates":[1.4972444,42.5399128]}},
{"type":"Feature","id":"node/7274995382","properties":{"type":"node","id":7274995382,"tags":{"aerialway":"pylon"},"relations":[],"meta":{}},"geometry":{"type":"Point","coordinates":[1.4858436,42.5349143]}},
{"type":"Feature","id":"node/7274995383","properties":{"type":"node","id":7274995383,"tags":{"aerialway":"pylon"},"relations":[],"meta":{}},"geometry":{"type":"Point","coordinates":[1.4947953,42.5388249]}},
{"type":"Feature","id":"node/7274995384","properties":{"type":"node","id":7274995384,"tags":{"aerialway":"pylon"},"relations":[],"meta":{}},"geometry":{"type":"Point","coordinates":[1.487107,42.5354066]}},
{"type":"Feature","id":"node/7275082685","properties":{"type":"node","id":7275082685,"tags":{"aerialway":"pylon"},"relations":[],"meta":{}},"geometry":{"type":"Point","coordinates":[1.4926992,42.5378939]}},
{"type":"Feature","id":"node/7275082686","properties":{"type":"node","id":7275082686,"tags":{"aerialway":"pylon"},"relations":[],"meta":{}},"geometry":{"type":"Point","coordinates":[1.4752587,42.5307111]}},
{"type":"Feature","id":"node/7275082687","properties":{"type":"node","id":7275082687,"tags":{"aerialway":"pylon"},"relations":[],"meta":{}},"geometry":{"type":"Point","coordinates":[1.4878494,42.5356958]}},
{"type":"Feature","id":"node/7275082688","properties":{"type":"node","id":7275082688,"tags":{"aerialway":"pylon"},"relations":[],"meta":{}},"geometry":{"type":"Point","coordinates":[1.4763043,42.5311303]}},
{"type":"Feature","id":"node/7275082689","properties":{"type":"node","id":7275082689,"tags":{"aerialway":"pylon"},"relations":[],"meta":{}},"geometry":{"type":"Point","coordinates":[1.4888171,42.5360729]}},
{"type":"Feature","id":"node/8662952015","properties":{"type":"node","id":8662952015,"tags":{"aerialway":"pylon"},"relations":[],"meta":{}},"geometry":{"type":"Point","coordinates":[1.4849869,42.5372846]}},
{"type":"Feature","id":"node/8662952016","properties":{"type":"node","id":8662952016,"tags":{"aerialway":"pylon"},"relations":[],"meta":{}},"geometry":{"type":"Point","coordinates":[1.485803,42.5366684]}},
{"type":"Feature","id":"node/8662986452","properties":{"type":"node","id":8662986452,"tags":{"aerialway":"pylon"},"relations":[],"meta":{}},"geometry":{"type":"Point","coordinates":[1.4828802,42.5726302]}},
{"type":"Feature","id":"node/8662986453","properties":{"type":"node","id":8662986453,"tags":{"aerialway":"pylon"},"relations":[],"meta":{}},"geometry":{"type":"Point","coordinates":[1.4799705,42.5727492]}},
{"type":"Feature","id":"node/8662986454","properties":{"type":"node","id":8662986454,"tags":{"aerialway":"pylon"},"relations":[],"meta":{}},"geometry":{"type":"Point","coordinates":[1.4803379,42.5727342]}},
{"type":"Feature","id":"node/8662986455","properties":{"type":"node","id":8662986455,"tags":{"aerialway":"pylon"},"relations":[],"meta":{}},"geometry":{"type":"Point","coordinates":[1.4769397,42.5728731]}},
{"type":"Feature","id":"node/8662986456","properties":{"type":"node","id":8662986456,"tags":{"aerialway":"pylon"},"relations":[],"meta":{}},"geometry":{"type":"Point","coordinates":[1.4783174,42.5728168]}},
{"type":"Feature","id":"node/8662986457","properties":{"type":"node","id":8662986457,"tags":{"aerialway":"pylon"},"relations":[],"meta":{}},"geometry":{"type":"Point","coordinates":[1.4754888,42.5729325]}},
{"type":"Feature","id":"node/8662986458","properties":{"type":"node","id":8662986458,"tags":{"aerialway":"pylon"},"relations":[],"meta":{}},"geometry":{"type":"Point","coordinates":[1.4751174,42.5729476]}},
{"type":"Feature","id":"node/8662986459","properties":{"type":"node","id":8662986459,"tags":{"aerialway":"pylon"},"relations":[],"meta":{}},"geometry":{"type":"Point","coordinates":[1.4716959,42.5730875]}},
{"type":"Feature","id":"node/8662986460","properties":{"type":"node","id":8662986460,"tags":{"aerialway":"pylon"},"relations":[],"meta":{}},"geometry":{"type":"Point","coordinates":[1.4696987,42.57196]}},
{"type":"Feature","id":"node/8662986461","properties":{"type":"node","id":8662986461,"tags":{"aerialway":"pylon"},"relations":[],"meta":{}},"geometry":{"type":"Point","coordinates":[1.4700903,42.5723326]}},
{"type":"Feature","id":"node/8662986462","properties":{"type":"node","id":8662986462,"tags":{"aerialway":"pylon"},"relations":[],"meta":{}},"geometry":{"type":"Point","coordinates":[1.4689127,42.5721914]}},
{"type":"Feature","id":"node/8662986463","properties":{"type":"node","id":8662986463,"tags":{"aerialway":"pylon"},"relations":[],"meta":{}},"geometry":{"type":"Point","coordinates":[1.4684417,42.5716157]}},
{"type":"Feature","id":"node/8662986464","properties":{"type":"node","id":8662986464,"tags":{"aerialway":"pylon"},"relations":[],"meta":{}},"geometry":{"type":"Point","coordinates":[1.4679562,42.5720767]}},
{"type":"Feature","id":"node/8662986465","properties":{"type":"node","id":8662986465,"tags":{"aerialway":"pylon"},"relations":[],"meta":{}},"geometry":{"type":"Point","coordinates":[1.4669317,42.5719539]}},
{"type":"Feature","id":"node/8662986466","properties":{"type":"node","id":8662986466,"tags":{"aerialway":"pylon"},"relations":[],"meta":{}},"geometry":{"type":"Point","coordinates":[1.4670344,42.5712303]}},
{"type":"Feature","id":"node/8662986467","properties":{"type":"node","id":8662986467,"tags":{"aerialway":"pylon"},"relations":[],"meta":{}},"geometry":{"type":"Point","coordinates":[1.4661413,42.5709857]}},
{"type":"Feature","id":"node/8662986468","properties":{"type":"node","id":8662986468,"tags":{"aerialway":"pylon"},"relations":[],"meta":{}},"geometry":{"type":"Point","coordinates":[1.465714,42.5718079]}},
{"type":"Feature","id":"node/8662986469","properties":{"type":"node","id":8662986469,"tags":{"aerialway":"pylon"},"relations":[],"meta":{}},"geometry":{"type":"Point","coordinates":[1.4654189,42.5707878]}},
{"type":"Feature","id":"node/8662986470","properties":{"type":"node","id":8662986470,"tags":{"aerialway":"pylon"},"relations":[],"meta":{}},"geometry":{"type":"Point","coordinates":[1.4642053,42.5716269]}},
{"type":"Feature","id":"node/8662986471","properties":{"type":"node","id":8662986471,"tags":{"aerialway":"pylon"},"relations":[],"meta":{}},"geometry":{"type":"Point","coordinates":[1.4628586,42.5714655]}},
{"type":"Feature","id":"node/8662986472","properties":{"type":"node","id":8662986472,"tags":{"aerialway":"pylon"},"relations":[],"meta":{}},"geometry":{"type":"Point","coordinates":[1.4638565,42.5703599]}},
{"type":"Feature","id":"node/8662986473","properties":{"type":"node","id":8662986473,"tags":{"aerialway":"pylon"},"relations":[],"meta":{}},"geometry":{"type":"Point","coordinates":[1.4626343,42.5700251]}},
{"type":"Feature","id":"node/8662986474","properties":{"type":"node","id":8662986474,"tags":{"aerialway":"pylon"},"relations":[],"meta":{}},"geometry":{"type":"Point","coordinates":[1.4609365,42.571235]}},
{"type":"Feature","id":"node/8662986475","properties":{"type":"node","id":8662986475,"tags":{"aerialway":"pylon"},"relations":[],"meta":{}},"geometry":{"type":"Point","coordinates":[1.4610413,42.5695888]}},
{"type":"Feature","id":"node/8662986476","properties":{"type":"node","id":8662986476,"tags":{"aerialway":"pylon"},"relations":[],"meta":{}},"geometry":{"type":"Point","coordinates":[1.4595058,42.5710634]}},
{"type":"Feature","id":"node/8662986477","properties":{"type":"node","id":8662986477,"tags":{"aerialway":"pylon"},"relations":[],"meta":{}},"geometry":{"type":"Point","coordinates":[1.4602907,42.5693832]}},
{"type":"Feature","id":"node/8662986478","properties":{"type":"node","id":8662986478,"tags":{"aerialway":"pylon"},"relations":[],"meta":{}},"geometry":{"type":"Point","coordinates":[1.4593911,42.5691368]}},
{"type":"Feature","id":"node/8662986480","properties":{"type":"node","id":8662986480,"tags":{"aerialway":"pylon"},"relations":[],"meta":{}},"geometry":{"type":"Point","coordinates":[1.4578236,42.5708617]}},
{"type":"Feature","id":"node/8662986481","properties":{"type":"node","id":8662986481,"tags":{"aerialway":"pylon"},"relations":[],"meta":{}},"geometry":{"type":"Point","coordinates":[1.4567059,42.5707276]}},
{"type":"Feature","id":"node/8662986482","properties":{"type":"node","id":8662986482,"tags":{"aerialway":"pylon"},"relations":[],"meta":{}},"geometry":{"type":"Point","coordinates":[1.4551062,42.5705358]}},
{"type":"Feature","id":"node/8662986483","properties":{"type":"node","id":8662986483,"tags":{"aerialway":"pylon"},"relations":[],"meta":{}},"geometry":{"type":"Point","coordinates":[1.4538953,42.5703906]}},
{"type":"Feature","id":"node/8662986484","properties":{"type":"node","id":8662986484,"tags":{"aerialway":"pylon"},"relations":[],"meta":{}},"geometry":{"type":"Point","coordinates":[1.4521312,42.5701791]}},
{"type":"Feature","id":"node/8663007517","properties":{"type":"node","id":8663007517,"tags":{"aerialway":"pylon"},"relations":[],"meta":{}},"geometry":{"type":"Point","coordinates":[1.4867279,42.5359701]}},
{"type":"Feature","id":"node/8663007518","properties":{"type":"node","id":8663007518,"tags":{"aerialway":"pylon"},"relations":[],"meta":{}},"geometry":{"type":"Point","coordinates":[1.4872942,42.5355425]}},
{"type":"Feature","id":"node/8663007519","properties":{"type":"node","id":8663007519,"tags":{"aerialway":"pylon"},"relations":[],"meta":{}},"geometry":{"type":"Point","coordinates":[1.4880176,42.5349962]}},
{"type":"Feature","id":"node/8663007520","properties":{"type":"node","id":8663007520,"tags":{"aerialway":"pylon"},"relations":[],"meta":{}},"geometry":{"type":"Point","coordinates":[1.4831434,42.5369804]}},
{"type":"Feature","id":"node/8663007521","properties":{"type":"node","id":8663007521,"tags":{"aerialway":"pylon"},"relations":[],"meta":{}},"geometry":{"type":"Point","coordinates":[1.4834181,42.5371831]}},
{"type":"Feature","id":"node/8663007522","properties":{"type":"node","id":8663007522,"tags":{"aerialway":"pylon"},"relations":[],"meta":{}},"geometry":{"type":"Point","coordinates":[1.4817637,42.5359622]}},
{"type":"Feature","id":"node/8663007523","properties":{"type":"node","id":8663007523,"tags":{"aerialway":"pylon"},"relations":[],"meta":{}},"geometry":{"type":"Point","coordinates":[1.4803229,42.5348989]}},
{"type":"Feature","id":"node/8663007524","properties":{"type":"node","id":8663007524,"tags":{"aerialway":"pylon"},"relations":[],"meta":{}},"geometry":{"type":"Point","coordinates":[1.4789513,42.5338867]}},
{"type":"Feature","id":"node/8663007525","properties":{"type":"node","id":8663007525,"tags":{"aerialway":"pylon"},"relations":[],"meta":{}},"geometry":{"type":"Point","coordinates":[1.4779323,42.5331346]}},
{"type":"Feature","id":"node/8663007526","properties":{"type":"node","id":8663007526,"tags":{"aerialway":"pylon"},"relations":[],"meta":{}},"geometry":{"type":"Point","coordinates":[1.4767393,42.5322542]}},
{"type":"Feature","id":"node/8663007527","properties":{"type":"node","id":8663007527,"tags":{"aerialway":"pylon"},"relations":[],"meta":{}},"geometry":{"type":"Point","coordinates":[1.4755309,42.5313623]}},
{"type":"Feature","id":"node/8663007528","properties":{"type":"node","id":8663007528,"tags":{"aerialway":"pylon"},"relations":[],"meta":{}},"geometry":{"type":"Point","coordinates":[1.474986,42.5309602]}},
{"type":"Feature","id":"node/8663007529","properties":{"type":"node","id":8663007529,"tags":{"aerialway":"pylon"},"relations":[],"meta":{}},"geometry":{"type":"Point","coordinates":[1.4684687,42.5336613]}},
{"type":"Feature","id":"node/8663007530","properties":{"type":"node","id":8663007530,"tags":{"aerialway":"pylon"},"relations":[],"meta":{}},"geometry":{"type":"Point","coordinates":[1.4678895,42.5333272]}},
{"type":"Feature","id":"node/8663007531","properties":{"type":"node","id":8663007531,"tags":{"aerialway":"pylon"},"relations":[],"meta":{}},"geometry":{"type":"Point","coordinates":[1.4668912,42.5327514]}},
{"type":"Feature","id":"node/8663007532","properties":{"type":"node","id":8663007532,"tags":{"aerialway":"pylon"},"relations":[],"meta":{}},"geometry":{"type":"Point","coordinates":[1.4655586,42.5319827]}},
{"type":"Feature","id":"node/8663007533","properties":{"type":"node","id":8663007533,"tags":{"aerialway":"pylon"},"relations":[],"meta":{}},"geometry":{"type":"Point","coordinates":[1.4643901,42.5313087]}},
{"type":"Feature","id":"node/8663007534","properties":{"type":"node","id":8663007534,"tags":{"aerialway":"pylon"},"relations":[],"meta":{}},"geometry":{"type":"Point","coordinates":[1.4630443,42.5305325]}},
{"type":"Feature","id":"node/8663007535","properties":{"type":"node","id":8663007535,"tags":{"aerialway":"pylon"},"relations":[],"meta":{}},"geometry":{"type":"Point","coordinates":[1.4619833,42.5299204]}},
{"type":"Feature","id":"node/8663007536","properties":{"type":"node","id":8663007536,"tags":{"aerialway":"pylon"},"relations":[],"meta":{}},"geometry":{"type":"Point","coordinates":[1.4606184,42.5291331]}},
{"type":"Feature","id":"node/8663007537","properties":{"type":"node","id":8663007537,"tags":{"aerialway":"pylon"},"relations":[],"meta":{}},"geometry":{"type":"Point","coordinates":[1.4592581,42.5283484]}},
{"type":"Feature","id":"node/8663007538","properties":{"type":"node","id":8663007538,"tags":{"aerialway":"pylon"},"relations":[],"meta":{}},"geometry":{"type":"Point","coordinates":[1.4579441,42.5275905]}},
{"type":"Feature","id":"node/8663007539","properties":{"type":"node","id":8663007539,"tags":{"aerialway":"pylon"},"relations":[],"meta":{}},"geometry":{"type":"Point","coordinates":[1.4567553,42.5269047]}},
{"type":"Feature","id":"node/8690757489","properties":{"type":"node","id":8690757489,"tags":{"aerialway":"pylon"},"relations":[],"meta":{}},"geometry":{"type":"Point","coordinates":[1.4524714,42.5441378]}},
{"type":"Feature","id":"node/8690757490","properties":{"type":"node","id":8690757490,"tags":{"aerialway":"pylon"},"relations":[],"meta":{}},"geometry":{"type":"Point","coordinates":[1.452502,42.5435323]}},
{"type":"Feature","id":"node/8690757491","properties":{"type":"node","id":8690757491,"tags":{"aerialway":"pylon"},"relations":[],"meta":{}},"geometry":{"type":"Point","coordinates":[1.452591,42.5417705]}},
{"type":"Feature","id":"node/8690757492","properties":{"type":"node","id":8690757492,"tags":{"aerialway":"pylon"},"relations":[],"meta":{}},"geometry":{"type":"Point","coordinates":[1.4526614,42.5403763]}},
{"type":"Feature","id":"node/8690757493","properties":{"type":"node","id":8690757493,"tags":{"aerialway":"pylon"},"relations":[],"meta":{}},"geometry":{"type":"Point","coordinates":[1.4527027,42.5395583]}},
{"type":"Feature","id":"node/8690757494","properties":{"type":"node","id":8690757494,"tags":{"aerialway":"pylon"},"relations":[],"meta":{}},"geometry":{"type":"Point","coordinates":[1.4527196,42.5392228]}},
{"type":"Feature","id":"node/8690757495","properties":{"type":"node","id":8690757495,"tags":{"aerialway":"pylon"},"relations":[],"meta":{}},"geometry":{"type":"Point","coordinates":[1.4527373,42.5388723]}},
{"type":"Feature","id":"node/8690757496","properties":{"type":"node","id":8690757496,"tags":{"aerialway":"pylon"},"relations":[],"meta":{}},"geometry":{"type":"Point","coordinates":[1.4527542,42.5385387]}},
{"type":"Feature","id":"node/8690757497","properties":{"type":"node","id":8690757497,"tags":{"aerialway":"pylon"},"relations":[],"meta":{}},"geometry":{"type":"Point","coordinates":[1.452816,42.5373136]}},
{"type":"Feature","id":"node/8690757498","properties":{"type":"node","id":8690757498,"tags":{"aerialway":"pylon"},"relations":[],"meta":{}},"geometry":{"type":"Point","coordinates":[1.4528912,42.5358257]}},
{"type":"Feature","id":"node/8690757499","properties":{"type":"node","id":8690757499,"tags":{"aerialway":"pylon"},"relations":[],"meta":{}},"geometry":{"type":"Point","coordinates":[1.452908,42.5354934]}},
{"type":"Feature","id":"node/8690757500","properties":{"type":"node","id":8690757500,"tags":{"aerialway":"pylon"},"relations":[],"meta":{}},"geometry":{"type":"Point","coordinates":[1.4529241,42.5351735]}},
{"type":"Feature","id":"node/8690757501","properties":{"type":"node","id":8690757501,"tags":{"aerialway":"pylon"},"relations":[],"meta":{}},"geometry":{"type":"Point","coordinates":[1.4517797,42.5393905]}},
{"type":"Feature","id":"node/8690757502","properties":{"type":"node","id":8690757502,"tags":{"aerialway":"pylon"},"relations":[],"meta":{}},"geometry":{"type":"Point","coordinates":[1.451349,42.5398737]}},
{"type":"Feature","id":"node/8690757503","properties":{"type":"node","id":8690757503,"tags":{"aerialway":"pylon"},"relations":[],"meta":{}},"geometry":{"type":"Point","coordinates":[1.4504658,42.5408647]}},
{"type":"Feature","id":"node/8690757504","properties":{"type":"node","id":8690757504,"tags":{"aerialway":"pylon"},"relations":[],"meta":{}},"geometry":{"type":"Point","coordinates":[1.4496929,42.541732]}},
{"type":"Feature","id":"node/8690757505","properties":{"type":"node","id":8690757505,"tags":{"aerialway":"pylon"},"relations":[],"meta":{}},"geometry":{"type":"Point","coordinates":[1.448781,42.5427551]}},
{"type":"Feature","id":"node/8690757506","properties":{"type":"node","id":8690757506,"tags":{"aerialway":"pylon"},"relations":[],"meta":{}},"geometry":{"type":"Point","coordinates":[1.4479447,42.5436933]}},
{"type":"Feature","id":"node/8690757507","properties":{"type":"node","id":8690757507,"tags":{"aerialway":"pylon"},"relations":[],"meta":{}},"geometry":{"type":"Point","coordinates":[1.4463044,42.5455337]}},
{"type":"Feature","id":"node/8690757508","properties":{"type":"node","id":8690757508,"tags":{"aerialway":"pylon"},"relations":[],"meta":{}},"geometry":{"type":"Point","coordinates":[1.4459542,42.5459266]}},
{"type":"Feature","id":"node/11179138117","properties":{"type":"node","id":11179138117,"tags":{"aerialway":"station","name":"Pla de la Cot II","name:ca":"Pla de la Cot II"},"relations":[],"meta":{}},"geometry":{"type":"Point","coordinates":[1.4742693,42.5302091]}},
{"type":"Feature","id":"node/11179138118","properties":{"type":"node","id":11179138118,"tags":{"aerialway":"station","name":"Pla de la Cot II","name:ca":"Pla de la Cot II"},"relations":[],"meta":{}},"geometry":{"type":"Point","coordinates":[1.4748116,42.53045]}},
{"type":"Feature","id":"node/11544798834","properties":{"type":"node","id":11544798834,"tags":{"aerialway":"pylon"},"relations":[],"meta":{}},"geometry":{"type":"Point","coordinates":[1.4671172,42.5309714]}},
{"type":"Feature","id":"node/11544798835","properties":{"type":"node","id":11544798835,"tags":{"aerialway":"pylon"},"relations":[],"meta":{}},"geometry":{"type":"Point","coordinates":[1.4658813,42.5304212]}},
{"type":"Feature","id":"node/11544798836","properties":{"type":"node","id":11544798836,"tags":{"aerialway":"pylon"},"relations":[],"meta":{}},"geometry":{"type":"Point","coordinates":[1.4628501,42.5290716]}},
{"type":"Feature","id":"node/11544798837","properties":{"type":"node","id":11544798837,"tags":{"aerialway":"pylon"},"relations":[],"meta":{}},"geometry":{"type":"Point","coordinates":[1.4620965,42.5287361]}},
{"type":"Feature","id":"node/11544798838","properties":{"type":"node","id":11544798838,"tags":{"aerialway":"pylon"},"relations":[],"meta":{}},"geometry":{"type":"Point","coordinates":[1.4609819,42.5282398]}},
{"type":"Feature","id":"node/11544798839","properties":{"type":"node","id":11544798839,"tags":{"aerialway":"pylon"},"relations":[],"meta":{}},"geometry":{"type":"Point","coordinates":[1.4603811,42.5279723]}},
{"type":"Feature","id":"node/11544798840","properties":{"type":"node","id":11544798840,"tags":{"aerialway":"pylon"},"relations":[],"meta":{}},"geometry":{"type":"Point","coordinates":[1.4593885,42.5275304]}},
{"type":"Feature","id":"node/11544798841","properties":{"type":"node","id":11544798841,"tags":{"aerialway":"pylon"},"relations":[],"meta":{}},"geometry":{"type":"Point","coordinates":[1.4578955,42.5268657]}},
{"type":"Feature","id":"node/11544798842","properties":{"type":"node","id":11544798842,"tags":{"aerialway":"pylon"},"relations":[],"meta":{}},"geometry":{"type":"Point","coordinates":[1.4571687,42.5265421]}},
{"type":"Feature","id":"node/11544798843","properties":{"type":"node","id":11544798843,"tags":{"aerialway":"pylon"},"relations":[],"meta":{}},"geometry":{"type":"Point","coordinates":[1.4565827,42.5268051]}},
{"type":"Feature","id":"node/11544800846","properties":{"type":"node","id":11544800846,"tags":{"aerialway":"station","name":"Pedres Blanques II"},"relations":[],"meta":{}},"geometry":{"type":"Point","coordinates":[1.4909086,42.5369177]}},
{"type":"Feature","id":"node/11544800847","properties":{"type":"node","id":11544800847,"tags":{"aerialway":"station","name":"Pedres Blanques II"},"relations":[],"meta":{}},"geometry":{"type":"Point","coordinates":[1.490175,42.5369632]}},
{"type":"Feature","id":"node/11544800848","properties":{"type":"node","id":11544800848,"tags":{"aerialway":"station","name":"Pedres Blanques I"},"relations":[],"meta":{}},"geometry":{"type":"Point","coordinates":[1.4907959,42.5377932]}},
{"type":"Feature","id":"node/11544800849","properties":{"type":"node","id":11544800849,"tags":{"aerialway":"station","name":"Pedres Blanques I"},"relations":[],"meta":{}},"geometry":{"type":"Point","coordinates":[1.4912143,42.5383367]}},
{"type":"Feature","id":"node/11544800850","properties":{"type":"node","id":11544800850,"tags":{"aerialway":"station","name":"el Planell II"},"relations":[],"meta":{}},"geometry":{"type":"Point","coordinates":[1.4911647,42.53564]}},
{"type":"Feature","id":"node/11544800851","properties":{"type":"node","id":11544800851,"tags":{"aerialway":"station","name":"el Planell II"},"relations":[],"meta":{}},"geometry":{"type":"Point","coordinates":[1.490643,42.5353791]}},
{"type":"Feature","id":"node/12479038793","properties":{"type":"node","id":12479038793,"tags":{"aerialway":"pylon"},"relations":[],"meta":{}},"geometry":{"type":"Point","coordinates":[1.4472628,42.5666631]}},
{"type":"Feature","id":"node/12479038794","properties":{"type":"node","id":12479038794,"tags":{"aerialway":"pylon"},"relations":[],"meta":{}},"geometry":{"type":"Point","coordinates":[1.4484605,42.5670021]}},
{"type":"Feature","id":"node/12479038795","properties":{"type":"node","id":12479038795,"tags":{"aerialway":"pylon"},"relations":[],"meta":{}},"geometry":{"type":"Point","coordinates":[1.4499382,42.5674204]}},
{"type":"Feature","id":"node/12479038796","properties":{"type":"node","id":12479038796,"tags":{"aerialway":"pylon"},"relations":[],"meta":{}},"geometry":{"type":"Point","coordinates":[1.4514569,42.5678502]}},
{"type":"Feature","id":"node/12479038797","properties":{"type":"node","id":12479038797,"tags":{"aerialway":"pylon"},"relations":[],"meta":{}},"geometry":{"type":"Point","coordinates":[1.4534956,42.5684272]}},
{"type":"Feature","id":"node/12479038798","properties":{"type":"node","id":12479038798,"tags":{"aerialway":"pylon"},"relations":[],"meta":{}},"geometry":{"type":"Point","coordinates":[1.4554781,42.5689883]}},
{"type":"Feature","id":"node/12479038799","properties":{"type":"node","id":12479038799,"tags":{"aerialway":"pylon"},"relations":[],"meta":{}},"geometry":{"type":"Point","coordinates":[1.4575137,42.5695644]}},
{"type":"Feature","id":"node/12479038800","properties":{"type":"node","id":12479038800,"tags":{"aerialway":"pylon"},"relations":[],"meta":{}},"geometry":{"type":"Point","coordinates":[1.4613219,42.5706421]}},
{"type":"Feature","id":"node/12479042801","properties":{"type":"node","id":12479042801,"tags":{"aerialway":"pylon"},"relations":[],"meta":{}},"geometry":{"type":"Point","coordinates":[1.4595864,42.570151]}},
{"type":"Feature","id":"node/12479042802","properties":{"type":"node","id":12479042802,"tags":{"aerialway":"pylon"},"relations":[],"meta":{}},"geometry":{"type":"Point","coordinates":[1.4626657,42.5710032]}},
{"type":"Feature","id":"node/12479042807","properties":{"type":"node","id":12479042807,"tags":{"aerialway":"pylon"},"relations":[],"meta":{}},"geometry":{"type":"Point","coordinates":[1.4631784,42.5711325]}}
]
}
