{"type": "FeatureCollection", "features":[
{"type":"Feature","properties":{"type":"skiArea","name":"Pal-Arinsal","sources":[{"type":"openstreetmap","id":"relation/4638280"}],"activities":[],"generated":false,"status":"operating","websites":[],"runConvention":"north_america","location":null,"id":"5ecb06388006e4740e7ce8234e26d036ce85edb7"},"geometry":{"type":"Point","coordinates":[360,360,4638280]}}
,
{"type":"Feature","properties":{"type":"skiArea","name":"Pal-Arinsal","sources":[{"type":"openstreetmap","id":"way/987243867"}],"activities":[],"generated":false,"status":"operating","websites":[],"runConvention":"europe","location":null,"id":"f7d03796eebda5331a384ada84fff96091131bc9"},"geometry":{"type":"Polygon","coordinates":[[[1.4748621,42.578197],[1.4732316999999997,42.5778961],[1.4734247999999996,42.576726900000004],[1.4699271999999997,42.5758104],[1.4652279999999998,42.573614],[1.4560441,42.5712753],[1.4552930999999998,42.5718758],[1.4510229999999997,42.571654599999995],[1.4459589999999998,42.5699479],[1.4439848999999998,42.566250000000004],[1.4441164,42.56587590000001],[1.4512805,42.5454966],[1.4489201999999997,42.5446429],[1.4463451999999999,42.5466506],[1.4451435999999998,42.5466348],[1.4444355,42.5426984],[1.4468173,42.5412597],[1.4515164999999999,42.5391886],[1.4522931,42.5365448],[1.4518301999999996,42.53475530000001],[1.4511774,42.53413270000001],[1.4513406999999998,42.5328698],[1.4520264999999999,42.531193200000004],[1.4526509,42.5306602],[1.4531926999999998,42.52995520000001],[1.4544189,42.528189100000006],[1.4548581999999999,42.5275564],[1.4553047999999997,42.5264341],[1.4567891999999998,42.5260315],[1.4572188,42.52601580000001],[1.4607004,42.52710830000001],[1.4662794,42.5269976],[1.4763215999999997,42.530176100000006],[1.4897326999999998,42.5339235],[1.4958051999999997,42.5378289],[1.4953759999999998,42.539820999999996],[1.4935949999999998,42.5402005],[1.4897755999999998,42.5385246],[1.4884023,42.5385404],[1.4873357999999999,42.538524300000006],[1.4841965999999998,42.5384771],[1.4829339999999998,42.5377942],[1.4825914999999998,42.537608999999996],[1.4801625,42.536295200000005],[1.4795616999999996,42.53553630000001],[1.4784888,42.535204300000004],[1.4776948999999997,42.53381290000001],[1.4752701999999998,42.532437200000004],[1.4731459,42.534761599999996],[1.4667943999999997,42.5344769],[1.4615801999999998,42.5306504],[1.4593270999999999,42.5305714],[1.4539841999999996,42.532563700000004],[1.4533403999999999,42.53841390000001],[1.4543918999999998,42.5389831],[1.4543918999999998,42.5419079],[1.4529541999999998,42.545054],[1.4482478,42.5581654],[1.4456801,42.56531760000001],[1.4539841999999996,42.56263090000001],[1.4548854,42.56351600000001],[1.4529756999999999,42.564179700000004],[1.4548638999999999,42.56735630000001],[1.4549881,42.5673935],[1.4562513,42.567772000000005],[1.4592412999999997,42.5686679],[1.4706779,42.5717737],[1.4727485,42.573425],[1.4805268999999999,42.5765774],[1.4801836,42.5771778],[1.4788531999999999,42.5771857],[1.4782524000000001,42.5774227],[1.4775335999999997,42.5776281],[1.4765894,42.57813380000001],[1.4750874,42.57855250000001],[1.4748621,42.578197]]]}}
,
{"type":"Feature","properties":{"type":"skiArea","name":"Vallnord (Pal Arinsal, Ordino Arcalis)","sources":[{"type":"skimap.org","id":1807}],"activities":["downhill"],"generated":false,"status":"operating","runConvention":"europe","websites":["http://www.vallnord.com/"],"location":null,"id":"991005f2ee12188407861c35044a75128fd5cb11"},"geometry":{"type":"Point","coordinates":[1.452461779117584,42.5447080412076]}}
]}
