{"type": "FeatureCollection", "features":[
{"type":"Feature","properties":{"type":"lift","liftType":"gondola","status":"operating","name":"Telecabina La Massana, Cable Car La Massana","oneway":null,"ref":null,"description":null,"occupancy":16,"capacity":null,"duration":480,"bubble":null,"heating":false,"color":"hsl(0, 82%, 42%)","skiAreas":[{"type":"Feature","properties":{"type":"skiArea","name":"Pal-Arinsal","sources":[{"type":"openstreetmap","id":"relation/4638280"}],"activities":[],"generated":false,"status":"operating","websites":[],"runConvention":"north_america","location":null,"id":"5ecb06388006e4740e7ce8234e26d036ce85edb7"},"geometry":{"type":"Point","coordinates":[360,360,4638280]}}],"sources":[{"type":"openstreetmap","id":"way/29376254"}],"location":null,"websites":[],"id":"14c85ad1446870762fb8ae64416ef773b865bde0"},"geometry":{"type":"LineString","coordinates":[[1.5138581999999998,42.5472953,1237.5654549216079],[1.5129537,42.5468919,1252.6937271328068],[1.5125661999999997,42.546719800000005,1263.3222916990808],[1.5111061999999997,42.5460702,1306.6236721792325],[1.5105583,42.5458265,1309.9361230479888],[1.5055045999999996,42.5435817,1488.8118521184915],[1.5007856,42.541485699999996,1664.9925890306022],[1.4972443999999998,42.53991280000001,1807.6648098812377],[1.4947952999999998,42.5388249,1883.8446831087754],[1.4926991999999997,42.5378939,1919.3447448447953],[1.4911408,42.5372017,1902.814143705608]]}}
,
{"type":"Feature","properties":{"type":"lift","liftType":"gondola","status":"operating","name":"els Orriols","oneway":null,"ref":null,"description":null,"occupancy":null,"capacity":null,"duration":null,"bubble":null,"heating":null,"color":"hsl(0, 82%, 42%)","skiAreas":[{"type":"Feature","properties":{"type":"skiArea","name":"Pal-Arinsal","sources":[{"type":"openstreetmap","id":"relation/4638280"}],"activities":[],"generated":false,"status":"operating","websites":[],"runConvention":"north_america","location":null,"id":"5ecb06388006e4740e7ce8234e26d036ce85edb7"},"geometry":{"type":"Point","coordinates":[360,360,4638280]}}],"sources":[{"type":"openstreetmap","id":"way/29376356"}],"location":null,"websites":[],"id":"3403cf39ffd9f052b4e5deaafe82812bab14207d"},"geometry":{"type":"LineString","coordinates":[[1.4834413999999998,42.5726073,1475.317680000031],[1.4828801999999999,42.572630200000006,1474.6020535616567],[1.4803379,42.572734200000006,1553.9479404289136],[1.4799704999999999,42.572749200000004,1572.5836975680902],[1.4783174000000001,42.572816800000005,1681.1480606722478],[1.4769396999999997,42.5728731,1763.2486988273154],[1.4754888,42.57293250000001,1839.9656617602102],[1.4751174,42.5729476,1850.9721422847997],[1.4716958999999998,42.57308749999999,1903.2081878001054],[1.4712125,42.573107300000004,1917.9623199999169]]}}
,
{"type":"Feature","properties":{"type":"lift","liftType":"chair_lift","status":"operating","name":"Arinsal","oneway":null,"ref":null,"description":null,"occupancy":6,"capacity":null,"duration":null,"bubble":null,"heating":null,"color":"hsl(0, 82%, 42%)","skiAreas":[{"type":"Feature","properties":{"type":"skiArea","name":"Pal-Arinsal","sources":[{"type":"openstreetmap","id":"relation/4638280"}],"activities":[],"generated":false,"status":"operating","websites":[],"runConvention":"north_america","location":null,"id":"5ecb06388006e4740e7ce8234e26d036ce85edb7"},"geometry":{"type":"Point","coordinates":[360,360,4638280]}}],"sources":[{"type":"openstreetmap","id":"way/42014211"}],"location":null,"websites":[],"id":"9e8d3629ba2f2f6317ecd0208fb83b531c91433d"},"geometry":{"type":"LineString","coordinates":[[1.4799653999999998,42.5769591,1553.8250564287669],[1.4796885999999998,42.5768457,1562.8087637952065],[1.4789009999999998,42.5765231,1599.8646684479017],[1.4781508,42.57621580000001,1629.652775385109],[1.4769635999999997,42.5757294,1681.0328124415946],[1.4758656999999997,42.5752797,1740.1071936815736],[1.4751085999999998,42.574969499999995,1786.1028948162543],[1.4742519,42.5746186,1821.1239764063992],[1.4728607999999999,42.5740487,1863.9674047744304],[1.4718430999999998,42.5736318,1893.4325200000135],[1.4713664999999998,42.5734366,1907.529519999996],[1.4710010999999998,42.5732869,1920.0388759072157]]}}
,
{"type":"Feature","properties":{"type":"lift","liftType":"chair_lift","status":"operating","name":"la Caubella","oneway":null,"ref":null,"description":null,"occupancy":2,"capacity":null,"duration":null,"bubble":null,"heating":null,"color":"hsl(0, 82%, 42%)","skiAreas":[{"type":"Feature","properties":{"type":"skiArea","name":"Pal-Arinsal","sources":[{"type":"openstreetmap","id":"relation/4638280"}],"activities":[],"generated":false,"status":"operating","websites":[],"runConvention":"north_america","location":null,"id":"5ecb06388006e4740e7ce8234e26d036ce85edb7"},"geometry":{"type":"Point","coordinates":[360,360,4638280]}}],"sources":[{"type":"openstreetmap","id":"way/52008425"}],"location":null,"websites":[],"id":"6a02be884b37d0e9bc2630d98ed988fdcdb74cd8"},"geometry":{"type":"LineString","coordinates":[[1.4902476,42.5364238,1901.6126922495887],[1.4898919999999998,42.536053800000005,1902.8816572159599],[1.4891743999999998,42.535307,1918.7591336959638],[1.4888793999999999,42.535000100000005,1920.9981999999125]]}}
,
{"type":"Feature","properties":{"type":"lift","liftType":"chair_lift","status":"operating","name":"la Serra","oneway":null,"ref":null,"description":null,"occupancy":2,"capacity":null,"duration":null,"bubble":null,"heating":null,"color":"hsl(0, 82%, 42%)","skiAreas":[{"type":"Feature","properties":{"type":"skiArea","name":"Pal-Arinsal","sources":[{"type":"openstreetmap","id":"relation/4638280"}],"activities":[],"generated":false,"status":"operating","websites":[],"runConvention":"north_america","location":null,"id":"5ecb06388006e4740e7ce8234e26d036ce85edb7"},"geometry":{"type":"Point","coordinates":[360,360,4638280]}}],"sources":[{"type":"openstreetmap","id":"way/52008767"}],"location":null,"websites":[],"id":"690152834a678b16e66cc1a7a7bd9f7b984dde56"},"geometry":{"type":"LineString","coordinates":[[1.4898795999999996,42.5364868,1899.1566400000168],[1.4888171000000001,42.53607290000001,1901.0151510061426],[1.4878493999999998,42.535695800000006,1901.869385222243],[1.487107,42.5354066,1906.2899199999501],[1.4858435999999997,42.534914300000004,1918.5040799997919],[1.4849461,42.5345647,1917.086771390516],[1.4837011999999996,42.5340797,1926.1912837888208],[1.4826043999999998,42.53365230000001,1939.9723199996947],[1.4822704,42.53352220000001,1945.9875999996596],[1.4815721,42.533242200000004,1950.5698346654276],[1.4800163,42.532618500000005,1980.3834773276292],[1.4795326999999998,42.5324246,1994.708081916854],[1.4763042999999998,42.53113030000001,2055.1903350333387],[1.4752587,42.530711100000005,2071.9463638944517],[1.4747465,42.530505700000006,2075.6233141360362]]}}
,
{"type":"Feature","properties":{"type":"lift","liftType":"chair_lift","status":"operating","name":"la Carbonera","oneway":null,"ref":null,"description":null,"occupancy":4,"capacity":null,"duration":null,"bubble":null,"heating":null,"color":"hsl(0, 82%, 42%)","skiAreas":[{"type":"Feature","properties":{"type":"skiArea","name":"Pal-Arinsal","sources":[{"type":"openstreetmap","id":"relation/4638280"}],"activities":[],"generated":false,"status":"operating","websites":[],"runConvention":"north_america","location":null,"id":"5ecb06388006e4740e7ce8234e26d036ce85edb7"},"geometry":{"type":"Point","coordinates":[360,360,4638280]}}],"sources":[{"type":"openstreetmap","id":"way/52009081"}],"location":null,"websites":[],"id":"91d0d1dc846ffe8ff7640310792d2bfb5db8ad68"},"geometry":{"type":"LineString","coordinates":[[1.4845831,42.537589499999996,1793.7256506480849],[1.4849869,42.53728459999999,1809.0906604995232],[1.4858029999999998,42.536668399999996,1848.712278592143],[1.4867279,42.53597010000001,1883.9547916765507],[1.4872941999999996,42.535542500000005,1902.141237279837],[1.4880176,42.5349962,1930.1814184703774],[1.4882139,42.534848,1929.6733658880419]]}}
,
{"type":"Feature","properties":{"type":"lift","liftType":"chair_lift","status":"operating","name":"la Serra 2","oneway":null,"ref":null,"description":null,"occupancy":4,"capacity":null,"duration":null,"bubble":null,"heating":null,"color":"hsl(0, 82%, 42%)","skiAreas":[{"type":"Feature","properties":{"type":"skiArea","name":"Pal-Arinsal","sources":[{"type":"openstreetmap","id":"relation/4638280"}],"activities":[],"generated":false,"status":"operating","websites":[],"runConvention":"north_america","location":null,"id":"5ecb06388006e4740e7ce8234e26d036ce85edb7"},"geometry":{"type":"Point","coordinates":[360,360,4638280]}}],"sources":[{"type":"openstreetmap","id":"way/52009565"}],"location":null,"websites":[],"id":"ebd978591c3a7750e545c3e1027436fbb503781e"},"geometry":{"type":"LineString","coordinates":[[1.4837974999999999,42.5374631,1788.5701756400817],[1.4834181,42.5371831,1790.0851787344],[1.4831434,42.5369804,1792.913200000074],[1.4817636999999997,42.53596220000001,1831.8292330684524],[1.4803229,42.5348989,1883.731479999919],[1.4789512999999999,42.5338867,1930.8558904785295],[1.4779322999999998,42.533134600000004,1971.1689699262458],[1.4767392999999998,42.532254200000004,2014.949239999838],[1.4755308999999999,42.531362300000005,2055.2389361070022],[1.474986,42.5309602,2073.3561173759435],[1.4743925999999998,42.53052220000001,2078.0448234623905]]}}
,
{"type":"Feature","properties":{"type":"lift","liftType":"chair_lift","status":"operating","name":"la Botella","oneway":true,"ref":null,"description":null,"occupancy":4,"capacity":null,"duration":null,"bubble":false,"heating":true,"color":"hsl(0, 82%, 42%)","skiAreas":[{"type":"Feature","properties":{"type":"skiArea","name":"Pal-Arinsal","sources":[{"type":"openstreetmap","id":"relation/4638280"}],"activities":[],"generated":false,"status":"operating","websites":[],"runConvention":"north_america","location":null,"id":"5ecb06388006e4740e7ce8234e26d036ce85edb7"},"geometry":{"type":"Point","coordinates":[360,360,4638280]}}],"sources":[{"type":"openstreetmap","id":"way/52010630"}],"location":null,"websites":[],"id":"859b4be88979c41a1af11fe77b7c23eef997e23e"},"geometry":{"type":"LineString","coordinates":[[1.4524549,42.544464899999994,2066.624331428768],[1.4524713999999999,42.5441378,2070.2009803967667],[1.4524854,42.543861299999996,2076.6310800001256],[1.452502,42.54353230000001,2087.8639572156526],[1.4525909999999997,42.5417705,2142.3028275200677],[1.4526613999999998,42.540376300000005,2200.4399567325354],[1.4527027,42.53955830000001,2230.1515823660807],[1.4527195999999998,42.539222800000005,2247.2257454589258],[1.4527373,42.53887230000001,2256.2502176014864],[1.4527541999999998,42.53853870000001,2259.442900444814],[1.4528159999999999,42.537313600000004,2266.400495103937],[1.4528911999999996,42.535825700000004,2292.5948812670804],[1.4529079999999999,42.5354934,2302.942098688003],[1.4529240999999997,42.535173500000006,2307.194748591985],[1.4529364999999999,42.534928,2308.0212275199983]]}}
,
{"type":"Feature","properties":{"type":"lift","liftType":"chair_lift","status":"operating","name":"Setúria","oneway":null,"ref":null,"description":null,"occupancy":4,"capacity":null,"duration":null,"bubble":null,"heating":null,"color":"hsl(0, 82%, 42%)","skiAreas":[{"type":"Feature","properties":{"type":"skiArea","name":"Pal-Arinsal","sources":[{"type":"openstreetmap","id":"relation/4638280"}],"activities":[],"generated":false,"status":"operating","websites":[],"runConvention":"north_america","location":null,"id":"5ecb06388006e4740e7ce8234e26d036ce85edb7"},"geometry":{"type":"Point","coordinates":[360,360,4638280]}}],"sources":[{"type":"openstreetmap","id":"way/52010729"}],"location":null,"websites":[],"id":"f0be0158a0eddf6c308202db075b32f29e800d80"},"geometry":{"type":"LineString","coordinates":[[1.4456039999999997,42.5463195,1900.7175651199768],[1.4459541999999996,42.5459266,1908.4804641087699],[1.4463043999999998,42.54553370000001,1919.713286073494],[1.4479446999999996,42.5436933,1998.2190002095642],[1.4487809999999999,42.54275510000001,2052.732839999685],[1.4496928999999998,42.541732,2101.8386399998244],[1.4504658,42.54086469999999,2157.2395600003238],[1.4513489999999998,42.5398737,2220.271047711918],[1.4517796999999997,42.5393905,2242.436215455882],[1.4521861,42.5389345,2262.1852548638726]]}}
,
{"type":"Feature","properties":{"type":"lift","liftType":"chair_lift","status":"operating","name":"El Cubil","oneway":null,"ref":null,"description":null,"occupancy":6,"capacity":null,"duration":null,"bubble":null,"heating":null,"color":"hsl(0, 82%, 42%)","skiAreas":[{"type":"Feature","properties":{"type":"skiArea","name":"Pal-Arinsal","sources":[{"type":"openstreetmap","id":"relation/4638280"}],"activities":[],"generated":false,"status":"operating","websites":[],"runConvention":"north_america","location":null,"id":"5ecb06388006e4740e7ce8234e26d036ce85edb7"},"geometry":{"type":"Point","coordinates":[360,360,4638280]}}],"sources":[{"type":"openstreetmap","id":"way/52010876"}],"location":null,"websites":[],"id":"f3d4aa046acd2d5e3ee0ce6caaf8ec4a4df619ef"},"geometry":{"type":"LineString","coordinates":[[1.4688949999999998,42.5339072,1889.645499519972],[1.4684686999999998,42.5336613,1902.6511600000658],[1.4678894999999998,42.5333272,1923.4915205758937],[1.4668911999999996,42.5327514,1956.04103999988],[1.4655585999999998,42.5319827,1992.2175811775826],[1.4643901,42.531308700000004,2025.5353999998197],[1.4630442999999997,42.53053250000001,2079.318756839691],[1.4619832999999998,42.5299204,2143.953780063934],[1.4606184,42.52913310000001,2199.6793976828276],[1.4592581,42.528348400000006,2253.920279999833],[1.4579440999999997,42.5275905,2297.126839999947],[1.4567553,42.5269047,2336.498304134413],[1.4565827,42.526805100000004,2337.756195739195],[1.4563912999999997,42.5266947,2339.8739159856023]]}}
,
{"type":"Feature","properties":{"type":"lift","liftType":"chair_lift","status":"operating","name":"les Fonts","oneway":null,"ref":null,"description":null,"occupancy":6,"capacity":null,"duration":null,"bubble":null,"heating":null,"color":"hsl(0, 82%, 42%)","skiAreas":[{"type":"Feature","properties":{"type":"skiArea","name":"Pal-Arinsal","sources":[{"type":"openstreetmap","id":"relation/4638280"}],"activities":[],"generated":false,"status":"operating","websites":[],"runConvention":"north_america","location":null,"id":"5ecb06388006e4740e7ce8234e26d036ce85edb7"},"geometry":{"type":"Point","coordinates":[360,360,4638280]}}],"sources":[{"type":"openstreetmap","id":"way/52038527"}],"location":null,"websites":[],"id":"ef0fe8c43eea6b32f54eac08e8ef27e38a19ea28"},"geometry":{"type":"LineString","coordinates":[[1.4709668999999999,42.572431900000005,1927.0767254687664],[1.4700902999999998,42.57233260000001,1935.6516951551066],[1.4689127,42.5721914,1971.8871914911501],[1.4679561999999997,42.572076700000004,2004.9334186015803],[1.4669316999999997,42.571953900000004,2021.0607617551332],[1.4657139999999997,42.571807899999996,2043.695960000157],[1.4642053,42.5716269,2080.0012734640673],[1.4628586,42.571465499999995,2102.08900676805],[1.4609364999999999,42.571235,2124.1887335999845],[1.4595057999999999,42.57106339999999,2155.170621651093],[1.4578235999999996,42.570861699999995,2203.2660628543617],[1.4567059,42.5707276,2222.825681593594],[1.4551061999999997,42.57053580000001,2254.465529401716],[1.4538952999999997,42.5703906,2272.586200000106],[1.4521311999999997,42.570179100000004,2295.295685043293],[1.4510031999999997,42.5700438,2307.0293176320192]]}}
,
{"type":"Feature","properties":{"type":"lift","liftType":"chair_lift","status":"operating","name":"el Cortal","oneway":null,"ref":null,"description":null,"occupancy":4,"capacity":null,"duration":null,"bubble":null,"heating":null,"color":"hsl(0, 82%, 42%)","skiAreas":[{"type":"Feature","properties":{"type":"skiArea","name":"Pal-Arinsal","sources":[{"type":"openstreetmap","id":"relation/4638280"}],"activities":[],"generated":false,"status":"operating","websites":[],"runConvention":"north_america","location":null,"id":"5ecb06388006e4740e7ce8234e26d036ce85edb7"},"geometry":{"type":"Point","coordinates":[360,360,4638280]}}],"sources":[{"type":"openstreetmap","id":"way/52038627"}],"location":null,"websites":[],"id":"8b6a30e9cd71b61ae0d3dd7404c5d8a44126e1c2"},"geometry":{"type":"LineString","coordinates":[[1.4703624,42.5746083,1917.937402086358],[1.4697898999999999,42.574373,1934.9206884159955],[1.4689987999999998,42.574047799999995,1949.8597193856451],[1.4682997999999998,42.5737605,1963.839526431975],[1.4671513999999999,42.5732885,1989.3465483680445],[1.4660847,42.57285,2019.2806400000209],[1.4658545999999997,42.57275550000001,2025.239400224053]]}}
,
{"type":"Feature","properties":{"type":"lift","liftType":"drag_lift","status":"operating","name":"la Serra","oneway":null,"ref":null,"description":null,"occupancy":null,"capacity":null,"duration":null,"bubble":null,"heating":null,"color":"hsl(0, 82%, 42%)","skiAreas":[{"type":"Feature","properties":{"type":"skiArea","name":"Pal-Arinsal","sources":[{"type":"openstreetmap","id":"relation/4638280"}],"activities":[],"generated":false,"status":"operating","websites":[],"runConvention":"north_america","location":null,"id":"5ecb06388006e4740e7ce8234e26d036ce85edb7"},"geometry":{"type":"Point","coordinates":[360,360,4638280]}}],"sources":[{"type":"openstreetmap","id":"way/52112646"}],"location":null,"websites":[],"id":"d7f25c972d8acbe8d7548d00ced4d7f55c4d42be"},"geometry":{"type":"LineString","coordinates":[[1.4700297999999998,42.5338531,1893.2452799999487],[1.4738144999999998,42.5305625,2078.3143999999543]]}}
,
{"type":"Feature","properties":{"type":"lift","liftType":"drag_lift","status":"operating","name":"el Cubil","oneway":null,"ref":null,"description":null,"occupancy":null,"capacity":null,"duration":null,"bubble":null,"heating":null,"color":"hsl(0, 82%, 42%)","skiAreas":[{"type":"Feature","properties":{"type":"skiArea","name":"Pal-Arinsal","sources":[{"type":"openstreetmap","id":"relation/4638280"}],"activities":[],"generated":false,"status":"operating","websites":[],"runConvention":"north_america","location":null,"id":"5ecb06388006e4740e7ce8234e26d036ce85edb7"},"geometry":{"type":"Point","coordinates":[360,360,4638280]}}],"sources":[{"type":"openstreetmap","id":"way/52114939"}],"location":null,"websites":[],"id":"ea843303116cd0e4ff62aebf00768767886c43f5"},"geometry":{"type":"LineString","coordinates":[[1.4680286999999999,42.5313772,2001.568011705554],[1.4671172,42.5309714,2020.3387191168492],[1.4658812999999997,42.5304212,2051.119076275234],[1.4628501,42.5290716,2153.0045056063454],[1.4620965,42.52873610000001,2183.401392415562],[1.4609819,42.52823980000001,2225.3453599997547],[1.4603811,42.52797230000001,2245.387232297398],[1.4593885,42.5275304,2272.4248399998914],[1.4578954999999998,42.5268657,2315.743519999978],[1.4571686999999998,42.52654210000001,2331.538301676782],[1.4567085999999998,42.52633720000001,2339.2381706368255]]}}
,
{"type":"Feature","properties":{"type":"lift","liftType":"drag_lift","status":"operating","name":"els Coms","oneway":null,"ref":null,"description":null,"occupancy":null,"capacity":null,"duration":null,"bubble":null,"heating":null,"color":"hsl(0, 82%, 42%)","skiAreas":[{"type":"Feature","properties":{"type":"skiArea","name":"Pal-Arinsal","sources":[{"type":"openstreetmap","id":"relation/4638280"}],"activities":[],"generated":false,"status":"operating","websites":[],"runConvention":"north_america","location":null,"id":"5ecb06388006e4740e7ce8234e26d036ce85edb7"},"geometry":{"type":"Point","coordinates":[360,360,4638280]}}],"sources":[{"type":"openstreetmap","id":"way/52114942"}],"location":null,"websites":[],"id":"1ea7faa27d7bffdf77a392149b910d426f43011f"},"geometry":{"type":"LineString","coordinates":[[1.4601286999999998,42.5301064,2188.019030092787],[1.4554604999999998,42.527373000000004,2332.4718538398693]]}}
,
{"type":"Feature","properties":{"type":"lift","liftType":"cable_car","status":"operating","name":"Arinsal-Pal","oneway":null,"ref":null,"description":null,"occupancy":50,"capacity":null,"duration":null,"bubble":null,"heating":null,"color":"hsl(0, 82%, 42%)","skiAreas":[{"type":"Feature","properties":{"type":"skiArea","name":"Pal-Arinsal","sources":[{"type":"openstreetmap","id":"relation/4638280"}],"activities":[],"generated":false,"status":"operating","websites":[],"runConvention":"north_america","location":null,"id":"5ecb06388006e4740e7ce8234e26d036ce85edb7"},"geometry":{"type":"Point","coordinates":[360,360,4638280]}}],"sources":[{"type":"openstreetmap","id":"way/52114952"}],"location":null,"websites":[],"id":"0f0f3f4c05a1b8f00c35c2b9b9b8e7ecdb72412a"},"geometry":{"type":"LineString","coordinates":[[1.4522639999999998,42.545311500000004,2066.005541440008],[1.4488574,42.554368399999994,2204.486806566293],[1.4446335,42.565596400000004,2474.6808845761902],[1.4444791,42.5660066,2492.9512794048737]]}}
,
{"type":"Feature","properties":{"type":"lift","liftType":"platter","status":"operating","name":"la Capa","oneway":null,"ref":null,"description":null,"occupancy":null,"capacity":null,"duration":null,"bubble":null,"heating":null,"color":"hsl(0, 82%, 42%)","skiAreas":[{"type":"Feature","properties":{"type":"skiArea","name":"Pal-Arinsal","sources":[{"type":"openstreetmap","id":"relation/4638280"}],"activities":[],"generated":false,"status":"operating","websites":[],"runConvention":"north_america","location":null,"id":"5ecb06388006e4740e7ce8234e26d036ce85edb7"},"geometry":{"type":"Point","coordinates":[360,360,4638280]}}],"sources":[{"type":"openstreetmap","id":"way/52121995"}],"location":null,"websites":[],"id":"82ed1c204b9499a0e06cfbd63d301791a430061f"},"geometry":{"type":"LineString","coordinates":[[1.4488784,42.5648595,2450.0787449600393],[1.4533577,42.563449,2534.5657064320576]]}}
,
{"type":"Feature","properties":{"type":"lift","liftType":"chair_lift","status":"operating","name":"la Tossa","oneway":null,"ref":null,"description":null,"occupancy":4,"capacity":null,"duration":null,"bubble":null,"heating":null,"color":"hsl(0, 82%, 42%)","skiAreas":[{"type":"Feature","properties":{"type":"skiArea","name":"Pal-Arinsal","sources":[{"type":"openstreetmap","id":"relation/4638280"}],"activities":[],"generated":false,"status":"operating","websites":[],"runConvention":"north_america","location":null,"id":"5ecb06388006e4740e7ce8234e26d036ce85edb7"},"geometry":{"type":"Point","coordinates":[360,360,4638280]}}],"sources":[{"type":"openstreetmap","id":"way/52692961"}],"location":null,"websites":[],"id":"12c117b59e6340e1491c6075b9b19783bb4ac035"},"geometry":{"type":"LineString","coordinates":[[1.4709073,42.572291,1928.8216981440019],[1.4696986999999997,42.57196,1961.4001600001275],[1.4684416999999998,42.5716157,2011.4830592174717],[1.4670343999999997,42.5712303,2043.6992130686172],[1.4661412999999999,42.5709857,2070.7442257679304],[1.4654189,42.5707878,2098.536806249712],[1.4638565,42.57035990000001,2117.3434632475896],[1.4626342999999997,42.5700251,2133.149043735922],[1.4610412999999998,42.569588800000005,2152.788805977512],[1.4602906999999998,42.569383200000004,2168.7526167295387],[1.4593910999999997,42.56913680000001,2182.244239999722],[1.4591641999999996,42.5690747,2185.67234000956]]}}
,
{"type":"Feature","properties":{"type":"lift","liftType":"drag_lift","status":"operating","name":"els Planels","oneway":null,"ref":null,"description":null,"occupancy":null,"capacity":null,"duration":null,"bubble":null,"heating":null,"color":"hsl(0, 82%, 42%)","skiAreas":[{"type":"Feature","properties":{"type":"skiArea","name":"Pal-Arinsal","sources":[{"type":"openstreetmap","id":"relation/4638280"}],"activities":[],"generated":false,"status":"operating","websites":[],"runConvention":"north_america","location":null,"id":"5ecb06388006e4740e7ce8234e26d036ce85edb7"},"geometry":{"type":"Point","coordinates":[360,360,4638280]}}],"sources":[{"type":"openstreetmap","id":"way/52692965"}],"location":null,"websites":[],"id":"95a433421eb4b2e35d4d3e3bf07b5dd9b20d374c"},"geometry":{"type":"LineString","coordinates":[[1.4563595999999999,42.5699114,2229.251755712055],[1.4508095999999997,42.569248300000005,2301.0023017856547]]}}
,
{"type":"Feature","properties":{"type":"lift","liftType":"drag_lift","status":"operating","name":"La Tossa I","oneway":null,"ref":null,"description":null,"occupancy":null,"capacity":null,"duration":null,"bubble":null,"heating":null,"color":"hsl(0, 82%, 42%)","skiAreas":[{"type":"Feature","properties":{"type":"skiArea","name":"Pal-Arinsal","sources":[{"type":"openstreetmap","id":"relation/4638280"}],"activities":[],"generated":false,"status":"operating","websites":[],"runConvention":"north_america","location":null,"id":"5ecb06388006e4740e7ce8234e26d036ce85edb7"},"geometry":{"type":"Point","coordinates":[360,360,4638280]}}],"sources":[{"type":"openstreetmap","id":"way/98007155"}],"location":null,"websites":[],"id":"ed6d71389df621b36219a3afe894dc69a0681833"},"geometry":{"type":"LineString","coordinates":[[1.4541658,42.5310252,2295.690720000007],[1.4521031,42.533962300000006,2312.6273738351224]]}}
,
{"type":"Feature","properties":{"type":"lift","liftType":"magic_carpet","status":"operating","name":"el Planell I","oneway":null,"ref":null,"description":null,"occupancy":null,"capacity":null,"duration":null,"bubble":null,"heating":null,"color":"hsl(0, 82%, 42%)","skiAreas":[{"type":"Feature","properties":{"type":"skiArea","name":"Pal-Arinsal","sources":[{"type":"openstreetmap","id":"relation/4638280"}],"activities":[],"generated":false,"status":"operating","websites":[],"runConvention":"north_america","location":null,"id":"5ecb06388006e4740e7ce8234e26d036ce85edb7"},"geometry":{"type":"Point","coordinates":[360,360,4638280]}}],"sources":[{"type":"openstreetmap","id":"way/98007176"}],"location":null,"websites":[],"id":"586aa279a2ee52db94e8298fdeb787bc62195dfe"},"geometry":{"type":"LineString","coordinates":[[1.4912025,42.5356267,1906.9755199999763],[1.4897882999999998,42.5348979,1922.7891199999808]]}}
,
{"type":"Feature","properties":{"type":"lift","liftType":"magic_carpet","status":"operating","name":"Pedres Blanques II","oneway":null,"ref":null,"description":null,"occupancy":null,"capacity":null,"duration":null,"bubble":null,"heating":null,"color":"hsl(0, 82%, 42%)","skiAreas":[{"type":"Feature","properties":{"type":"skiArea","name":"Pal-Arinsal","sources":[{"type":"openstreetmap","id":"relation/4638280"}],"activities":[],"generated":false,"status":"operating","websites":[],"runConvention":"north_america","location":null,"id":"5ecb06388006e4740e7ce8234e26d036ce85edb7"},"geometry":{"type":"Point","coordinates":[360,360,4638280]}}],"sources":[{"type":"openstreetmap","id":"way/261555164"}],"location":null,"websites":[],"id":"96846973551ccbcbe52024670bf4493e3eae5393"},"geometry":{"type":"LineString","coordinates":[[1.4911313999999998,42.538356400000005,1893.7999852414912],[1.4907025,42.5377977,1894.9008400000148]]}}
,
{"type":"Feature","properties":{"type":"lift","liftType":"magic_carpet","status":"operating","name":"Pla de la Cot I","oneway":null,"ref":null,"description":null,"occupancy":null,"capacity":null,"duration":null,"bubble":null,"heating":false,"color":"hsl(0, 82%, 42%)","skiAreas":[{"type":"Feature","properties":{"type":"skiArea","name":"Pal-Arinsal","sources":[{"type":"openstreetmap","id":"relation/4638280"}],"activities":[],"generated":false,"status":"operating","websites":[],"runConvention":"north_america","location":null,"id":"5ecb06388006e4740e7ce8234e26d036ce85edb7"},"geometry":{"type":"Point","coordinates":[360,360,4638280]}}],"sources":[{"type":"openstreetmap","id":"way/261556519"}],"location":null,"websites":[],"id":"db243d322e3ae09544a43f847b088a29145a304e"},"geometry":{"type":"LineString","coordinates":[[1.4730051999999998,42.5298219,2071.425208454417],[1.4741801,42.530150600000006,2076.6762588577526]]}}
,
{"type":"Feature","properties":{"type":"lift","liftType":"drag_lift","status":"operating","name":"La Tossa II","oneway":null,"ref":null,"description":null,"occupancy":null,"capacity":null,"duration":null,"bubble":null,"heating":null,"color":"hsl(0, 82%, 42%)","skiAreas":[{"type":"Feature","properties":{"type":"skiArea","name":"Pal-Arinsal","sources":[{"type":"openstreetmap","id":"relation/4638280"}],"activities":[],"generated":false,"status":"operating","websites":[],"runConvention":"north_america","location":null,"id":"5ecb06388006e4740e7ce8234e26d036ce85edb7"},"geometry":{"type":"Point","coordinates":[360,360,4638280]}}],"sources":[{"type":"openstreetmap","id":"way/261556791"}],"location":null,"websites":[],"id":"fac247ed5a03e763e38d2609328fe616dcfb42af"},"geometry":{"type":"LineString","coordinates":[[1.4542355,42.5310549,2295.5999848080023],[1.4522319,42.5339742,2312.8036201823584]]}}
,
{"type":"Feature","properties":{"type":"lift","liftType":"magic_carpet","status":"operating","name":"l'Escola I","oneway":null,"ref":null,"description":null,"occupancy":null,"capacity":null,"duration":null,"bubble":null,"heating":null,"color":"hsl(0, 82%, 42%)","skiAreas":[{"type":"Feature","properties":{"type":"skiArea","name":"Pal-Arinsal","sources":[{"type":"openstreetmap","id":"relation/4638280"}],"activities":[],"generated":false,"status":"operating","websites":[],"runConvention":"north_america","location":null,"id":"5ecb06388006e4740e7ce8234e26d036ce85edb7"},"geometry":{"type":"Point","coordinates":[360,360,4638280]}}],"sources":[{"type":"openstreetmap","id":"way/261559361"}],"location":null,"websites":[],"id":"ceddcc7c1d611ed484d75b3e55880fd9d7897dd4"},"geometry":{"type":"LineString","coordinates":[[1.4703931,42.5737608,1927.9464414207803],[1.4694885999999998,42.57351680000001,1942.3101899008072]]}}
,
{"type":"Feature","properties":{"type":"lift","liftType":"magic_carpet","status":"operating","name":"l'Escola II","oneway":null,"ref":null,"description":null,"occupancy":null,"capacity":null,"duration":null,"bubble":null,"heating":null,"color":"hsl(0, 82%, 42%)","skiAreas":[{"type":"Feature","properties":{"type":"skiArea","name":"Pal-Arinsal","sources":[{"type":"openstreetmap","id":"relation/4638280"}],"activities":[],"generated":false,"status":"operating","websites":[],"runConvention":"north_america","location":null,"id":"5ecb06388006e4740e7ce8234e26d036ce85edb7"},"geometry":{"type":"Point","coordinates":[360,360,4638280]}}],"sources":[{"type":"openstreetmap","id":"way/261559362"}],"location":null,"websites":[],"id":"48e5d7aa87096df20064667ed8e03916145d0b4a"},"geometry":{"type":"LineString","coordinates":[[1.4703991999999997,42.573739800000006,1928.0641889535527],[1.4694966999999997,42.5735018,1942.1734910176076]]}}
,
{"type":"Feature","properties":{"type":"lift","liftType":"magic_carpet","status":"operating","name":"Pla de la Cot II","oneway":null,"ref":null,"description":null,"occupancy":null,"capacity":null,"duration":null,"bubble":null,"heating":false,"color":"hsl(0, 82%, 42%)","skiAreas":[],"sources":[{"type":"openstreetmap","id":"way/1206430892"}],"location":null,"websites":[],"id":"9a17887f175df050ce92a1539be10bff6caea7c1"},"geometry":{"type":"LineString","coordinates":[[1.4742692999999998,42.5302091,2077.4390097648143],[1.4748115999999998,42.53045,2074.442358400025]]}}
,
{"type":"Feature","properties":{"type":"lift","liftType":"magic_carpet","status":"operating","name":null,"oneway":null,"ref":null,"description":null,"occupancy":null,"capacity":null,"duration":null,"bubble":null,"heating":null,"color":"hsl(0, 82%, 42%)","skiAreas":[],"sources":[{"type":"openstreetmap","id":"way/1242378365"}],"location":null,"websites":[],"id":"91e01f059ce363ab1c07cfb3dd2c5e397e0fa356"},"geometry":{"type":"LineString","coordinates":[[1.490175,42.5369632,1894.6874399999742],[1.4909085999999998,42.536917700000004,1900.8830719711887]]}}
,
{"type":"Feature","properties":{"type":"lift","liftType":"magic_carpet","status":"operating","name":"Pedres Blanques I","oneway":null,"ref":null,"description":null,"occupancy":null,"capacity":null,"duration":null,"bubble":null,"heating":null,"color":"hsl(0, 82%, 42%)","skiAreas":[],"sources":[{"type":"openstreetmap","id":"way/1242378366"}],"location":null,"websites":[],"id":"b24bf974e3e127cb1004056800b8826aaa6fb834"},"geometry":{"type":"LineString","coordinates":[[1.4912142999999998,42.53833670000001,1895.4177023374102],[1.4907959,42.5377932,1896.294399999967]]}}
,
{"type":"Feature","properties":{"type":"lift","liftType":"magic_carpet","status":"operating","name":"el Planell II","oneway":null,"ref":null,"description":null,"occupancy":null,"capacity":null,"duration":null,"bubble":null,"heating":null,"color":"hsl(0, 82%, 42%)","skiAreas":[],"sources":[{"type":"openstreetmap","id":"way/1242378367"}],"location":null,"websites":[],"id":"371de5f0105ab9da5807600ecf9904339a39a2ab"},"geometry":{"type":"LineString","coordinates":[[1.4911646999999997,42.53564,1906.7839999999887],[1.490643,42.53537910000001,1912.6819728958096]]}}
,
{"type":"Feature","properties":{"type":"lift","liftType":"chair_lift","status":"operating","name":"Port Negre","oneway":true,"ref":null,"description":null,"occupancy":4,"capacity":null,"duration":null,"bubble":null,"heating":null,"color":"hsl(0, 82%, 42%)","skiAreas":[{"type":"Feature","properties":{"type":"skiArea","name":"Pal-Arinsal","sources":[{"type":"openstreetmap","id":"relation/4638280"}],"activities":[],"generated":false,"status":"operating","websites":[],"runConvention":"north_america","location":null,"id":"5ecb06388006e4740e7ce8234e26d036ce85edb7"},"geometry":{"type":"Point","coordinates":[360,360,4638280]}}],"sources":[{"type":"openstreetmap","id":"way/1349056256"}],"location":null,"websites":[],"id":"e5d227329947b1de248d2c5c2e7e27eca5bad496"},"geometry":{"type":"LineString","coordinates":[[1.4634918999999997,42.5712068,2097.6555200000043],[1.4631783999999999,42.571132500000004,2100.625904959968],[1.4626656999999998,42.5710032,2111.8311117312046],[1.4613218999999997,42.5706421,2133.3663999999912],[1.4595863999999998,42.570151,2153.8886373118603],[1.4575136999999998,42.5695644,2186.9737849536236],[1.4554780999999999,42.56898830000001,2226.573248740794],[1.4534955999999997,42.5684272,2259.1826032639897],[1.4514569,42.5678502,2288.435365315182],[1.4499381999999996,42.567420399999996,2320.8005416065002],[1.4484605,42.5670021,2381.7847790319975],[1.4472627999999998,42.5666631,2427.0563556672137],[1.4457242999999995,42.566210700000006,2486.6322313520764]]}}
]}
