{"type": "FeatureCollection", "features":[
{"type":"Feature","geometry":{"type":"LineString","coordinates":[[1.4747228,42.5303034,2075.0769430144082],[1.4748796999999993,42.5304547,2073.629138804802],[1.47494,42.5305565,2075.219400000011],[1.4750755,42.53069280000001,2074.403661888023],[1.4751439,42.5307462,2073.8072024256217],[1.4753275999999993,42.5308371,2072.5710478784154],[1.4756467999999994,42.5309448,2068.328695091193],[1.4760061999999998,42.5310832,2061.8118185728617],[1.4763293999999993,42.5311712,2053.369091635114],[1.4767223999999994,42.531223499999996,2048.333477888086],[1.4772802999999994,42.531353,2041.9107074559595],[1.4776516999999993,42.5314321,2036.5077199998875],[1.4782216999999989,42.5315408,2028.8549999999934],[1.4785114,42.531656399999996,2027.3959200000156],[1.4793683999999994,42.5318165,2019.0274261440752],[1.4798457999999994,42.5319104,2013.80655101436],[1.4809333999999994,42.53216730000001,2002.4639333470218],[1.4820586,42.53243220000003,1984.8623871163413],[1.4832401,42.5326545,1975.8629318720132],[1.4843935,42.53293120000002,1966.9537045118634],[1.4849607999999994,42.533124,1963.1431521279983],[1.4852919999999994,42.533456,1959.1336396799802],[1.4856607999999993,42.5338543,1949.481065587179],[1.4860282999999994,42.5341517,1948.3980681167998],[1.4863393999999994,42.53426339999999,1945.5898302464661],[1.4870837,42.5345174,1938.923533369631],[1.4874672999999994,42.5346093,1936.8388866032033],[1.4881311,42.5346587,1932.3506081871976],[1.4888151,42.5346982,1924.8198925471984],[1.4893421999999998,42.5347605,1922.4915157279922],[1.4898114999999994,42.5347881,1921.831520000002],[1.4903802,42.5349433,1920.4271600000077],[1.4907541999999998,42.53512240000001,1916.4071904767325],[1.4911661999999992,42.53532320000002,1911.1800292862958],[1.4913229,42.53540880000001,1909.7104676991291],[1.4915710999999994,42.53570620000002,1903.262400454334]]},"properties":{"id":"9bc19b88db7cae37d898a4781d70c5593c2d5d3c","name":"guineu","difficulty":null,"oneway":null,"lit":null,"gladed":null,"patrolled":null,"color":"hsl(0, 0%, 35%)","colorName":"grey","grooming":null,"skiAreas":[],"other":0}}
,
{"type":"Feature","geometry":{"type":"LineString","coordinates":[[1.4592915999999991,42.53023980000001,2201.884559999936],[1.4595721,42.53015280000003,2198.74503476463],[1.4598344999999988,42.53013350000001,2193.8623414799235],[1.460126299999999,42.5300272,2189.3721622656176],[1.4602705999999999,42.52991120000002,2187.4761210622887],[1.4603642999999988,42.52981080000002,2186.444795257499]]},"properties":{"id":"d4e95cf3da00994e88d161a499f1ed5804dad46b","name":"Cami Inferior","difficulty":"easy","oneway":true,"lit":null,"gladed":null,"patrolled":null,"color":"hsl(208, 100%, 33%)","colorName":"blue","grooming":null,"skiAreas":["5ecb06388006e4740e7ce8234e26d036ce85edb7"],"downhill":0}}
,
{"type":"Feature","geometry":{"type":"LineString","coordinates":[[1.4529364999999994,42.534928,2308.0212275199992],[1.4528191,42.534386,2312.1232800000157],[1.4528335999999993,42.5338668,2311.8780799999813],[1.452882,42.533205,2306.980169599996],[1.4534846999999989,42.53241120000001,2301.004599999961],[1.4535679999999993,42.53234580000002,2300.5758399999395],[1.4539805,42.53202190000001,2291.5202757040415],[1.454003,42.53200430000001,2290.9531624480446],[1.4554924999999994,42.53168439999999,2272.8367883203305],[1.4562836,42.5314154,2259.5775667327966],[1.4568947999999988,42.5312218,2246.9553109632366],[1.4576018999999993,42.5307748,2229.064798950355],[1.4580925999999998,42.53063230000002,2218.4770752991462],[1.4586009999999998,42.53047510000001,2207.1237199999623],[1.4592915999999991,42.53023980000001,2201.884559999936],[1.4598075,42.5302236,2192.9980372800123],[1.4600973,42.53030590000002,2185.559137652695],[1.4602826,42.53017820000002,2183.2950399998717],[1.4603642999999988,42.52981080000002,2186.444795257499],[1.4607089999999998,42.52961430000001,2182.067458447848],[1.462175,42.52915400000001,2165.536191999778],[1.4625864,42.5290248,2161.612211302336],[1.4633042999999988,42.52876780000001,2151.609357641475],[1.4637343999999988,42.52858970000001,2148.329017625484],[1.4642429000000001,42.528335900000044,2146.00753582515],[1.4645428,42.52821510000003,2140.543997554974],[1.4650179,42.52814220000003,2132.3761599999143],[1.4654613999999988,42.52810470000002,2131.2071288031348],[1.4658586999999994,42.52802670000001,2126.53195999989]]},"properties":{"id":"d2e518ea451ec26049d419208aa05a78d2379b8d","name":"Cami Inferior","difficulty":"easy","oneway":true,"lit":null,"gladed":null,"patrolled":null,"color":"hsl(208, 100%, 33%)","colorName":"blue","grooming":null,"skiAreas":["5ecb06388006e4740e7ce8234e26d036ce85edb7"],"downhill":0}}
,
{"type":"Feature","geometry":{"type":"LineString","coordinates":[[1.4888793999999994,42.53500010000001,1920.9981999999125],[1.4892665999999992,42.534998,1922.7189491839981],[1.4894290999999988,42.53501030000003,1923.813311700721],[1.4898302999999988,42.53522530000002,1920.7885999999203],[1.49011,42.535494,null],[1.4902559000000006,42.53575380000002,1904.7966799998044],[1.4902559000000006,42.53607630000001,1902.1351902031809],[1.4902476,42.5364238,1901.6126922495882]]},"properties":{"id":"fea5daec0b373e599af713de1af852708da5ddd6","name":"El Planell","difficulty":"novice","oneway":true,"lit":null,"gladed":null,"patrolled":null,"color":"hsl(125, 100%, 33%)","colorName":"green","grooming":null,"skiAreas":["5ecb06388006e4740e7ce8234e26d036ce85edb7"],"downhill":0}}
,
{"type":"Feature","geometry":{"type":"LineString","coordinates":[[1.4741051,42.5306099,2077.352356700773],[1.4749234999999994,42.53113060000001,2069.9069917437896],[1.4754526,42.531407699999995,2053.810720518626],[1.4760836,42.5317248,2036.2155200000252],[1.4771113999999994,42.53214170000001,2014.046549475023],[1.4789091999999993,42.53280220000001,1974.7774912893133],[1.4810630999999994,42.533459,1937.1964399999788],[1.4826485,42.5340968,1919.8352329599807],[1.4837280999999993,42.5347347,1899.7433585071412],[1.4840782,42.53522210000001,1882.7868838685201],[1.4843796999999994,42.5357667,1860.5155912302826],[1.4843991999999993,42.5360964,1849.6794922496579],[1.4840685,42.53641890000002,1832.2224586637278],[1.4838739999999992,42.5367271,1816.79651999998],[1.4839225999999992,42.5370998,1801.6830515583915],[1.4842629999999999,42.5376659,1789.9704828319907]]},"properties":{"id":"7ef32a04f9cf9445b8b305b64f05cda73f3253c8","name":"el Besurt II","difficulty":"easy","oneway":true,"lit":null,"gladed":null,"patrolled":null,"color":"hsl(208, 100%, 33%)","colorName":"blue","grooming":null,"skiAreas":["5ecb06388006e4740e7ce8234e26d036ce85edb7"],"downhill":0}}
,
{"type":"Feature","geometry":{"type":"LineString","coordinates":[[1.4533577,42.563449,2534.5657064320576],[1.4536926999999988,42.5638224,2518.622289638441],[1.4541545999999999,42.56399270000002,2501.418863189741],[1.4545833,42.5642606,2478.4057617377944],[1.4544785999999998,42.5644802,2464.0433051776827],[1.4541971999999999,42.564667299999996,2456.724226617792],[1.4535139,42.56487530000001,2443.9125278701886],[1.4529003999999994,42.56540250000001,2410.7363206396694],[1.4529061999999993,42.5657842,2385.646659353415],[1.4530717999999994,42.56595810000003,2376.3770656156207],[1.4531003999999994,42.56605070000001,2372.543149855799],[1.4536623999999994,42.56657960000001,2331.642647807741],[1.4539872999999994,42.56697420000001,2307.116521894134],[1.4542017999999994,42.56734590000002,2282.59782186505],[1.4542699,42.567685399999995,2262.010385196981],[1.4543488,42.5678118,2256.4535199999796],[1.4545290999999994,42.56810040000001,2248.969199091147],[1.454672,42.5685264,2243.4587832319808]]},"properties":{"id":"797439cbe2b22241da7c8ef0932af5cb4080b2d1","name":"la Capa","difficulty":"advanced","oneway":true,"lit":null,"gladed":null,"patrolled":null,"color":"hsl(0, 0%, 0%)","colorName":"black","grooming":"classic","skiAreas":["5ecb06388006e4740e7ce8234e26d036ce85edb7"],"downhill":0}}
,
{"type":"Feature","geometry":{"type":"LineString","coordinates":[[1.4702237999999994,42.574924599999996,1919.6270386623514],[1.4705775,42.575391,1915.8929992001006],[1.4707208999999994,42.5754698,1913.0414049856179],[1.4708235999999992,42.5754287,1908.1566758656963],[1.4708501,42.57520030000001,1902.2816580560545],[1.4709905999999993,42.5749921,1895.1001327230908],[1.4713409,42.5748828,1892.9291744960974],[1.471934999999999,42.574875999999996,1880.4020000000735],[1.4719559,42.574969499999995,1878.269376304098],[1.4716576,42.57514500000001,1877.4723142397547],[1.4715489999999998,42.57537100000001,1874.5754398399692],[1.4715635999999992,42.575645,1872.5972800000095],[1.4717175,42.5756409,1868.296775079998],[1.4722144,42.57541170000001,1855.3113835007491],[1.4727099,42.5753004,1849.6118786431487],[1.4728712999999993,42.5753217,1846.6841199999524],[1.4728952999999994,42.575431,1844.6781999999764],[1.4725994999999994,42.57574590000002,1839.328962191701],[1.4725855,42.57603090000001,1831.8868016398476],[1.4726772,42.576301,1826.826722112009],[1.4728476,42.57631070000002,1820.1990009407812],[1.4732405999999998,42.5762335,1813.4490998079755],[1.4738618999999988,42.5761834,1799.1030049184822],[1.4743673,42.5760791,1787.8975955471597],[1.4746031,42.576137,1779.9738721119356],[1.4746161999999998,42.5762621,1776.8212540191798],[1.4742625,42.57663870000001,1775.634494599902],[1.474008,42.5767816,1772.876418560174],[1.4738155999999998,42.5771473,1755.3874195264057],[1.4735716999999988,42.577428,1755.5905352961086],[1.4736085999999993,42.5775449,1749.1761061280374],[1.4737946999999985,42.57753520000002,1738.494975346978],[1.4742851000000001,42.577307,1729.3261847841427],[1.4748090999999994,42.57711180000001,1732.4024901308408],[1.4750035999999993,42.577104399999996,1724.282274432392],[1.475017,42.5772201,1712.530742160176],[1.4747340999999994,42.5775166,1701.5111646622431],[1.4745795999999998,42.57770890000001,1695.863159999726],[1.474355,42.57793,1693.879191999899],[1.4743776,42.5780479,1686.9391357311379],[1.4745466999999994,42.5780571,1677.1234332526694],[1.4748488,42.5779221,1672.8830855038916],[1.4752236999999988,42.5777426,1669.0316399999772],[1.4758421,42.5775135,1657.90581381587],[1.4759757999999994,42.57751370000001,1654.547375241333],[1.4759898999999994,42.577623599999995,1647.2960372546927],[1.475716699999999,42.5778639,1642.2489191904951],[1.475453,42.5780824,1646.4432030720202],[1.4752252999999989,42.5783271,1642.2672387294638],[1.4752851,42.5784036,1638.558531974352],[1.4753965999999992,42.57841520000002,1635.6548905725003],[1.4757892999999989,42.5782218,1629.4594889503724],[1.476202,42.57807030000002,1618.3207277757976],[1.4767929,42.5779004,1608.6387600001399],[1.4769838,42.5778196,1607.114314022498],[1.4771651,42.5777036,1602.9743823168176],[1.4773151,42.5775938,1599.2862399999294],[1.4774976999999994,42.5774357,1598.728959999843],[1.4776782999999993,42.5773007,1602.837519687881],[1.4778130999999994,42.577240399999994,1602.247118649942],[1.4781338,42.57726399999999,1592.8191646724308],[1.4783795999999998,42.5772558,1584.1624564094527],[1.4785494,42.5772157,1578.2428947326084],[1.4787166999999994,42.5771248,1577.5507329408022],[1.4788795,42.57697810000001,1579.7506343757575],[1.4790046999999988,42.57690530000002,1579.9956876332599],[1.4791316999999988,42.5768656,1578.6068097793093],[1.4792862999999994,42.57688949999998,1572.3545259842913],[1.4797451999999998,42.57706449999998,1558.2487431681504]]},"properties":{"id":"63c5017c1b285442cd97013854c27a5d926919cf","name":"les Marrades","difficulty":"easy","oneway":true,"lit":null,"gladed":null,"patrolled":null,"color":"hsl(208, 100%, 33%)","colorName":"blue","grooming":"classic","skiAreas":["5ecb06388006e4740e7ce8234e26d036ce85edb7"],"downhill":0}}
,
{"type":"Feature","geometry":{"type":"LineString","coordinates":[[1.4462909,42.56581100000001,2469.4375142880554],[1.446632,42.5660265,2461.884943680007],[1.4468811999999998,42.5662165,2451.145287167909],[1.4471135,42.56631900000002,2440.6510950396832],[1.4473994999999988,42.566465,2428.351933199987],[1.4478202999999987,42.56660330000001,2409.895281219047],[1.4487025999999998,42.5667017,2377.6454799999697],[1.4491243999999988,42.56670190000001,2367.5770599743364],[1.4493361999999992,42.56673770000001,2361.5348448478967],[1.4495342999999987,42.56691910000002,2350.0869258909397],[1.449786699999999,42.5671095,2334.5273428879677],[1.4500981999999998,42.5672366,2322.628879999978],[1.4504715,42.5673631,2316.89595984796],[1.450861799999999,42.5674639,2312.4239566016067]]},"properties":{"id":"c9f70b2fe85f105565062c3b50d882af71bedc16","name":"Tub del Coll","difficulty":"advanced","oneway":true,"lit":null,"gladed":null,"patrolled":null,"color":"hsl(0, 0%, 0%)","colorName":"black","grooming":"backcountry","skiAreas":["5ecb06388006e4740e7ce8234e26d036ce85edb7"],"downhill":0}}
,
{"type":"Feature","geometry":{"type":"LineString","coordinates":[[1.4460145999999998,42.5680806,2452.3595444287507],[1.4463791999999998,42.56819170000002,2439.3370338431064],[1.4467438,42.5682472,2429.2154169856112],[1.4472591999999993,42.56830280000003,2418.9728725504456],[1.4477997999999987,42.56841390000003,2405.775908742276],[1.4482272999999994,42.5686176,2382.6756890623797],[1.4488055999999998,42.5688213,2358.365851724753],[1.4490318999999994,42.56893240000002,2346.7953909245043],[1.4493588,42.56899720000001,2331.375859327853],[1.4496353999999994,42.5690435,2317.8014982080217],[1.4500251,42.56905280000002,2303.9461203712603],[1.450718,42.5690073,2299.011937088032]]},"properties":{"id":"4ba3b77c70d99e46b72fb583e2cbb30a816aaf85","name":"Bony Vaques","difficulty":"advanced","oneway":true,"lit":null,"gladed":null,"patrolled":null,"color":"hsl(0, 0%, 0%)","colorName":"black","grooming":null,"skiAreas":["5ecb06388006e4740e7ce8234e26d036ce85edb7"],"downhill":0}}
,
{"type":"Feature","geometry":{"type":"LineString","coordinates":[[1.4455355999999993,42.5662285,2491.0273591680307],[1.4456829,42.5664094,2489.920166371197],[1.4457662999999987,42.566479,2487.0823326240143],[1.4457882999999994,42.5672935,2474.703959983993],[1.4459013999999988,42.5676917,2468.0262410144383],[1.4460145999999998,42.56795090000002,2456.1465534494114],[1.4460145999999998,42.5680806,2452.3595444287507],[1.4460145999999998,42.56821950000001,2448.33806273586],[1.4460899999999999,42.5684046,2442.1560214399733],[1.4460774,42.56859910000002,2436.593887606189],[1.4460774,42.56878430000001,2432.5018399999053],[1.4461209,42.5688619,2430.3852156735657],[1.4461655,42.5689417,2427.721705495928],[1.4464671999999998,42.5690898,2418.722211609594],[1.4467311999999992,42.56919170000001,2410.432736678466],[1.4472591999999993,42.5692657,2398.0174601728368],[1.4477369999999994,42.56934910000001,2390.29542183996],[1.448126699999999,42.56937680000002,2378.0943896575063],[1.4487176,42.5693861,2357.7065143936343],[1.4489439,42.56941390000002,2347.170522392172],[1.4492833999999994,42.5694046,2329.8510776768017],[1.449622799999999,42.5694046,2318.7383602687896],[1.4501884,42.5693016,2304.5788581376337],[1.4505024,42.56932390000002,2302.7826748288367],[1.4507668999999994,42.56963610000001,2303.689960000014],[1.4513451999999998,42.56985830000002,2303.3145600000016],[1.4518606999999988,42.56997870000002,2295.6901899456757],[1.4524263999999993,42.570099,2288.987136511979],[1.4530801999999998,42.5701638,2280.273123590437],[1.4537338999999994,42.5702564,2270.442999999981],[1.4541613999999994,42.5702935,2266.5662799999427],[1.4544631,42.5702935,2263.8762387439706],[1.4549497999999994,42.570334,2255.3666577280305],[1.4551294999999989,42.570349,2251.6253336800087],[1.4558083999999993,42.5704231,2237.495758841605],[1.4563725,42.5705364,2227.3698513599857],[1.4566381,42.5705897,2223.546921092797],[1.4572165,42.57071010000002,2212.1236000000017],[1.4578451,42.57086749999998,2202.825409159933],[1.4583102,42.5709416,2191.1787231487697],[1.4588005999999998,42.57110820000001,2178.1221819264993],[1.4592029,42.5711916,2164.7118111167615],[1.4597685999999992,42.571293399999995,2154.8782858302925],[1.4604852,42.5714138,2136.5774400000482],[1.4612522,42.57155260000001,2114.8710399999886],[1.4615539,42.571654499999994,2108.5315979040497],[1.4618681999999992,42.5717378,2103.96152419202],[1.4622792999999994,42.5718913,2099.706977300806],[1.4627873,42.5720595,2092.915007343987],[1.4630784,42.57211310000003,2083.781452838118],[1.4634047999999988,42.57217320000002,2078.1899552253863],[1.4640177,42.572274,2072.381159999997],[1.4642311,42.5722812,2065.841089747211],[1.4644074,42.5722919,2058.3160279775857],[1.4645625,42.57231240000002,2052.7123879999567],[1.4647185999999999,42.57232730000001,2047.36573277117],[1.4648676999999994,42.572346,2044.256830367973],[1.4649997999999989,42.5723605,2041.510558415983],[1.4651987999999994,42.57239250000002,2039.0139599999316],[1.4654610999999989,42.5724234,2035.4834188608145],[1.465697699999999,42.57241810000002,2029.4793910495564],[1.4659548999999994,42.57241080000002,2022.618589913503],[1.4661858,42.57243880000002,2019.4297196414561],[1.4664525000000006,42.5724901,2018.5268399999306],[1.466774299999999,42.57258230000002,2011.9886399998097],[1.4671473,42.57271370000002,2002.131820990166],[1.4675244999999988,42.57281180000001,1993.2547435838176],[1.4679033999999989,42.57290130000001,1983.4409462492738],[1.4682431999999999,42.57295490000001,1976.0254657277924],[1.4685195,42.5730026,1966.3883392159653],[1.4689063999999994,42.5730859,1956.3677859583897],[1.4691805999999998,42.5730534,1949.6574184832082],[1.4695473,42.572915900000034,1941.7281140815196],[1.4698539,42.5726802,1936.73019614399],[1.4701501000000001,42.57261790000001,1932.9887407967847],[1.4702486,42.5726015,1932.238356768003],[1.4703994999999994,42.5725764,1931.5618000000004],[1.4706909,42.57257220000003,1930.025520000001]]},"properties":{"id":"821d17a1504b0c4baf6b34dd9fb972a456192238","name":"les Fonts","difficulty":"easy","oneway":true,"lit":null,"gladed":null,"patrolled":null,"color":"hsl(208, 100%, 33%)","colorName":"blue","grooming":null,"skiAreas":["5ecb06388006e4740e7ce8234e26d036ce85edb7"],"downhill":0}}
,
{"type":"Feature","geometry":{"type":"LineString","coordinates":[[1.4461209,42.5688619,2430.3852156735657],[1.4460145,42.5692524,2425.6316550079955],[1.4461292999999988,42.5694535,2423.9358146480404],[1.4468125,42.56952680000001,2413.244708000129],[1.447974599999999,42.5698743,2389.1054848576837],[1.448529799999999,42.5700462,2378.370834809612],[1.4490930999999994,42.57021800000001,2371.077652864136],[1.4495355999999993,42.5704017,2363.6439587391524],[1.4499298999999988,42.5705617,2358.8017199999567],[1.4502115,42.5706802,2356.7421599999157],[1.4506217999999989,42.570781,2346.7490318398604],[1.4511851,42.5708461,2339.092794282935],[1.451909199999999,42.57091130000001,2322.9933980355686],[1.4528264999999994,42.5709647,2313.3985705039017],[1.4533576,42.5710061,2306.681705574319],[1.4537920999999994,42.5710595,2299.390599391901],[1.4542024,42.5711365,2291.465357696064],[1.4544759999999999,42.571178,2288.621290240154],[1.4547978,42.5712669,2286.1120866527153],[1.4548864,42.5712669,2283.7004811263155],[1.4549909999999993,42.5712609,2280.6366713759567],[1.4550151,42.5711898,2277.3435599999693],[1.4549829,42.571095,2274.8437790399894],[1.4548541999999998,42.5708343,2267.6628531648566],[1.4548059,42.5706091,2262.035879999963],[1.4548381,42.5704965,2259.1524882159647],[1.4548782999999994,42.5704017,2257.286294094375],[1.4549497999999994,42.570334,2255.3666577280305]]},"properties":{"id":"a4e19ac6280ab0e24f9b39aa5529296e51bcd63c","name":"la Solana","difficulty":"easy","oneway":true,"lit":null,"gladed":null,"patrolled":null,"color":"hsl(208, 100%, 33%)","colorName":"blue","grooming":null,"skiAreas":["5ecb06388006e4740e7ce8234e26d036ce85edb7"],"downhill":0}}
,
{"type":"Feature","geometry":{"type":"LineString","coordinates":[[1.4456829,42.5664094,2489.920166371197],[1.4459179,42.5664624,2481.977571993609],[1.4461462999999994,42.56656230000002,2472.611799999856],[1.4463960999999994,42.5666097,2462.729192246393],[1.4467216999999988,42.5666918,2448.0445941024],[1.4470471999999999,42.56679980000001,2432.4362857727288],[1.447596199999999,42.5670236,2413.1120000000387],[1.4479068999999993,42.567247599999995,null],[1.4482308,42.5674286,2385.333038604813],[1.4486221,42.5676284,2368.2566275712647],[1.4489989999999993,42.5678212,2349.3269600000303],[1.4493154,42.567889799999996,2336.0964489728017],[1.4499298999999988,42.5678418,2315.78113573122],[1.4504108,42.5678933,2307.158803385582],[1.4510321999999998,42.5680864,2294.2778157568096],[1.4514761999999992,42.56811400000002,2286.4163987840047],[1.4518696999999987,42.5680914,2281.418968332803],[1.4521161999999999,42.5679778,2279.4327202687864]]},"properties":{"id":"599e31cbd20ebda44c867dad6b2d1bf8068deb78","name":"Tub Estadi","difficulty":"intermediate","oneway":true,"lit":null,"gladed":null,"patrolled":null,"color":"hsl(359, 94%, 53%)","colorName":"red","grooming":null,"skiAreas":["5ecb06388006e4740e7ce8234e26d036ce85edb7"],"downhill":0}}
,
{"type":"Feature","geometry":{"type":"LineString","coordinates":[[1.4456114999999994,42.56619310000002,2488.6681338801236],[1.4457938999999989,42.56610320000002,2484.39696000017],[1.4462478,42.56583360000001,2470.542022809643],[1.4462909,42.56581100000001,2469.4375142880554],[1.4464577,42.56572370000002,2465.8706703888524],[1.4466375,42.56564990000001,2463.3169866000053],[1.4467695999999992,42.56558680000001,2462.8332776447724],[1.44681,42.5655696,2462.8956441599744],[1.4470718999999994,42.5654577,2462.757880310379],[1.4472232999999988,42.56541690000003,2462.4877702223002],[1.4474113999999993,42.56545360000001,2460.126866764709],[1.4476231999999989,42.56555420000002,2453.9376262653554],[1.4478818999999994,42.56562510000001,2445.3100301150125],[1.4483654,42.5657446,2425.8359999999348],[1.4487664999999994,42.5657665,2413.0939749199188],[1.449066799999999,42.56579390000003,2405.410197458801],[1.4492899,42.565843,2399.0249599999697],[1.4494913999999988,42.56589070000001,2393.2612098590657],[1.4497259999999992,42.56597020000003,2386.0593980156573],[1.4499344999999988,42.5660895,2380.368509520133],[1.4500640999999994,42.5661976,2374.9698211327],[1.4502291999999992,42.5664613,2361.434596844792],[1.4503285,42.56677690000002,2344.343868951511],[1.4504246999999988,42.56703090000001,2329.5895810605307],[1.4505921999999998,42.56725270000001,2319.7776285246587],[1.450861799999999,42.5674639,2312.4239566016067],[1.4512591,42.5678084,2294.194377312051],[1.4516836999999994,42.567966,2283.824790432019],[1.4521161999999999,42.5679778,2279.4327202687864]]},"properties":{"id":"d7cd8d7911f0c08da164a71d52cd4d05559511b1","name":"la Pala","difficulty":"intermediate","oneway":true,"lit":null,"gladed":null,"patrolled":null,"color":"hsl(359, 94%, 53%)","colorName":"red","grooming":null,"skiAreas":["5ecb06388006e4740e7ce8234e26d036ce85edb7"],"downhill":0}}
,
{"type":"Feature","geometry":{"type":"LineString","coordinates":[[1.4591641999999991,42.5690747,2185.6723400095602],[1.4600357,42.56925520000002,2172.4680799998887],[1.4606165,42.56935710000001,2165.531752543901],[1.4611387999999994,42.56951690000003,2152.539796812589],[1.4615161999999993,42.56963590000002,2144.411615046035],[1.4618539999999998,42.5697747,2135.47155235197],[1.4622631,42.5699637,2134.7192560814938],[1.4626504,42.5701646,2128.2479015680606],[1.4631608999999994,42.570409,2113.3246000000636],[1.4637705999999993,42.5707641,2100.000430915238],[1.4642298999999994,42.5709473,2096.8467031647965],[1.4643544,42.5709811,2095.4548009216587],[1.4647865,42.5710984,2085.8409265921396],[1.4651291999999991,42.57112890000001,2080.840627430185],[1.4658775,42.57119570000001,2065.0388213198057],[1.4666096999999993,42.57133800000001,2050.400810655766],[1.4674223999999993,42.5715098,null],[1.4681787,42.57170530000001,2011.2950061086215],[1.4686535,42.5718239,1995.073826888101],[1.4692021,42.5719947,1976.0866781553002],[1.4695095999999992,42.57213460000001,1962.655119999803],[1.4699882999999994,42.57229270000001,1938.4270666271277],[1.4702194,42.57253550000002,1932.5767631039887]]},"properties":{"id":"3dcaa6be7b8f34c320a7b5be4821fab81bd922e6","name":"la Tossa","difficulty":"intermediate","oneway":true,"lit":null,"gladed":null,"patrolled":null,"color":"hsl(359, 94%, 53%)","colorName":"red","grooming":null,"skiAreas":["5ecb06388006e4740e7ce8234e26d036ce85edb7"],"downhill":0}}
,
{"type":"Feature","geometry":{"type":"LineString","coordinates":[[1.464334699999999,42.5710361,2094.4955955807905],[1.4648792999999993,42.5712921,2077.9857475535755],[1.4652963999999988,42.5714506,2064.013773606468],[1.4657434999999994,42.5715851,2051.8028863520003],[1.4663844,42.5717161,2037.7998841663182],[1.4669221,42.571802,2024.0486992640379],[1.4676273999999994,42.5719091,2010.5764294144228],[1.4682705999999999,42.57203180000001,1998.5525773054628],[1.4686891,42.57212690000002,1979.3370143980744],[1.4689075999999999,42.57217660000001,1972.548263206166],[1.4691376999999994,42.5722447,1966.7528833248364],[1.4694301999999992,42.57230190000002,1959.417418310174],[1.4696862999999993,42.57240220000001,1947.3291639422625],[1.4701516,42.5725472,1933.2083510783932]]},"properties":{"id":"bf27c8afe048affefe93040441961bf669310565","name":"Estadi","difficulty":"intermediate","oneway":true,"lit":null,"gladed":null,"patrolled":null,"color":"hsl(359, 94%, 53%)","colorName":"red","grooming":null,"skiAreas":["5ecb06388006e4740e7ce8234e26d036ce85edb7"],"downhill":0}}
,
{"type":"Feature","geometry":{"type":"LineString","coordinates":[[1.4508095999999993,42.56924830000001,2301.0023017856547],[1.4513703999999994,42.56913610000002,2297.9288970499],[1.4519612999999985,42.56911760000001,2290.215712576165],[1.452351,42.5690805,2280.472234879995],[1.4529795999999993,42.56910830000003,2271.7054095744247],[1.4537464999999994,42.56920090000001,2260.869547176054],[1.4544757,42.56934910000001,2251.71229863523],[1.4548276999999994,42.56943240000001,2245.5586706816543],[1.4550665999999992,42.56945090000002,2240.6599720225104],[1.4554185999999998,42.5695435,2235.790545808045],[1.4556448999999994,42.5695805,2233.9469185440253],[1.4559591999999992,42.5695898,2229.9672000001096],[1.4561604,42.5696639,2228.5181353024686],[1.4563595999999999,42.5699114,2229.251755712055]]},"properties":{"id":"2143c119b138a7ad51e42649f8ba86f39f1c0eef","name":"Planelles","difficulty":"easy","oneway":null,"lit":null,"gladed":null,"patrolled":null,"color":"hsl(208, 100%, 33%)","colorName":"blue","grooming":null,"skiAreas":["5ecb06388006e4740e7ce8234e26d036ce85edb7"],"other":0}}
,
{"type":"Feature","geometry":{"type":"LineString","coordinates":[[1.4506285999999993,42.5692194,2301.7637606528097],[1.450718,42.5690073,2299.011937088032],[1.4507417999999994,42.56895090000003,2298.0639159105403],[1.4509097999999994,42.56881410000001,2294.561563612838],[1.4510996999999988,42.56866230000002,2290.7095897776762],[1.4513933999999988,42.56850810000003,2287.5762448832365],[1.4517611999999986,42.56836060000001,2282.926731622404],[1.4522054,42.56829970000001,2274.6587073951546],[1.4525611999999992,42.5682879,2269.377159999978],[1.4529896999999994,42.56830720000002,2265.7292334591357],[1.4535107999999994,42.56834370000002,2259.6403449919458],[1.4536775,42.56836900000001,2257.5303999999414],[1.4541948999999994,42.5684476,2250.283720000006],[1.454672,42.5685264,2243.4587832319808],[1.4547546999999994,42.56854010000002,2242.1033788575464],[1.4549497999999994,42.56857150000001,2239.241738655944],[1.4553855,42.56872920000002,2231.7705384638634],[1.4561893,42.56894010000001,2215.919306347175],[1.4569398999999994,42.56917340000001,2203.0266296991604],[1.4574940999999988,42.56932830000002,2191.036518262175],[1.4575721,42.5693405,2190.100279999931],[1.4579833999999994,42.5694046,2186.263840000038],[1.4587834,42.5694637,2181.0829900736],[1.4592029,42.56960830000001,2174.8131678943028],[1.4597065999999992,42.5696492,2169.261695628794],[1.460502,42.56992990000001,2158.348205023911],[1.4612341999999992,42.56999510000002,2142.8471433631194]]},"properties":{"id":"896946d5f8e0780e56ef6dbd3e6dc62ca0ae243e","name":"Port Vell","difficulty":"easy","oneway":true,"lit":null,"gladed":null,"patrolled":null,"color":"hsl(208, 100%, 33%)","colorName":"blue","grooming":null,"skiAreas":["5ecb06388006e4740e7ce8234e26d036ce85edb7"],"downhill":0}}
,
{"type":"Feature","geometry":{"type":"LineString","coordinates":[[1.4592029,42.56960830000001,2174.8131678943028],[1.4596504,42.569862,2165.3645030399866],[1.4604359,42.570246399999995,2153.118397299289],[1.461013,42.570638,2141.244859519928],[1.4615131999999993,42.5709212,2120.5481599999857],[1.4629585,42.571326,2102.2350083200113]]},"properties":{"id":"edfa561206121f469881bcce4a067358edf77d14","name":"Salador","difficulty":"easy","oneway":true,"lit":null,"gladed":null,"patrolled":null,"color":"hsl(208, 100%, 33%)","colorName":"blue","grooming":null,"skiAreas":["5ecb06388006e4740e7ce8234e26d036ce85edb7"],"downhill":0}}
,
{"type":"Feature","geometry":{"type":"LineString","coordinates":[[1.4549497999999994,42.56857150000001,2239.241738655944],[1.4558431999999992,42.56856370000001,2226.8941251070814],[1.4565375,42.568662,2220.0974119999105],[1.4573806999999994,42.56885510000002,2208.6387980525974],[1.4584910999999994,42.56909210000001,2190.8902168174855],[1.4585685,42.56910880000002,2190.2269562878278],[1.4589105,42.56918250000001,2185.4815999999328],[1.4594808,42.56930550000001,2177.477627647881],[1.4595796999999988,42.56933380000003,2175.5412600510294],[1.4599152999999994,42.5694299,2170.81927999996],[1.4601969,42.5695484,2167.350636281577],[1.4606232999999988,42.5697677,2158.921768033607],[1.4610899999999998,42.56996320000001,2146.051851519952],[1.4612341999999992,42.56999510000002,2142.8471433631194],[1.4614118999999994,42.5700343,2139.792120000014],[1.461701499999999,42.570087699999995,2135.893302575982],[1.4623693999999994,42.5703365,2127.1294636479297],[1.4629405999999998,42.5706506,2111.770479494399],[1.4634878,42.5709647,2098.701944060811],[1.4636313999999988,42.57106039999999,2098.0730399999998],[1.4638256999999988,42.5711898,2098.2704005344053],[1.4638256999999988,42.57128459999998,2097.665474908855],[1.4638176999999994,42.571415,2096.3443612799556],[1.4637130999999994,42.5714742,2095.320471283254],[1.4635842999999988,42.5714979,2095.4302400000415],[1.4633992999999987,42.5715394,2094.832640000015],[1.4631900999999994,42.571652,2095.7349484159986],[1.4630612999999988,42.5717764,2094.3412400000902],[1.4630555,42.571958,2088.6106585599364],[1.4630784,42.57211310000003,2083.781452838118]]},"properties":{"id":"f3e8c1ca1b0e3c6c0df2c1068339e01a838dd22d","name":"Margarida","difficulty":"easy","oneway":true,"lit":null,"gladed":null,"patrolled":null,"color":"hsl(208, 100%, 33%)","colorName":"blue","grooming":null,"skiAreas":["5ecb06388006e4740e7ce8234e26d036ce85edb7"],"downhill":0}}
,
{"type":"Feature","geometry":{"type":"LineString","coordinates":[[1.4658590999999994,42.57267280000002,2024.572191718446],[1.4667866999999994,42.57297930000002,2004.2509744175095],[1.4672016999999988,42.57311000000002,1989.146001439919],[1.4676235999999991,42.57322230000001,1972.948558822246],[1.4681144,42.5733645,1961.9412546559843],[1.4685408,42.57344739999999,1958.6554188032069],[1.4689752999999994,42.57356,1954.3750774400035],[1.4693371999999998,42.5736795,1945.4061342080327],[1.469442,42.57371410000001,1942.322354623975],[1.4699810999999994,42.573927399999995,1934.1335200000194],[1.4700857,42.5739925,1931.890957959991],[1.4702627,42.57417620000001,1928.1684399999606],[1.4704076,42.5744073,1923.126855379238],[1.4703994999999994,42.5745673,1918.773814192058]]},"properties":{"id":"09bf31f5c86c21294b4912a92712822d10df5c1e","name":"el Cortalet","difficulty":"novice","oneway":true,"lit":null,"gladed":null,"patrolled":null,"color":"hsl(125, 100%, 33%)","colorName":"green","grooming":null,"skiAreas":["5ecb06388006e4740e7ce8234e26d036ce85edb7"],"downhill":0}}
,
{"type":"Feature","geometry":{"type":"LineString","coordinates":[[1.4657691999999989,42.5728154,2027.687430387235],[1.4662141999999998,42.57319390000002,2019.4633273953439],[1.4664363999999994,42.57335690000002,2015.2800179330636],[1.4667515,42.5735042,2009.4074447040568],[1.4671807,42.5736622,1998.7138581920503],[1.4678361999999991,42.5738931,1981.7673884511723],[1.468382,42.5739996,1969.8164860160196],[1.4686811,42.5741242,1962.6114771584016],[1.4688948999999993,42.5742533,1955.217065500899],[1.4689994999999993,42.5743718,1955.1733035840566],[1.4693273999999994,42.574680699999995,1946.9267804287365],[1.4695983999999989,42.5748683,1939.6412399999817],[1.4698776999999994,42.57507690000001,1935.8407271155272],[1.4699591999999992,42.5752996,1943.8854777856654],[1.4700737,42.57531380000003,null],[1.4700158,42.5749517,1926.3414091167958],[1.4701474,42.574863699999995,1921.4830766943446],[1.4702627,42.574786499999995,1916.4849988239298],[1.4703271,42.574697699999994,1915.318770006592]]},"properties":{"id":"2688891977fbef63c21075808b65320a20622f45","name":null,"difficulty":"novice","oneway":true,"lit":null,"gladed":null,"patrolled":null,"color":"hsl(125, 100%, 33%)","colorName":"green","grooming":null,"skiAreas":["5ecb06388006e4740e7ce8234e26d036ce85edb7"],"downhill":0}}
,
{"type":"Feature","geometry":{"type":"LineString","coordinates":[[1.4546181,42.530674499999996,2292.6958529759913],[1.4548213999999988,42.5307294,2291.4195100864054],[1.4550709,42.5306315,2290.587034768009],[1.4553405,42.53051260000002,2291.321599999845],[1.4556625999999993,42.53037420000001,2290.589193836722],[1.4562642999999988,42.5299831,2283.791776129591],[1.4566184,42.52975300000002,2281.0057852158907],[1.4571281999999992,42.529459,2273.411176351955],[1.4574139999999998,42.52930210000003,2268.888051423824],[1.4578895999999992,42.52909000000001,2260.3900799999046],[1.4584040999999994,42.52887330000002,2253.8642799998033],[1.4593890999999994,42.52877210000003,2239.011103068437],[1.4607491,42.5284934,2223.480799999919],[1.4615723999999994,42.52827950000001,2207.475503903952],[1.4621640999999994,42.52812650000001,2198.9149598959402],[1.4626310999999994,42.52803720000002,2190.325292883167],[1.4631511999999998,42.52802000000001,2176.6779059199916],[1.4639156999999994,42.5278719,2163.517064836782],[1.4644281999999993,42.5278154,2152.79063999998],[1.4654617999999988,42.52786939999999,2134.5818724033124],[1.4657320999999994,42.5280034,2128.811905491147],[1.4659358999999994,42.52802910000001,2126.2021999998965],[1.4659675999999993,42.52803320000003,2125.999519999784],[1.4665960999999994,42.52811360000003,2121.4344883964836],[1.4671617999999989,42.528244,2114.5552455679717],[1.4678537999999994,42.52838570000002,2102.398211692576],[1.4686405,42.52842980000001,2103.874479999841],[1.4692123,42.52855340000002,2103.164269186978],[1.4698518999999994,42.52880730000001,2099.9354399999274],[1.4703385,42.52897660000002,2095.6516297278085],[1.4704423,42.52901270000003,2094.351977916513],[1.4709508,42.52914570000002,2085.549997964489],[1.4714919999999994,42.52927860000001,2082.541957503927],[1.4720385999999999,42.5295074,2075.348349472001],[1.472632,42.52977430000002,2073],[1.4729998999999994,42.52990290000003,2072.1614335248905],[1.4730051999999998,42.5298219,2071.425208454417]]},"properties":{"id":"36c627bf5b1e1d283a7564a94a318f4bc1e47864","name":"Cami Superior","difficulty":"easy","oneway":true,"lit":null,"gladed":null,"patrolled":null,"color":"hsl(208, 100%, 33%)","colorName":"blue","grooming":null,"skiAreas":["5ecb06388006e4740e7ce8234e26d036ce85edb7"],"downhill":0}}
,
{"type":"Feature","geometry":{"type":"LineString","coordinates":[[1.4522319,42.5339742,2312.8036201823593],[1.4522066999999994,42.5343642,2308.577760000009],[1.4522762999999994,42.534659,2309.161759999991],[1.4522879000000006,42.53497520000001,2309.6882106368057],[1.4522879000000006,42.53528280000001,2308.4143651647487],[1.4523401,42.5355648,2305.224679999933],[1.4524735,42.5358511,2299.7766799999836],[1.4525371999999999,42.53612030000002,2297.4945699263167],[1.4525139999999999,42.5364236,2293.923680000024],[1.4524907999999994,42.53673550000001,2286.447251455865],[1.4524735,42.53703890000001,2278.155039815787],[1.4524735,42.53731230000003,2270.027936311812],[1.4525024,42.53755590000002,2265.9730425726566],[1.4525545999999998,42.53781220000001,2261.138555430392],[1.4526067999999994,42.5380856,2260.297614643206],[1.4526241999999991,42.53834630000002,2260.73606531525],[1.4526358,42.53858130000001,2261.9021598048257],[1.4527227999999994,42.53875640000001,2258.1988800767467],[1.4527891999999998,42.5388236,2255.705565465595],[1.4528619999999994,42.538897399999996,2253.3400900480665],[1.4530706999999994,42.5390427,2247.40933762876],[1.4532621,42.53915800000002,2241.617041855933],[1.4534417999999993,42.53925630000001,2233.295000431915],[1.453604199999999,42.5392862,2226.4092681920206],[1.4536968999999988,42.5393247,2222.8163305056023],[1.4537490999999994,42.53941010000001,2220.653601187189],[1.4537722999999994,42.539628,2216.579578048],[1.4537258999999993,42.53995270000002,2208.0090204781313],[1.4536331999999992,42.54026459999998,2192.3652124291916],[1.4535287999999988,42.54052090000001,2181.844128883005],[1.4534765999999992,42.54073880000002,2173.34024344292],[1.4534649999999993,42.5409524,2166.1785907199464],[1.4534301999999992,42.5412088,2158.8049535488126],[1.4533953999999993,42.5415292,2149.184768025614],[1.4534243999999987,42.5418325,2141.682239040043],[1.4534765999999992,42.54214870000001,2131.6699772861966],[1.4535113999999993,42.54234520000002,2125.2975999997766],[1.4535113999999993,42.5425802,2118.9421189311456],[1.4534881999999998,42.54278530000001,2115.437217641512],[1.4534475999999998,42.5430117,2111.547174483184],[1.4534417999999993,42.5432936,2104.447614259242],[1.4533199999999993,42.5436397,2093.1786198399996],[1.4532389,42.5439046,2085.584200000059],[1.4530591,42.544216399999996,2076.317550899256],[1.4529082999999994,42.5444428,2071.430181689613],[1.4527808,42.544571,2071.3845692159753],[1.4525894,42.544664999999995,2069.8090609599553],[1.4524096999999994,42.5447205,2067.0431664879848],[1.4522762999999994,42.5447291,2064.2224202767793],[1.4521602999999994,42.544669299999995,2061.8530000000146],[1.452027,42.5445625,2059.358200000006],[1.4518471999999998,42.54441290000001,2056.003679999928],[1.4515978999999994,42.544207899999996,2052.3890121936506],[1.4513021,42.544024199999996,2047.0246842272686],[1.4509425999999999,42.54388749999997,2042.601473200208],[1.4505831,42.5438319,2037.9115763343825],[1.4503043999999994,42.543803999999994,2032.7142400001362],[1.4500269,42.5437996,2026.2182717504031],[1.4496213999999987,42.5438403,2012.6730268896126],[1.4492900999999994,42.5438936,2002.010743654533],[1.4489839999999998,42.5439491,1994.911021376041],[1.4486468,42.5440132,1988.3712452607342],[1.4483194,42.5441068,1983.0006504831492],[1.4480103,42.5442193,1979.484390081536],[1.4476555,42.5443768,1967.9916725119247],[1.4473378,42.5445361,1953.2682897566958],[1.4470907999999993,42.544724499999994,1941.8608012482314],[1.4468596999999994,42.5450065,1931.1412800000128],[1.4467198,42.5452174,1926.3302400000373],[1.446518,42.54543890000002,1921.5605948158347],[1.4463571000000006,42.5456412,1917.648164140835],[1.4461964999999994,42.54585330000001,1911.9203118239116],[1.4460545,42.5460705,1906.439804440021],[1.4458805,42.54623280000001,1903.0253599999382],[1.4457529999999998,42.546314,1901.441631679976],[1.4456039999999992,42.5463195,1900.7175651199773]]},"properties":{"id":"55f79f4f05107e7a24ad9077b2daaa98acb3fef3","name":"Coll de la Botella","difficulty":"easy","oneway":true,"lit":null,"gladed":null,"patrolled":null,"color":"hsl(208, 100%, 33%)","colorName":"blue","grooming":null,"skiAreas":["5ecb06388006e4740e7ce8234e26d036ce85edb7"],"downhill":0}}
,
{"type":"Feature","geometry":{"type":"LineString","coordinates":[[1.4562259999999998,42.5266013,2342.46515999997],[1.4569035,42.5274838,2319.905560000055],[1.4574529999999999,42.5278283,2301.075025903946],[1.4578629999999992,42.52814860000002,2283.8426399998207],[1.4581828000000001,42.5284265,2269.903719999951],[1.4584943999999989,42.52866830000002,2257.079799999835],[1.4588387999999994,42.52888580000001,2245.7900051582947],[1.459257,42.52903090000002,2233.943710495687],[1.4596260999999988,42.52920010000001,2220.8204799999316],[1.4599868999999994,42.52933910000002,2209.2263199998497],[1.4603640999999994,42.52945390000002,2194.5863999998237],[1.4606921,42.52956260000001,2183.864030038252],[1.4610364999999994,42.5296714,2173.6728630560547],[1.4614464999999994,42.52985880000002,2160.225054431794],[1.4618319999999994,42.53007030000001,2142.6605003517707],[1.462242,42.53031200000002,2114.747171839603],[1.4626848,42.53063830000002,2085.2976408190066],[1.4628198,42.5307292,2078.432775539118],[1.4631603999999994,42.53095860000001,2062.726198630262],[1.4635867999999994,42.5312486,2042.6962788992648],[1.464029699999999,42.5315448,2021.628507827241],[1.4643248999999994,42.5317442,2009.4656800000262],[1.4647677,42.531998,1995.1227043519718],[1.4651940999999988,42.5322699,1981.739954500708],[1.4654810999999994,42.53252970000001,1966.600955346995],[1.4656860999999994,42.53283790000001,1948.182196284698],[1.4658555999999998,42.5330658,1939.0027199998626],[1.4658965999999987,42.533083399999995,1937.2300800002458],[1.4659620999999994,42.5331114,1934.4040799998643]]},"properties":{"id":"316033f0acd7ca2950f6cdffb55e23df5b421ccb","name":"Coms","difficulty":"intermediate","oneway":true,"lit":null,"gladed":null,"patrolled":null,"color":"hsl(359, 94%, 53%)","colorName":"red","grooming":null,"skiAreas":["5ecb06388006e4740e7ce8234e26d036ce85edb7"],"downhill":0}}
,
{"type":"Feature","geometry":{"type":"LineString","coordinates":[[1.4741051,42.5306099,2077.352356700773],[1.4741355999999999,42.530687699999994,2076.102550950487],[1.4743241999999992,42.53099860000001,2070.739813715111],[1.4745534,42.5313512,2058.841036492647],[1.4745124,42.5317742,2035.8249599999508],[1.4743484,42.53221530000003,2015.6275673211358],[1.4741105,42.53275320000002,1991.909581311665],[1.4738644999999988,42.5332305,1973.892799999931],[1.4737168999999994,42.53357500000001,1957.4641999997318],[1.4734135,42.533804599999996,1946.0284944321386],[1.4728559,42.53399190000001,1932.4018649582763],[1.4722573,42.5340221,1924.6846788367416],[1.4716011999999992,42.5339617,1912.4007435584276],[1.4711962999999988,42.53391530000003,1906.7144417308525],[1.470754,42.5338711,1901.212400000036],[1.4705384,42.5338786,1897.1805448191506],[1.4700297999999994,42.5338531,1893.2452799999487]]},"properties":{"id":"acf838261b83a855112f5a1b044d860f1f601613","name":"Corpalanca","difficulty":"intermediate","oneway":true,"lit":null,"gladed":null,"patrolled":null,"color":"hsl(359, 94%, 53%)","colorName":"red","grooming":null,"skiAreas":["5ecb06388006e4740e7ce8234e26d036ce85edb7"],"downhill":0}}
,
{"type":"Feature","geometry":{"type":"LineString","coordinates":[[1.4903673,42.5366307,1900.903519999975],[1.4893012999999988,42.5370114,1884.1504818016713],[1.4879317999999988,42.53741630000001,1852.838852259079],[1.4865705,42.53767,1825.0236000000377],[1.4855585,42.5378759,1804.5909199999228],[1.4854471,42.537899599999996,1801.9299027328934],[1.4847829000000001,42.537808999999996,1791.4874546880549],[1.4844565,42.53772,1790.1358271999964]]},"properties":{"id":"00ad5984357d14293841d3e1a99c6f35d3d06cca","name":"el Bec","difficulty":"easy","oneway":true,"lit":null,"gladed":null,"patrolled":null,"color":"hsl(208, 100%, 33%)","colorName":"blue","grooming":null,"skiAreas":["5ecb06388006e4740e7ce8234e26d036ce85edb7"],"downhill":0}}
,
{"type":"Feature","geometry":{"type":"LineString","coordinates":[[1.4778088999999994,42.5324268,1993.9183295614823],[1.4780467,42.53273500000003,1985.3492104796933],[1.4783336999999994,42.53318220000001,1962.157725442883],[1.4785059,42.5336898,1938.6124551328908],[1.4786698999999994,42.53431220000002,1913.2644702844673],[1.4787848,42.53464449999998,1901.2676400002692],[1.4789733999999994,42.5348439,1891.8679707104734],[1.4791865999999998,42.53497690000001,1884.0326551230105],[1.4795719999999994,42.5350735,1876.017912959859],[1.4800476,42.5352065,1869.5905780479532],[1.4806051999999998,42.53539980000002,1860.9536237564391],[1.4810507,42.53553840000002,1851.9263999996124],[1.4810686999999993,42.5356064,1848.0993065472596],[1.4809918999999994,42.5356631,1844.9715935855613]]},"properties":{"id":"0f4b5eb0c8cb764ae4eb4cf4dc009d706a4f5f5c","name":"el Besurt","difficulty":"intermediate","oneway":true,"lit":null,"gladed":null,"patrolled":null,"color":"hsl(359, 94%, 53%)","colorName":"red","grooming":null,"skiAreas":["5ecb06388006e4740e7ce8234e26d036ce85edb7"],"downhill":0}}
,
{"type":"Feature","geometry":{"type":"LineString","coordinates":[[1.4741715999999998,42.53032820000002,2079.6078875903536],[1.4732182999999994,42.53023880000002,2073.9251279552414],[1.4726359999999998,42.53023880000002,2072.140319999977],[1.4721522,42.5302147,2070.9499999999857],[1.4716847999999993,42.5301965,2066.3933181439656],[1.4712337999999994,42.5302026,2058.883743724753],[1.4707128,42.53025260000001,2050.5853599999223],[1.4703525000000006,42.53029030000001,2046.3925795598586],[1.4701956999999994,42.53032280000002,2043.2930627965432],[1.4699569,42.5303637,2039.5366177263281],[1.4697703999999994,42.5304344,2036.9176972289065],[1.4695833999999994,42.5304856,2035.8956195584572],[1.4694053999999994,42.530548,2034.6189896958597],[1.4692839,42.5306566,2030.5805612703834],[1.4690873,42.5307864,2025.0555857537672],[1.4689067999999994,42.530882999999996,2020.097680000168],[1.4687514,42.53111070000001,2009.531399999748],[1.4687111999999998,42.5312948,2003.31417518087],[1.4687066999999994,42.531427799999996,1998.986991340944],[1.4687404,42.5316711,1990.3504684225268],[1.4688361999999993,42.53187139999999,1981.9424382530851],[1.4688992999999988,42.5320295,1975.6057963759959],[1.4689282999999989,42.53215090000003,1970.7879308907334],[1.4689039,42.5322213,1968.036340587068],[1.4688469,42.5322827,1966.9630894447303],[1.4686588,42.53235990000003,1966.2722514749507],[1.4684538,42.53242030000001,1964.6046085342518],[1.4681504,42.53252910000001,1960.5716770173558],[1.4679453999999994,42.53263180000001,1955.4675197885747],[1.4677485999999993,42.53277690000002,1949.5691080731594],[1.4675435999999993,42.5328977,1947.306645542428],[1.4673139999999998,42.53298230000002,1944.361679999618],[1.4670351999999998,42.53301860000001,1941.1114395132827],[1.4667071999999999,42.5330488,1936.7052799998098],[1.4664201,42.53303070000001,1934.0500260268905],[1.4661823,42.5330246,1935.0789592161314],[1.4660290999999994,42.53303500000001,1936.5805056797958],[1.4659849999999994,42.53303800000001,1937.3447503998325],[1.4659620999999994,42.5331114,1934.4040799998643],[1.4660311999999998,42.5331461,1931.1626399998372],[1.4661823,42.53321190000001,1925.6076799997572],[1.4666333999999994,42.53332680000001,1918.412092978908],[1.4671335999999993,42.5334355,1917.1423087358226],[1.4674451999999998,42.53352620000001,1911.9511845501488],[1.4677977999999994,42.53353820000003,1911.2648395578162],[1.4678840999999994,42.5335448,1910.0013324671158],[1.4681913999999994,42.5335685,1907.3252587359177],[1.4684164,42.53359860000001,1905.8422912380756],[1.4685522,42.53361680000001,1904.7337599997977],[1.4688803,42.533640999999996,1900.7982330081838],[1.4688916999999988,42.533641599999996,1900.672760000186],[1.4692001,42.5336591,1898.6073867871482],[1.4694706999999994,42.5336954,1895.1174822976282],[1.4695938999999993,42.53379070000001,1892.7685472414582]]},"properties":{"id":"d01dd61ccbc31f4dc96ecf2deded82285e053c90","name":"el Gall","difficulty":"easy","oneway":true,"lit":null,"gladed":null,"patrolled":null,"color":"hsl(208, 100%, 33%)","colorName":"blue","grooming":null,"skiAreas":["5ecb06388006e4740e7ce8234e26d036ce85edb7"],"downhill":0}}
,
{"type":"Feature","geometry":{"type":"LineString","coordinates":[[1.4888665999999993,42.5348422,1922.8409882176022],[1.4880958,42.53533160000001,1918.4086716925465],[1.4871363999999994,42.53610510000002,1885.246239999783],[1.4862179000000006,42.5368422,1846.9710799999107],[1.4853732999999993,42.537374,1814.819088096001],[1.4849501999999999,42.5375828,1797.9183202175482],[1.4843909,42.537697099999995,1790.122665214483]]},"properties":{"id":"3fc1621c9b54eb65f50b275253c0bd4263fb4cc1","name":"els Avets","difficulty":"easy","oneway":true,"lit":null,"gladed":null,"patrolled":null,"color":"hsl(208, 100%, 33%)","colorName":"blue","grooming":null,"skiAreas":["5ecb06388006e4740e7ce8234e26d036ce85edb7"],"downhill":0}}
,
{"type":"Feature","geometry":{"type":"LineString","coordinates":[[1.4741051,42.5306099,2077.352356700773],[1.4740886,42.53067390000001,2076.337411436741],[1.4737660999999989,42.5311216,2060.2444685696573],[1.4730527,42.5318286,2020.0614215137707],[1.4721671,42.53259000000001,1972.6059454396905],[1.4713141999999992,42.53321240000001,1934.4097991934461],[1.4706089999999998,42.5336656,1906.0004000000295],[1.4700297999999994,42.5338531,1893.2452799999487]]},"properties":{"id":"16d58e63d5169b6bf1171ab524889c82e35cd473","name":"Estadi Eslalom","difficulty":"intermediate","oneway":true,"lit":null,"gladed":null,"patrolled":null,"color":"hsl(359, 94%, 53%)","colorName":"red","grooming":null,"skiAreas":["5ecb06388006e4740e7ce8234e26d036ce85edb7"],"downhill":0}}
,
{"type":"Feature","geometry":{"type":"LineString","coordinates":[[1.4521777,42.539982,2217.7434799999346],[1.4517341999999986,42.540221599999995,2206.5032628226054],[1.4511543999999994,42.54046939999999,2187.0834553347145],[1.4504933999999994,42.540682999999994,2165.3571621762367],[1.4497510999999994,42.5408539,2144.9420056031345],[1.4491364999999994,42.541050399999996,2126.2385112321995],[1.4485333999999994,42.54121280000001,2099.9440436222135],[1.4477911999999986,42.54139220000001,2085.9035520766156],[1.4471649999999994,42.541546,2072.4722272000868],[1.4466199,42.541682699999996,2060.5859177394073],[1.4461907999999994,42.541819499999995,2047.511238624181],[1.4459240999999987,42.54203310000001,2033.3580989486045],[1.4455993999999988,42.5424347,2014.8951700543478],[1.4453789999999993,42.54299,1981.8131999997672],[1.4451819,42.543451399999995,1958.455266387443],[1.4450310999999993,42.5440154,1925.8858400000222],[1.4450079,42.5443828,1914.4926542143778],[1.4451471,42.544716,1909.8977914239797],[1.4453210999999988,42.5449809,1909.7947523808157],[1.4454601999999992,42.5452884,1907.2967270271909],[1.4454833999999994,42.5456046,1907.3923096768299],[1.4454485999999998,42.5459036,1903.7586802815679],[1.4453673999999994,42.54614280000001,1900.5716664575862],[1.4453859999999998,42.5462378,1900.4238224639996],[1.4454364999999993,42.5463091,1900.3282578719914],[1.4456039999999992,42.5463195,1900.7175651199773]]},"properties":{"id":"bf71b28544c96bf527a6d1d65edd9c49f41bf413","name":"Font Roja","difficulty":"intermediate","oneway":true,"lit":null,"gladed":null,"patrolled":null,"color":"hsl(359, 94%, 53%)","colorName":"red","grooming":null,"skiAreas":["5ecb06388006e4740e7ce8234e26d036ce85edb7"],"downhill":0}}
,
{"type":"Feature","geometry":{"type":"LineString","coordinates":[[1.4672356999999994,42.52842580000002,2107.711665987028],[1.4682979999999999,42.52893070000003,2089.4020938558792],[1.4690021,42.52919810000002,2085.2082820413148],[1.4694776999999994,42.52954860000001,2068.6792297885468],[1.4699696999999987,42.52983870000001,2058.54883999971],[1.4702076,42.53001060000001,2051.489477772698],[1.4703989,42.53020280000001,2048.8099440831],[1.4704916999999988,42.53034390000001,2046.4799180942462],[1.4704822,42.5304596,2043.1072713855895],[1.4704801,42.5304849,2042.3579630512688],[1.4703873,42.530596,2037.028658495911],[1.4702134,42.53071130000002,2030.791153606181],[1.4700161999999999,42.5308096,2025.0777142784775],[1.469859699999999,42.53094210000001,2018.5731382494425],[1.4697490999999994,42.53110820000001,2012.193108089414],[1.4697088999999994,42.5311686,2010.410462595175],[1.4696218999999988,42.5314463,2001.290715451243],[1.4696334999999994,42.53171550000001,1990.0757999998007],[1.4697262999999987,42.53207020000002,1973.6486281404568],[1.4698058999999994,42.53229080000001,1962.113709868539],[1.4698248999999988,42.53234360000001,1959.4187221053933],[1.4699176999999994,42.53258290000002,1947.6059999996685],[1.4699524,42.532882,1934.6259143679654],[1.4698771,42.5332238,1915.6440970590916],[1.4698829,42.53350580000002,1903.2098181725435],[1.4698746999999988,42.53385030000001,1892.6602799998664]]},"properties":{"id":"23e2dfd420280c8f84b252d68bce0398cbfc9b3e","name":"Fontanals","difficulty":"intermediate","oneway":true,"lit":false,"gladed":null,"patrolled":null,"color":"hsl(359, 94%, 53%)","colorName":"red","grooming":null,"skiAreas":["5ecb06388006e4740e7ce8234e26d036ce85edb7"],"downhill":0}}
,
{"type":"Feature","geometry":{"type":"LineString","coordinates":[[1.4601609,42.5275498,2256.490526147167],[1.4603503,42.52775130000001,2250.7194799999397],[1.4605445,42.5278969,2244.060464335969],[1.4607360999999994,42.52800010000002,2238.4888839711093],[1.4610312999999988,42.52812100000001,2226.9883999998433],[1.4613497999999994,42.52819850000002,2214.1747709758015],[1.4615752999999994,42.52823240000002,2208.093229113499],[1.4618171999999998,42.52825120000002,2203.017205094344],[1.4621835,42.528212200000034,2197.8050504478665],[1.4624377,42.5281816,2192.704147878335],[1.462743,42.52815340000002,2185.5044391038814],[1.4631074,42.52815600000003,2175.95300902383],[1.4635461999999992,42.52818410000001,2163.3091555135265],[1.4638468999999994,42.52822130000001,2155.5051024462323],[1.4642131,42.52829020000002,2148.0461633949767],[1.4645575000000006,42.52841110000002,2136.0121674398474],[1.4648855,42.528519900000035,2128.4661999997584],[1.4652135,42.528713200000034,2120.5901682555173],[1.4655742999999988,42.52890660000001,2112.3592625246256],[1.4660828000000001,42.52919670000002,2098.719701228613],[1.4664764,42.52952300000001,2085.380453311804],[1.4668375999999999,42.5299466,2065.7594295806857],[1.4671865,42.5303044,2048.6254800000647],[1.4675095999999992,42.5306712,2031.7936359423852],[1.4677227999999993,42.53091290000003,2020.1564799995178],[1.4679359999999992,42.5311546,2009.0887434239787],[1.4682477,42.531420499999996,1999.2053622641447]]},"properties":{"id":"2d1d7fe6ff84a7999ac7ad6d5ca6d2c851abf372","name":"Fontanals de les Roques","difficulty":"intermediate","oneway":true,"lit":null,"gladed":null,"patrolled":null,"color":"hsl(359, 94%, 53%)","colorName":"red","grooming":null,"skiAreas":["5ecb06388006e4740e7ce8234e26d036ce85edb7"],"downhill":0}}
,
{"type":"Feature","geometry":{"type":"LineString","coordinates":[[1.4672368999999994,42.52842530000002,2107.6968371982],[1.4675025999999998,42.52907860000001,2086.572872505505],[1.4675927999999994,42.52932630000002,2081.9845090942636],[1.4676911999999986,42.52968890000001,2076.2055491327437],[1.4678715999999992,42.53014820000001,2053.8396417148606],[1.4680765999999998,42.530547,2035.3696000000627],[1.4682734,42.53093380000002,2015.4530399997307],[1.4685194,42.53133260000001,2001.6211199998247]]},"properties":{"id":"75d59ac82d5cbe6a735f28692211bca011f0b615","name":"la Cot","difficulty":"intermediate","oneway":true,"lit":null,"gladed":null,"patrolled":null,"color":"hsl(359, 94%, 53%)","colorName":"red","grooming":null,"skiAreas":["5ecb06388006e4740e7ce8234e26d036ce85edb7"],"downhill":0}}
,
{"type":"Feature","geometry":{"type":"LineString","coordinates":[[1.4566099,42.5262899,2340.2567200000067],[1.4574899999999993,42.52641610000001,2327.238433440024],[1.457838399999999,42.5264866,2318.450831897592],[1.4584615999999992,42.52675260000002,2302.0920903679857],[1.459166799999999,42.527097,2284.447054464014],[1.4598829,42.52741870000001,2262.6013287231667],[1.4601609,42.5275498,2256.490526147167],[1.4605571000000006,42.52768449999998,2246.9666129520792],[1.4608105,42.5277834,2239.5113525440365],[1.461103299999999,42.5278609,2228.383480000005],[1.4613848999999994,42.52791030000002,2219.2585926062075],[1.4617089999999993,42.527937,2209.711444319973],[1.4621845999999998,42.5278947,2201.957931785645],[1.4627586,42.52781620000001,2187.4734903871895],[1.4632669999999994,42.5277678,2175.543013088024],[1.4637343999999988,42.5277376,2169.060774911969],[1.4642346999999993,42.52769530000001,2160.076843292745],[1.4646446999999994,42.52769530000001,2148.6384866990797],[1.4652279999999998,42.527687799999995,2139.2619923200664],[1.465601099999999,42.5278292,2133.7069354496116],[1.4658586999999994,42.52802670000001,2126.53195999989],[1.4659442999999988,42.52809230000003,2125.0979935710457],[1.4664095,42.52821040000001,2119.572635903866],[1.4672394999999994,42.5284271,2107.6006513039633]]},"properties":{"id":"96b62ab9d7a7cde9aa57ccfd346d49ba02d7bde3","name":"la Serra","difficulty":"intermediate","oneway":true,"lit":null,"gladed":null,"patrolled":null,"color":"hsl(359, 94%, 53%)","colorName":"red","grooming":null,"skiAreas":["5ecb06388006e4740e7ce8234e26d036ce85edb7"],"downhill":0}}
,
{"type":"Feature","geometry":{"type":"LineString","coordinates":[[1.4741715999999998,42.53032820000002,2079.6078875903536],[1.4743351999999998,42.5304043,2078.4282976511986],[1.4745698999999994,42.5305693,2077.0376685887863],[1.4747933999999994,42.53070860000001,2076.2947200000153],[1.4751515,42.5308658,2073.7262663519837],[1.4756453999999994,42.53103390000001,2066.2006867646983],[1.4761035,42.5311604,2057.95778185611],[1.4767238999999994,42.531284299999996,2047.1039636384844],[1.4774024,42.5314638,2037.626960000086],[1.4781445999999998,42.5316432,2028.763920000009],[1.4785968999999994,42.5317672,2023.4319600000981],[1.4791942999999987,42.5319066,2017.0407531552282],[1.4796394999999993,42.53202,2010.0665983999068],[1.4800927,42.53211140000001,2004.7863599997804],[1.4807746999999993,42.5322613,1997.7489999999132],[1.4816311999999991,42.5324649,1984.1507599999582],[1.4822955999999998,42.5326291,1978.3571779967601],[1.4827274,42.53272880000002,1980.0747773949324],[1.4834299999999994,42.5328476,1965.7610067200917],[1.4841168,42.5330093,1963.1314136703254],[1.4847375,42.53319860000001,1962.9434511999218],[1.4852200999999994,42.5335892,1956.107135929563],[1.4856304999999994,42.5339848,1947.805193088013],[1.4860247999999994,42.5342796,1945.8128736768479],[1.4864481,42.534442,1943.3781200000099],[1.4868017999999994,42.5345573,1938.156039999924],[1.4872773,42.5346513,1936.3230054511969],[1.4877411999999992,42.5347069,1935.918733875218],[1.4882514,42.53475390000001,1930.4623572383273],[1.4885240999999994,42.5347809,1926.8046176351784],[1.4887346999999989,42.534821699999995,1923.9945242512879],[1.4888665999999993,42.5348422,1922.8409882176022],[1.4890561,42.53491730000001,1922.1366889375768],[1.4892665999999992,42.534998,1922.7189491839981]]},"properties":{"id":"45c18e4b13882a2584ced43e5da1e1dad45a2f9e","name":"la Serra","difficulty":"easy","oneway":true,"lit":null,"gladed":null,"patrolled":null,"color":"hsl(208, 100%, 33%)","colorName":"blue","grooming":null,"skiAreas":["5ecb06388006e4740e7ce8234e26d036ce85edb7"],"downhill":0}}
,
{"type":"Feature","geometry":{"type":"LineString","coordinates":[[1.4521861,42.5389345,2262.1852548638717],[1.452488,42.53897410000001,2259.31230796786],[1.452546,42.53913640000001,2253.411664895886],[1.4525111999999998,42.5394098,2235.5146051583],[1.4523721,42.5396747,2226.829080000026],[1.4522329,42.5399054,2220.0519488735326],[1.4521777,42.539982,2217.7434799999346],[1.4520358,42.54017890000002,2211.2221156253163],[1.451919799999999,42.5403669,2200.9838596990558],[1.451826999999999,42.540589,2187.1245051201613],[1.4518153999999994,42.5408112,2174.7024238591835],[1.4518617999999988,42.541161499999994,2158.5256800002558],[1.4519313999999988,42.5416229,2138.843759999995],[1.4519777999999994,42.5420843,2120.557804243239],[1.4520009999999999,42.54252010000001,2104.2073574878655],[1.4520358,42.54293020000002,2093.0928630333856],[1.4520705999999999,42.5433575,2079.8884080800167],[1.452059,42.5437419,2070.405502335987],[1.4520936999999994,42.5440581,2065.560978446386],[1.4522096999999994,42.5442973,2064.836719555223],[1.4522677,42.5444853,2064.416319812804],[1.4524096999999994,42.5447205,2067.0431664879848]]},"properties":{"id":"e4aeb0798545a153cb5e9b961cfb05b41f7d86d8","name":"Poselletes","difficulty":"intermediate","oneway":true,"lit":null,"gladed":null,"patrolled":null,"color":"hsl(359, 94%, 53%)","colorName":"red","grooming":null,"skiAreas":["5ecb06388006e4740e7ce8234e26d036ce85edb7"],"downhill":0}}
,
{"type":"Feature","geometry":{"type":"LineString","coordinates":[[1.4562259999999998,42.5266013,2342.46515999997],[1.4557556999999994,42.5269812,2339.360540793585],[1.4552607999999994,42.52733990000002,2333.1074515069363],[1.4550685999999993,42.52834060000002,2315.188179526341],[1.4547831,42.52947560000001,2304.575940985533],[1.4546871000000001,42.529977,2296.403530767959],[1.4546948999999993,42.53021220000002,2294.472159999941],[1.4546181,42.530674499999996,2292.6958529759913],[1.4543309999999998,42.5308657,2295.0475867679997]]},"properties":{"id":"f8d3d47ae76c4b6991f7fff6ea21a92a68bb0f66","name":"Tossa","difficulty":"easy","oneway":true,"lit":null,"gladed":null,"patrolled":null,"color":"hsl(208, 100%, 33%)","colorName":"blue","grooming":null,"skiAreas":["5ecb06388006e4740e7ce8234e26d036ce85edb7"],"downhill":0}}
,
{"type":"Feature","geometry":{"type":"LineString","coordinates":[[1.4888665999999993,42.5348422,1922.8409882176022],[1.488545,42.5349364,1923.4547750400127],[1.4882864,42.5350856,1924.1584932863357],[1.4874777,42.53517690000003,1916.003959999476],[1.4865212999999988,42.53533830000004,1904.2921599994097],[1.4857340999999988,42.53545250000001,1890.5736320797557],[1.4848238999999994,42.53556730000001,1873.3247561710662],[1.4845454,42.53558010000001,1868.989846441458],[1.4841678,42.5355975,1864.4987760799474],[1.4835774,42.53553100000001,1865.486184671733],[1.482987,42.53542830000002,1864.4429840156122],[1.4824211999999992,42.5354827,1858.4020256382134],[1.4820931,42.53554910000001,1852.4513286445456],[1.4814616999999988,42.53563370000001,1846.60495999975],[1.4809918999999994,42.5356631,1844.9715935855613],[1.4805925,42.5356881,1845.6162045599058],[1.480084,42.5357667,1840.95692115175],[1.480002,42.53583310000001,1835.0464158076275],[1.480043,42.5358996,1831.7283818239741],[1.4803055,42.53591770000001,1833.424373767624],[1.4810435,42.53603250000001,1824.8563643997609],[1.4818881,42.5361897,1821.7482149855366],[1.4825031999999998,42.53637090000002,1817.929679999569],[1.4830361999999992,42.5365824,1811.059138124779],[1.483421599999999,42.5368483,1801.770599999871],[1.4837905999999992,42.5371866,1795.550687116856],[1.4842088,42.5376579,1789.827260979216]]},"properties":{"id":"01792d2e9bc2327f3f474ea9668eaecb48c62b68","name":"Transversal","difficulty":"novice","oneway":true,"lit":null,"gladed":null,"patrolled":null,"color":"hsl(125, 100%, 33%)","colorName":"green","grooming":null,"skiAreas":["5ecb06388006e4740e7ce8234e26d036ce85edb7"],"downhill":0}}
,
{"type":"Feature","geometry":{"type":"LineString","coordinates":[[1.4527891999999998,42.5388236,2255.705565465595],[1.4529982999999989,42.5394868,2234.767218355243],[1.4531606999999989,42.5399994,2213.6465823968315],[1.4532650999999994,42.54048649999998,null],[1.4534505999999998,42.541041899999996,2163.765589228913]]},"properties":{"id":"7fa05c96c37c32d602cf80761ecced6f11d96618","name":null,"difficulty":"intermediate","oneway":true,"lit":null,"gladed":null,"patrolled":null,"color":"hsl(359, 94%, 53%)","colorName":"red","grooming":null,"skiAreas":["5ecb06388006e4740e7ce8234e26d036ce85edb7"],"downhill":0}}
,
{"type":"Feature","geometry":{"type":"LineString","coordinates":[[1.489698799999999,42.5349054,1923.3188799999966],[1.4899050999999994,42.53516570000002,1920.8937199999204],[1.4902767,42.53540320000001,1912.847496204684],[1.4905435,42.5355844,1907.6190266880344],[1.4908109,42.5356606,1906.487360000001],[1.4909735,42.5356842,1906.1475200000204],[1.491218,42.5356486,1906.660159999974]]},"properties":{"id":"bd00ebc93b1d085c981598c49854ffd6d4d46417","name":null,"difficulty":"novice","oneway":true,"lit":null,"gladed":null,"patrolled":null,"color":"hsl(125, 100%, 33%)","colorName":"green","grooming":null,"skiAreas":["5ecb06388006e4740e7ce8234e26d036ce85edb7"],"downhill":0}}
,
{"type":"Feature","geometry":{"type":"LineString","coordinates":[[1.4630784,42.57211310000003,2083.781452838118],[1.4638698999999988,42.5719609,2080.836470353592],[1.4646576,42.57206890000001,2053.020296076705],[1.4656353999999994,42.57210490000002,2035.419295791855],[1.4664557,42.57211290000004,2026.7493828460679],[1.4674449999999994,42.57210990000002,2009.336096719832],[1.4680929,42.57216220000002,2001.9168383615095],[1.4686278,42.57219780000001,1977.6892777661894],[1.4691241999999987,42.5722648,1966.3384131072291]]},"properties":{"id":"0bfa895a7229ee335144f7eae1df6859a5625226","name":"Bony","difficulty":"intermediate","oneway":true,"lit":null,"gladed":null,"patrolled":null,"color":"hsl(359, 94%, 53%)","colorName":"red","grooming":"classic","skiAreas":["5ecb06388006e4740e7ce8234e26d036ce85edb7"],"downhill":0}}
,
{"type":"Feature","geometry":{"type":"LineString","coordinates":[[1.4506217999999989,42.570781,2346.7490318398604],[1.4510333999999994,42.5706087,2328.0194400000696],[1.4512234999999993,42.5704407,2315.637910039967],[1.4513375999999998,42.5702286,2307.6360313344053],[1.4513451999999998,42.56985830000002,2303.3145600000016]]},"properties":{"id":"d2e42d8b91a4504c34414b9fbf16353cac1cf8dd","name":null,"difficulty":"easy","oneway":true,"lit":null,"gladed":null,"patrolled":null,"color":"hsl(208, 100%, 33%)","colorName":"blue","grooming":"classic","skiAreas":["5ecb06388006e4740e7ce8234e26d036ce85edb7"],"downhill":0}}
,
{"type":"Feature","geometry":{"type":"LineString","coordinates":[[1.4543488,42.5678118,2256.4535199999796],[1.4549781,42.567823999999995,2247.8906010240407],[1.4559830999999994,42.5678961,2240.3992811872286],[1.456635,42.56806810000001,2235.6438682398593],[1.457221599999999,42.56813210000004,2230.9729317626516],[1.4576561999999993,42.56821610000002,2224.6775138685266],[1.4579658999999994,42.56841220000003,2215.8451599995446],[1.4583624,42.56867620000001,2202.681839999811],[1.4589105,42.56918250000001,2185.4815999999328]]},"properties":{"id":"cdec2e98ae4b015dcad527a7cf9a1f6841a47448","name":null,"difficulty":"novice","oneway":true,"lit":null,"gladed":null,"patrolled":null,"color":"hsl(125, 100%, 33%)","colorName":"green","grooming":"mogul","skiAreas":["5ecb06388006e4740e7ce8234e26d036ce85edb7"],"downhill":0}}
,
{"type":"Feature","geometry":{"type":"LineString","coordinates":[[1.4539805,42.53202190000001,2291.5202757040415],[1.4544902999999993,42.5315567,2288.350055611144],[1.4550003999999994,42.53126399999999,2289.3465674240747],[1.4558049999999993,42.53070890000002,2281.806108079871],[1.4564609,42.53020330000001,2276.5865474287425],[1.4570360999999994,42.529880399999996,2268.5647075776665],[1.4576558,42.52952720000001,2257.164559999915],[1.4580665999999998,42.52930520000003,2250.290330892546],[1.4585390999999994,42.52907560000001,2246.5224799998764],[1.4593890999999994,42.52877210000003,2239.011103068437]]},"properties":{"id":"0219f74d958a861951660de8fac7864ad7a8374b","name":"Cami del Mig","difficulty":"easy","oneway":true,"lit":null,"gladed":null,"patrolled":null,"color":"hsl(208, 100%, 33%)","colorName":"blue","grooming":"classic","skiAreas":["5ecb06388006e4740e7ce8234e26d036ce85edb7"],"downhill":0}}
,
{"type":"Feature","geometry":{"type":"LineString","coordinates":[[1.462175,42.52915400000001,2165.536191999778],[1.4629359999999998,42.5294218,2138.4326862079492],[1.4638124,42.52995340000001,2088.911463180644],[1.4646549,42.53049580000001,2051.850517583762],[1.4652139999999998,42.5307667,2037.4538764479662],[1.4656811999999992,42.5309219,2032.6477154175102],[1.4662841,42.5310735,2022.694316592064],[1.4670102999999994,42.5313304,2010.1261191295619],[1.4678164999999994,42.5316623,1994.709751367982],[1.4682837,42.531842399999995,1983.9179198849831],[1.4686105999999999,42.53205120000001,1975.542252851035],[1.4688405999999998,42.53218320000001,1969.8441179133804],[1.4690680999999994,42.53238830000002,1963.64126347819],[1.4693222999999989,42.53277370000002,1946.9368098204984],[1.4695449999999994,42.53317860000002,1918.826639999625],[1.4696636999999988,42.5334391,1904.8843259327116],[1.4698746999999988,42.53385030000001,1892.6602799998664]]},"properties":{"id":"ecad0ee45d56a8d9fe8b78287c8934d8da061a3f","name":null,"difficulty":"intermediate","oneway":true,"lit":null,"gladed":null,"patrolled":null,"color":"hsl(359, 94%, 53%)","colorName":"red","grooming":"classic","skiAreas":["5ecb06388006e4740e7ce8234e26d036ce85edb7"],"downhill":0}}
,
{"type":"Feature","geometry":{"type":"LineString","coordinates":[[1.4697490999999994,42.53110820000001,2012.193108089414],[1.4693802999999994,42.5311893,2010.506879361555],[1.4690036999999994,42.531259999999996,2006.0533200001396],[1.4687066999999994,42.531427799999996,1998.986991340944]]},"properties":{"id":"c604f13d8f7329499e56ffc6887439d10821b644","name":null,"difficulty":"intermediate","oneway":true,"lit":null,"gladed":null,"patrolled":null,"color":"hsl(359, 94%, 53%)","colorName":"red","grooming":"classic","skiAreas":["5ecb06388006e4740e7ce8234e26d036ce85edb7"],"downhill":0}}
,
{"type":"Feature","geometry":{"type":"LineString","coordinates":[[1.4628198,42.5307292,2078.432775539118],[1.4634449999999994,42.5306701,2066.9368625599304],[1.4639654999999994,42.5306166,2059.324859615933],[1.4645852,42.5306808,2046.1241700864339],[1.4652139999999998,42.5307667,2037.4538764479662]]},"properties":{"id":"c46cafcfd8f91ef0b7ed948dbe1c447639c27ba8","name":null,"difficulty":"intermediate","oneway":true,"lit":null,"gladed":null,"patrolled":null,"color":"hsl(359, 94%, 53%)","colorName":"red","grooming":"classic","skiAreas":["5ecb06388006e4740e7ce8234e26d036ce85edb7"],"downhill":0}}
,
{"type":"Feature","geometry":{"type":"LineString","coordinates":[[1.4535679999999993,42.53234580000002,2300.5758399999395],[1.4542260999999994,42.5326241,2274.9985536912254],[1.4545823,42.5328866,2248.496742652854],[1.4549258999999994,42.53313040000001,2227.4348441854368],[1.4551421999999998,42.533346,2212.072432895965],[1.4553585,42.5335054,2200.9408614719136],[1.4555492999999988,42.5336554,2191.230701177595],[1.4559309999999992,42.5337679,2176.131502895977],[1.4562363999999994,42.533993,2158.5508702079046],[1.4565545,42.534218,2139.2583777599357],[1.4568598,42.5344336,2123.390014924809],[1.4571905999999992,42.5346117,2111.413046704026],[1.4576390999999989,42.5348023,2096.9785618143396],[1.4579554,42.5349249,2088.605120000001],[1.4582059,42.53510590000003,2076.063755324274],[1.4584660999999994,42.53526570000001,2063.588538299039],[1.4587984999999994,42.53538820000002,2053.1732469917442],[1.4591381999999993,42.53552130000001,2040.393288665299],[1.459369499999999,42.5356278,2032.8489087519858],[1.4597452999999994,42.53577690000002,2018.6287570651455],[1.4599773999999994,42.5358417,2012.9152105632475],[1.4602221,42.53592030000002,2007.4563475100406],[1.4605107,42.53597570000002,2002.63920345874],[1.4607868,42.53603580000002,1998.0086180220121],[1.4609105999999998,42.5360655,1996.207452256027],[1.4611147999999994,42.53612020000001,1993.5427890428864],[1.461334499999999,42.5361886,1990.5432392638795],[1.4615012999999988,42.5362798,1988.244531859073],[1.4615944999999988,42.53632310000001,1987.4132979357944],[1.4616672999999993,42.53635890000003,1986.5175415530737],[1.4618069999999994,42.5364141,1985.0166441438923],[1.4618940999999988,42.5364543,1983.345675185434],[1.4620640999999994,42.53651250000002,1979.9426163995213],[1.4621714,42.53653790000001,1978.4036258748376],[1.4622827,42.53654080000001,1978.1308532861365],[1.4624911999999992,42.5365856,1974.9837145086674],[1.4626289,42.5365841,1975.7555437520582],[1.4627807,42.53657810000002,1976.8122058028994],[1.4629872,42.53654080000001,1977.3419037694177],[1.4631591999999998,42.53650500000001,1976.258052479814],[1.4633131,42.53645280000001,1974.6189629182127],[1.4634506999999994,42.53639620000001,1972.4426421790627],[1.463552,42.5363216,1970.3930746879928],[1.4636936999999988,42.5362395,1966.0799226080094],[1.463778699999999,42.53617690000002,1963.1755806175847],[1.4638413999999988,42.53609630000001,1960.8805600000096],[1.4638636999999988,42.53601880000002,1959.9974800000127],[1.4638779,42.53576820000002,1958.4972400000997],[1.4638494999999994,42.53564890000001,1957.903960000086],[1.4637867999999994,42.5354505,1957.012723936068],[1.4637401999999993,42.53530880000003,1955.9709800706073],[1.4636693999999988,42.53514920000001,1956.512960000081],[1.4636187999999994,42.5350641,1957.4154799999992],[1.4635033999999993,42.5349418,1961.315323475201],[1.4634992999999987,42.53484039999999,1960.9123918911787],[1.4635640999999988,42.5347792,1957.5756454912319],[1.4636227999999993,42.5347062,1954.825519999968],[1.4636451,42.534621099999995,1955.4742400000864],[1.4636775,42.534488399999994,1956.579800000117],[1.463728099999999,42.5344242,1956.2610024225614],[1.4638413999999988,42.5344063,1952.7326113183813],[1.4640316999999994,42.5343899,1948.049247396766],[1.4642381999999998,42.53434520000001,1944.2349532542135],[1.4644891999999998,42.53421390000001,1941.697956844612],[1.4648154,42.5339633,1942.8563376670525],[1.4651713999999993,42.53363810000001,1941.8637264254858],[1.4653494999999994,42.5334606,1939.6089830880578],[1.4654871999999999,42.533307,1939.7736967679823],[1.4656551999999998,42.53315630000002,1939.524356582085],[1.4658130999999994,42.53310260000002,1938.0671770940844],[1.4658965999999987,42.533083399999995,1937.2300800002458]]},"properties":{"id":"10e47eabc60d7a1d2c8216146555e1193ac2f217","name":"La Comellada","difficulty":"advanced","oneway":true,"lit":false,"gladed":null,"patrolled":null,"color":"hsl(0, 0%, 0%)","colorName":"black","grooming":null,"skiAreas":["5ecb06388006e4740e7ce8234e26d036ce85edb7"],"downhill":0}}
,
{"type":"Feature","geometry":{"type":"LineString","coordinates":[[1.44681,42.5655696,2462.8956441599744],[1.4469982999999988,42.56537880000003,2463.495299443141],[1.4471755,42.56520530000003,2462.217446744232],[1.4475019999999994,42.56508510000001,2458.840948416098],[1.4477654999999994,42.565049,2458.6769937600266],[1.4481083,42.56506620000001,2457.30028679037],[1.4483740999999994,42.56501470000001,2455.841394225427],[1.4486141999999993,42.5649632,2451.830405888007],[1.4488784,42.5648595,2450.0787449600393]]},"properties":{"id":"3465a254a5e747b187a3bbb8b1319b555bf0915e","name":"Acces TK La Pala","difficulty":"intermediate","oneway":true,"lit":false,"gladed":null,"patrolled":null,"color":"hsl(359, 94%, 53%)","colorName":"red","grooming":null,"skiAreas":["5ecb06388006e4740e7ce8234e26d036ce85edb7"],"downhill":0}}
,
{"type":"Feature","geometry":{"type":"LineString","coordinates":[[1.4888665999999993,42.5348422,1922.8409882176022],[1.4894576,42.534869699999994,1923.0618399999598],[1.489698799999999,42.5349054,1923.3188799999966]]},"properties":{"id":"5e7de590e5c9da03567c7545ce0b1c71c58f2ea8","name":"la Serra","difficulty":"easy","oneway":true,"lit":null,"gladed":null,"patrolled":null,"color":"hsl(208, 100%, 33%)","colorName":"blue","grooming":null,"skiAreas":["5ecb06388006e4740e7ce8234e26d036ce85edb7"],"downhill":0}}
,
{"type":"Feature","geometry":{"type":"LineString","coordinates":[[1.4694885999999998,42.57351680000002,1942.3101899008072],[1.4693463999999994,42.5735219,1945.9370366336016],[1.4693371999999998,42.5736795,1945.4061342080327]]},"properties":{"id":"a5b7be2b36f44f086f56d16e5be3bb305aacb91e","name":null,"difficulty":"novice","oneway":true,"lit":null,"gladed":null,"patrolled":null,"color":"hsl(125, 100%, 33%)","colorName":"green","grooming":null,"skiAreas":["5ecb06388006e4740e7ce8234e26d036ce85edb7"],"downhill":0}}
,
{"type":"Feature","geometry":{"type":"LineString","coordinates":[[1.4694885999999998,42.57351680000002,1942.3101899008072],[1.4696004999999994,42.5732437,1940.0097183760008],[1.4704785999999999,42.5736042,1928.1441344896098],[1.4703991999999992,42.57373980000001,1928.0641889535523]]},"properties":{"id":"af7747286a8b620865f4f3c2e5f991734a06daf4","name":"Beginner Area","difficulty":"novice","oneway":true,"lit":null,"gladed":null,"patrolled":null,"color":"hsl(125, 100%, 33%)","colorName":"green","grooming":null,"skiAreas":["5ecb06388006e4740e7ce8234e26d036ce85edb7"],"downhill":0}}
,
{"type":"Feature","geometry":{"type":"LineString","coordinates":[[1.4691241999999987,42.5722648,1966.3384131072291],[1.4695473,42.572915900000034,1941.7281140815196],[1.4696004999999994,42.5732437,1940.0097183760008]]},"properties":{"id":"519dd35ee7955617340fdbc1182e8c6ec6f3630b","name":null,"difficulty":"easy","oneway":true,"lit":null,"gladed":null,"patrolled":null,"color":"hsl(208, 100%, 33%)","colorName":"blue","grooming":null,"skiAreas":["5ecb06388006e4740e7ce8234e26d036ce85edb7"],"downhill":0}}
,
{"type":"Feature","geometry":{"type":"LineString","coordinates":[[1.4700857,42.5739925,1931.890957959991],[1.4703931,42.5737608,1927.9464414207807]]},"properties":{"id":"4973b9b9bb38fb69658a476321318fc043e35d21","name":null,"difficulty":"novice","oneway":true,"lit":null,"gladed":null,"patrolled":null,"color":"hsl(125, 100%, 33%)","colorName":"green","grooming":null,"skiAreas":["5ecb06388006e4740e7ce8234e26d036ce85edb7"],"downhill":0}}
,
{"type":"Feature","geometry":{"type":"LineString","coordinates":[[1.4708459999999999,42.57393920000001,1920.969638144023],[1.4709959,42.5739419,1918.488014403211],[1.4710992999999988,42.5741036,1918.4657474816133],[1.4712599,42.574229599999995,1915.1793870080458],[1.4714005999999993,42.5743946,1908.2604659520516],[1.4716651999999992,42.574667899999994,1888.8412353408949],[1.471934999999999,42.574875999999996,1880.4020000000735]]},"properties":{"id":"04b5a1aed7fc904ead4feea9ac11eebacac9311a","name":"Comallemple","difficulty":"easy","oneway":true,"lit":null,"gladed":null,"patrolled":null,"color":"hsl(208, 100%, 33%)","colorName":"blue","grooming":null,"skiAreas":["5ecb06388006e4740e7ce8234e26d036ce85edb7"],"downhill":0}}
,
{"type":"Feature","geometry":{"type":"LineString","coordinates":[[1.4636313999999988,42.57106039999999,2098.0730399999998],[1.464334699999999,42.5710361,2094.4955955807905]]},"properties":{"id":"7cc68c68326c84f9042d56d601304639fc4947b6","name":null,"difficulty":null,"oneway":true,"lit":null,"gladed":null,"patrolled":null,"color":"hsl(0, 0%, 35%)","colorName":"grey","grooming":null,"skiAreas":["5ecb06388006e4740e7ce8234e26d036ce85edb7"],"downhill":0}}
,
{"type":"Feature","geometry":{"type":"LineString","coordinates":[[1.4508095999999993,42.56924830000001,2301.0023017856547],[1.4513981999999992,42.568952200000034,2291.204520122049],[1.4523609,42.56873890000004,2275.994470369924],[1.4533823,42.5688778,2262.34771419522],[1.4545362999999993,42.56905020000002,2247.3388000000996],[1.4558425,42.5694219,2226.3480400000417],[1.4560331,42.56952260000001,2226.217800000223],[1.4563595999999999,42.5699114,2229.251755712055]]},"properties":{"id":"75f842e61c589db275ea8e3a9b23cc4fe3306449","name":"Snow Park","difficulty":"easy","oneway":true,"lit":null,"gladed":null,"patrolled":null,"color":"hsl(208, 100%, 33%)","colorName":"blue","grooming":null,"skiAreas":["5ecb06388006e4740e7ce8234e26d036ce85edb7"],"downhill":0}}
,
{"type":"Feature","geometry":{"type":"LineString","coordinates":[[1.4501884,42.5693016,2304.5788581376337],[1.450718,42.5690073,2299.011937088032]]},"properties":{"id":"07af6e4f8fb985d480abe811cea32e25a1e975e0","name":null,"difficulty":"easy","oneway":true,"lit":null,"gladed":null,"patrolled":null,"color":"hsl(208, 100%, 33%)","colorName":"blue","grooming":null,"skiAreas":["5ecb06388006e4740e7ce8234e26d036ce85edb7"],"downhill":0}}
,
{"type":"Feature","geometry":{"type":"LineString","coordinates":[[1.4521161999999999,42.5679778,2279.4327202687864],[1.4525611999999992,42.5682879,2269.377159999978]]},"properties":{"id":"128e3e9070730e5d724ecf6fcf766b6792a5311c","name":null,"difficulty":"intermediate","oneway":true,"lit":null,"gladed":null,"patrolled":null,"color":"hsl(359, 94%, 53%)","colorName":"red","grooming":null,"skiAreas":["5ecb06388006e4740e7ce8234e26d036ce85edb7"],"downhill":0}}
,
{"type":"Feature","geometry":{"type":"LineString","coordinates":[[1.4563595999999999,42.5699114,2229.251755712055],[1.4563499,42.5702461,2229.649160000011]]},"properties":{"id":"681b10b86ca944f1e0a4ab9e53cf5498f554d1d2","name":"Route to Snow Park","difficulty":"easy","oneway":false,"lit":null,"gladed":null,"patrolled":null,"color":"hsl(208, 100%, 33%)","colorName":"blue","grooming":null,"skiAreas":["5ecb06388006e4740e7ce8234e26d036ce85edb7"],"downhill":0}}
,
{"type":"Feature","geometry":{"type":"LineString","coordinates":[[1.4563499,42.5702461,2229.649160000011],[1.4563725,42.5705364,2227.3698513599857]]},"properties":{"id":"cfb925e5aa20e19fb0e4060e4891fa22818515a1","name":null,"difficulty":"easy","oneway":true,"lit":null,"gladed":null,"patrolled":null,"color":"hsl(208, 100%, 33%)","colorName":"blue","grooming":null,"skiAreas":["5ecb06388006e4740e7ce8234e26d036ce85edb7"],"downhill":0}}
,
{"type":"Feature","geometry":{"type":"LineString","coordinates":[[1.4583102,42.5709416,2191.1787231487697],[1.4614832999999994,42.5713546,2112.2157252128127],[1.4629585,42.571326,2102.2350083200113],[1.4636414999999994,42.571417499999995,2096.5429272000724],[1.4637046999999987,42.57137570000001,2097.06347696158],[1.4636142999999988,42.57124099999999,2097.5385119520242]]},"properties":{"id":"f9fe3b6317e2e44f6a39309ce632f75ca0fbcf25","name":"Niu","difficulty":"easy","oneway":true,"lit":null,"gladed":null,"patrolled":null,"color":"hsl(208, 100%, 33%)","colorName":"blue","grooming":null,"skiAreas":["5ecb06388006e4740e7ce8234e26d036ce85edb7"],"downhill":0}}
,
{"type":"Feature","geometry":{"type":"LineString","coordinates":[[1.4640177,42.572274,2072.381159999997],[1.4657691999999989,42.5728154,2027.687430387235]]},"properties":{"id":"8c34cde8527c9032219c923169c1bbd1a6ebcde9","name":null,"difficulty":"easy","oneway":true,"lit":null,"gladed":null,"patrolled":null,"color":"hsl(208, 100%, 33%)","colorName":"blue","grooming":null,"skiAreas":["5ecb06388006e4740e7ce8234e26d036ce85edb7"],"downhill":0}}
,
{"type":"Feature","geometry":{"type":"LineString","coordinates":[[1.4695938999999993,42.53379070000001,1892.7685472414582],[1.4688949999999994,42.5339072,1889.6454995199713]]},"properties":{"id":"5a4e546420a207fb5739229a4da670c53d01fdc7","name":null,"difficulty":"easy","oneway":true,"lit":null,"gladed":null,"patrolled":null,"color":"hsl(208, 100%, 33%)","colorName":"blue","grooming":null,"skiAreas":["5ecb06388006e4740e7ce8234e26d036ce85edb7"],"downhill":0}}
,
{"type":"Feature","geometry":{"type":"LineString","coordinates":[[1.4558083999999993,42.5704231,2237.495758841605],[1.4561124,42.5703692,2231.655432883193],[1.4563499,42.5702461,2229.649160000011]]},"properties":{"id":"1a97682e627c8fdcf771cad32c88b3b65aad2164","name":"Route to Snow Park","difficulty":null,"oneway":true,"lit":null,"gladed":null,"patrolled":null,"color":"hsl(0, 0%, 35%)","colorName":"grey","grooming":null,"skiAreas":["5ecb06388006e4740e7ce8234e26d036ce85edb7"],"downhill":0}}
]}
