{"type": "FeatureCollection", "features":[
{"type":"Feature","geometry":{"type":"LineString","coordinates":[[1.5138581999999998,42.5472953,1237.565454921608],[1.5129537,42.5468919,1252.693727132806],[1.5125661999999993,42.54671980000001,1263.3222916990808],[1.5111061999999993,42.5460702,1306.6236721792325],[1.5105583,42.5458265,1309.9361230479892],[1.5055045999999992,42.5435817,1488.811852118491],[1.5007856,42.541485699999996,1664.9925890306026],[1.4972443999999994,42.53991280000003,1807.6648098812377],[1.4947952999999994,42.5388249,1883.8446831087758],[1.4926991999999992,42.5378939,1919.3447448447948],[1.4911408,42.5372017,1902.8141437056079]]},"properties":{"id":"14c85ad1446870762fb8ae64416ef773b865bde0","name_and_type":"Telecabina La Massana, Cable Car La Massana (16p Gondola - 08:00)","color":"hsl(0, 82%, 42%)","status":"operating","skiAreas":["5ecb06388006e4740e7ce8234e26d036ce85edb7"]}}
,
{"type":"Feature","geometry":{"type":"LineString","coordinates":[[1.4834413999999994,42.5726073,1475.317680000031],[1.4828801999999999,42.57263020000001,1474.6020535616567],[1.4803379,42.57273420000001,1553.9479404289136],[1.4799704999999994,42.57274920000001,1572.5836975680902],[1.4783174000000001,42.57281680000001,1681.148060672248],[1.4769396999999989,42.5728731,1763.2486988273154],[1.4754888,42.57293250000002,1839.9656617602116],[1.4751174,42.5729476,1850.9721422847997],[1.4716958999999994,42.57308749999998,1903.2081878001059],[1.4712125,42.57310730000001,1917.9623199999164]]},"properties":{"id":"3403cf39ffd9f052b4e5deaafe82812bab14207d","name_and_type":"els Orriols (Gondola)","color":"hsl(0, 82%, 42%)","status":"operating","skiAreas":["5ecb06388006e4740e7ce8234e26d036ce85edb7"]}}
,
{"type":"Feature","geometry":{"type":"LineString","coordinates":[[1.479965399999999,42.5769591,1553.8250564287673],[1.4796885999999998,42.5768457,1562.808763795207],[1.4789009999999998,42.5765231,1599.8646684479013],[1.4781508,42.57621580000002,1629.6527753851094],[1.4769635999999993,42.5757294,1681.032812441595],[1.4758656999999988,42.5752797,1740.107193681574],[1.4751085999999998,42.574969499999995,1786.1028948162539],[1.4742519,42.5746186,1821.1239764063992],[1.4728607999999994,42.5740487,1863.9674047744304],[1.4718430999999994,42.5736318,1893.4325200000135],[1.4713664999999994,42.5734366,1907.529519999996],[1.4710010999999994,42.5732869,1920.0388759072162]]},"properties":{"id":"9e8d3629ba2f2f6317ecd0208fb83b531c91433d","name_and_type":"Arinsal (6p Chairlift)","color":"hsl(0, 82%, 42%)","status":"operating","skiAreas":["5ecb06388006e4740e7ce8234e26d036ce85edb7"]}}
,
{"type":"Feature","geometry":{"type":"LineString","coordinates":[[1.4902476,42.5364238,1901.6126922495882],[1.4898919999999993,42.53605380000001,1902.8816572159599],[1.4891743999999993,42.535307,1918.7591336959638],[1.4888793999999994,42.53500010000001,1920.9981999999125]]},"properties":{"id":"6a02be884b37d0e9bc2630d98ed988fdcdb74cd8","name_and_type":"la Caubella (Double)","color":"hsl(0, 82%, 42%)","status":"operating","skiAreas":["5ecb06388006e4740e7ce8234e26d036ce85edb7"]}}
,
{"type":"Feature","geometry":{"type":"LineString","coordinates":[[1.4898795999999992,42.5364868,1899.1566400000168],[1.4888171000000001,42.53607290000002,1901.0151510061432],[1.487849399999999,42.53569580000001,1901.869385222243],[1.487107,42.5354066,1906.28991999995],[1.4858435999999993,42.53491430000001,1918.5040799997919],[1.4849461,42.5345647,1917.086771390516],[1.4837011999999992,42.5340797,1926.1912837888208],[1.4826043999999994,42.53365230000002,1939.9723199996947],[1.4822704,42.53352220000002,1945.9875999996602],[1.4815721,42.53324220000001,1950.5698346654276],[1.4800163,42.53261850000001,1980.3834773276292],[1.4795326999999994,42.5324246,1994.708081916854],[1.4763042999999993,42.53113030000002,2055.19033503334],[1.4752587,42.53071110000001,2071.946363894452],[1.4747465,42.53050570000001,2075.6233141360362]]},"properties":{"id":"690152834a678b16e66cc1a7a7bd9f7b984dde56","name_and_type":"la Serra (Double)","color":"hsl(0, 82%, 42%)","status":"operating","skiAreas":["5ecb06388006e4740e7ce8234e26d036ce85edb7"]}}
,
{"type":"Feature","geometry":{"type":"LineString","coordinates":[[1.4845831,42.537589499999996,1793.7256506480855],[1.4849869,42.53728459999998,1809.0906604995232],[1.4858029999999998,42.536668399999996,1848.7122785921429],[1.4867279,42.53597010000002,1883.9547916765507],[1.487294199999999,42.53554250000001,1902.141237279836],[1.4880176,42.5349962,1930.1814184703767],[1.4882139,42.534848,1929.6733658880414]]},"properties":{"id":"91d0d1dc846ffe8ff7640310792d2bfb5db8ad68","name_and_type":"la Carbonera (Quad)","color":"hsl(0, 82%, 42%)","status":"operating","skiAreas":["5ecb06388006e4740e7ce8234e26d036ce85edb7"]}}
,
{"type":"Feature","geometry":{"type":"LineString","coordinates":[[1.4837974999999994,42.5374631,1788.5701756400817],[1.4834181,42.5371831,1790.0851787344],[1.4831434,42.5369804,1792.913200000074],[1.4817636999999988,42.53596220000002,1831.8292330684524],[1.4803229,42.5348989,1883.731479999919],[1.4789512999999994,42.5338867,1930.8558904785295],[1.477932299999999,42.53313460000001,1971.168969926246],[1.476739299999999,42.53225420000001,2014.9492399998378],[1.4755308999999994,42.53136230000001,2055.238936107002],[1.474986,42.5309602,2073.3561173759454],[1.4743925999999998,42.53052220000002,2078.0448234623896]]},"properties":{"id":"ebd978591c3a7750e545c3e1027436fbb503781e","name_and_type":"la Serra 2 (Quad)","color":"hsl(0, 82%, 42%)","status":"operating","skiAreas":["5ecb06388006e4740e7ce8234e26d036ce85edb7"]}}
,
{"type":"Feature","geometry":{"type":"LineString","coordinates":[[1.4524549,42.544464899999994,2066.6243314287667],[1.4524713999999994,42.5441378,2070.2009803967653],[1.4524854,42.543861299999996,2076.6310800001256],[1.452502,42.54353230000003,2087.8639572156526],[1.4525909999999993,42.5417705,2142.3028275200677],[1.452661399999999,42.54037630000001,2200.439956732537],[1.4527027,42.53955830000003,2230.151582366081],[1.4527195999999998,42.53922280000001,2247.225745458925],[1.4527373,42.53887230000002,2256.2502176014873],[1.4527541999999998,42.53853870000003,2259.442900444814],[1.4528159999999999,42.53731360000001,2266.400495103936],[1.4528911999999992,42.53582570000001,2292.5948812670795],[1.4529079999999999,42.5354934,2302.942098688003],[1.4529240999999988,42.53517350000001,2307.194748591985],[1.4529364999999994,42.534928,2308.0212275199992]]},"properties":{"id":"859b4be88979c41a1af11fe77b7c23eef997e23e","name_and_type":"la Botella (Heated Quad)","color":"hsl(0, 82%, 42%)","status":"operating","skiAreas":["5ecb06388006e4740e7ce8234e26d036ce85edb7"]}}
,
{"type":"Feature","geometry":{"type":"LineString","coordinates":[[1.4456039999999992,42.5463195,1900.7175651199773],[1.4459541999999992,42.5459266,1908.48046410877],[1.4463043999999994,42.54553370000002,1919.713286073494],[1.4479446999999988,42.5436933,1998.2190002095642],[1.4487809999999999,42.54275510000002,2052.732839999684],[1.4496928999999994,42.541732,2101.8386399998244],[1.4504658,42.54086469999998,2157.239560000324],[1.4513489999999998,42.5398737,2220.271047711918],[1.4517796999999988,42.5393905,2242.4362154558817],[1.4521861,42.5389345,2262.1852548638717]]},"properties":{"id":"f0be0158a0eddf6c308202db075b32f29e800d80","name_and_type":"Setúria (Quad)","color":"hsl(0, 82%, 42%)","status":"operating","skiAreas":["5ecb06388006e4740e7ce8234e26d036ce85edb7"]}}
,
{"type":"Feature","geometry":{"type":"LineString","coordinates":[[1.4688949999999994,42.5339072,1889.6454995199713],[1.4684686999999994,42.5336613,1902.6511600000658],[1.4678894999999994,42.5333272,1923.4915205758932],[1.4668911999999992,42.5327514,1956.0410399998798],[1.4655585999999998,42.5319827,1992.2175811775833],[1.4643901,42.53130870000001,2025.5353999998197],[1.4630442999999989,42.53053250000002,2079.318756839692],[1.461983299999999,42.5299204,2143.953780063934],[1.4606184,42.52913310000003,2199.6793976828276],[1.4592581,42.52834840000001,2253.920279999833],[1.4579440999999989,42.5275905,2297.1268399999453],[1.4567553,42.5269047,2336.498304134414],[1.4565827,42.52680510000001,2337.756195739195],[1.4563912999999988,42.5266947,2339.873915985603]]},"properties":{"id":"f3d4aa046acd2d5e3ee0ce6caaf8ec4a4df619ef","name_and_type":"El Cubil (6p Chairlift)","color":"hsl(0, 82%, 42%)","status":"operating","skiAreas":["5ecb06388006e4740e7ce8234e26d036ce85edb7"]}}
,
{"type":"Feature","geometry":{"type":"LineString","coordinates":[[1.4709668999999994,42.57243190000001,1927.0767254687669],[1.4700902999999994,42.57233260000003,1935.6516951551066],[1.4689127,42.5721914,1971.8871914911501],[1.4679561999999993,42.57207670000001,2004.93341860158],[1.4669316999999988,42.57195390000001,2021.0607617551336],[1.4657139999999993,42.571807899999996,2043.6959600001571],[1.4642053,42.5716269,2080.0012734640673],[1.4628586,42.571465499999995,2102.08900676805],[1.4609364999999994,42.571235,2124.1887335999845],[1.4595057999999994,42.57106339999999,2155.170621651093],[1.4578235999999989,42.570861699999995,2203.2660628543617],[1.4567059,42.5707276,2222.8256815935947],[1.4551061999999992,42.57053580000002,2254.4655294017157],[1.4538952999999988,42.5703906,2272.5862000001057],[1.4521311999999993,42.57017910000001,2295.295685043293],[1.4510031999999993,42.5700438,2307.0293176320206]]},"properties":{"id":"ef0fe8c43eea6b32f54eac08e8ef27e38a19ea28","name_and_type":"les Fonts (6p Chairlift)","color":"hsl(0, 82%, 42%)","status":"operating","skiAreas":["5ecb06388006e4740e7ce8234e26d036ce85edb7"]}}
,
{"type":"Feature","geometry":{"type":"LineString","coordinates":[[1.4703624,42.5746083,1917.937402086358],[1.4697898999999994,42.574373,1934.9206884159955],[1.4689987999999994,42.574047799999995,1949.8597193856451],[1.4682997999999994,42.5737605,1963.839526431975],[1.4671513999999994,42.5732885,1989.3465483680445],[1.4660847,42.57285,2019.2806400000209],[1.4658545999999992,42.57275550000002,2025.2394002240528]]},"properties":{"id":"8b6a30e9cd71b61ae0d3dd7404c5d8a44126e1c2","name_and_type":"el Cortal (Quad)","color":"hsl(0, 82%, 42%)","status":"operating","skiAreas":["5ecb06388006e4740e7ce8234e26d036ce85edb7"]}}
,
{"type":"Feature","geometry":{"type":"LineString","coordinates":[[1.4700297999999994,42.5338531,1893.2452799999487],[1.4738144999999994,42.5305625,2078.314399999955]]},"properties":{"id":"d7f25c972d8acbe8d7548d00ced4d7f55c4d42be","name_and_type":"la Serra (Drag lift)","color":"hsl(0, 82%, 42%)","status":"operating","skiAreas":["5ecb06388006e4740e7ce8234e26d036ce85edb7"]}}
,
{"type":"Feature","geometry":{"type":"LineString","coordinates":[[1.4680286999999994,42.5313772,2001.5680117055545],[1.4671172,42.5309714,2020.3387191168492],[1.4658812999999988,42.5304212,2051.119076275236],[1.4628501,42.5290716,2153.0045056063454],[1.4620965,42.52873610000003,2183.401392415563],[1.4609819,42.52823980000002,2225.345359999755],[1.4603811,42.52797230000002,2245.3872322974],[1.4593885,42.5275304,2272.4248399998905],[1.4578954999999993,42.5268657,2315.743519999978],[1.457168699999999,42.52654210000002,2331.538301676782],[1.4567085999999998,42.52633720000002,2339.2381706368255]]},"properties":{"id":"ea843303116cd0e4ff62aebf00768767886c43f5","name_and_type":"el Cubil (Drag lift)","color":"hsl(0, 82%, 42%)","status":"operating","skiAreas":["5ecb06388006e4740e7ce8234e26d036ce85edb7"]}}
,
{"type":"Feature","geometry":{"type":"LineString","coordinates":[[1.4601286999999994,42.5301064,2188.019030092787],[1.4554604999999994,42.52737300000001,2332.4718538398706]]},"properties":{"id":"1ea7faa27d7bffdf77a392149b910d426f43011f","name_and_type":"els Coms (Drag lift)","color":"hsl(0, 82%, 42%)","status":"operating","skiAreas":["5ecb06388006e4740e7ce8234e26d036ce85edb7"]}}
,
{"type":"Feature","geometry":{"type":"LineString","coordinates":[[1.4522639999999998,42.54531150000001,2066.005541440008],[1.4488574,42.554368399999994,2204.486806566293],[1.4446335,42.56559640000001,2474.68088457619],[1.4444791,42.5660066,2492.951279404874]]},"properties":{"id":"0f0f3f4c05a1b8f00c35c2b9b9b8e7ecdb72412a","name_and_type":"Arinsal-Pal (50p Cable Car)","color":"hsl(0, 82%, 42%)","status":"operating","skiAreas":["5ecb06388006e4740e7ce8234e26d036ce85edb7"]}}
,
{"type":"Feature","geometry":{"type":"LineString","coordinates":[[1.4488784,42.5648595,2450.0787449600393],[1.4533577,42.563449,2534.5657064320576]]},"properties":{"id":"82ed1c204b9499a0e06cfbd63d301791a430061f","name_and_type":"la Capa (Platter)","color":"hsl(0, 82%, 42%)","status":"operating","skiAreas":["5ecb06388006e4740e7ce8234e26d036ce85edb7"]}}
,
{"type":"Feature","geometry":{"type":"LineString","coordinates":[[1.4709073,42.572291,1928.8216981440019],[1.4696986999999988,42.57196,1961.400160000128],[1.4684416999999994,42.5716157,2011.4830592174712],[1.4670343999999989,42.5712303,2043.6992130686172],[1.4661412999999994,42.5709857,2070.7442257679286],[1.4654189,42.5707878,2098.536806249712],[1.4638565,42.57035990000002,2117.3434632475905],[1.4626342999999988,42.5700251,2133.149043735921],[1.461041299999999,42.56958880000001,2152.788805977511],[1.4602906999999994,42.56938320000001,2168.752616729539],[1.4593910999999988,42.56913680000003,2182.2442399997203],[1.4591641999999991,42.5690747,2185.6723400095602]]},"properties":{"id":"12c117b59e6340e1491c6075b9b19783bb4ac035","name_and_type":"la Tossa (Quad)","color":"hsl(0, 82%, 42%)","status":"operating","skiAreas":["5ecb06388006e4740e7ce8234e26d036ce85edb7"]}}
,
{"type":"Feature","geometry":{"type":"LineString","coordinates":[[1.4563595999999999,42.5699114,2229.251755712055],[1.4508095999999993,42.56924830000001,2301.0023017856547]]},"properties":{"id":"95a433421eb4b2e35d4d3e3bf07b5dd9b20d374c","name_and_type":"els Planels (Drag lift)","color":"hsl(0, 82%, 42%)","status":"operating","skiAreas":["5ecb06388006e4740e7ce8234e26d036ce85edb7"]}}
,
{"type":"Feature","geometry":{"type":"LineString","coordinates":[[1.4541658,42.5310252,2295.690720000007],[1.4521031,42.53396230000001,2312.6273738351238]]},"properties":{"id":"ed6d71389df621b36219a3afe894dc69a0681833","name_and_type":"La Tossa I (Drag lift)","color":"hsl(0, 82%, 42%)","status":"operating","skiAreas":["5ecb06388006e4740e7ce8234e26d036ce85edb7"]}}
,
{"type":"Feature","geometry":{"type":"LineString","coordinates":[[1.4912025,42.5356267,1906.9755199999763],[1.4897882999999994,42.5348979,1922.7891199999808]]},"properties":{"id":"586aa279a2ee52db94e8298fdeb787bc62195dfe","name_and_type":"el Planell I (Magic Carpet)","color":"hsl(0, 82%, 42%)","status":"operating","skiAreas":["5ecb06388006e4740e7ce8234e26d036ce85edb7"]}}
,
{"type":"Feature","geometry":{"type":"LineString","coordinates":[[1.4911313999999993,42.53835640000001,1893.7999852414912],[1.4907025,42.5377977,1894.900840000015]]},"properties":{"id":"96846973551ccbcbe52024670bf4493e3eae5393","name_and_type":"Pedres Blanques II (Magic Carpet)","color":"hsl(0, 82%, 42%)","status":"operating","skiAreas":["5ecb06388006e4740e7ce8234e26d036ce85edb7"]}}
,
{"type":"Feature","geometry":{"type":"LineString","coordinates":[[1.4730051999999998,42.5298219,2071.425208454417],[1.4741801,42.53015060000001,2076.6762588577517]]},"properties":{"id":"db243d322e3ae09544a43f847b088a29145a304e","name_and_type":"Pla de la Cot I (Magic Carpet)","color":"hsl(0, 82%, 42%)","status":"operating","skiAreas":["5ecb06388006e4740e7ce8234e26d036ce85edb7"]}}
,
{"type":"Feature","geometry":{"type":"LineString","coordinates":[[1.4542355,42.5310549,2295.5999848080023],[1.4522319,42.5339742,2312.8036201823593]]},"properties":{"id":"fac247ed5a03e763e38d2609328fe616dcfb42af","name_and_type":"La Tossa II (Drag lift)","color":"hsl(0, 82%, 42%)","status":"operating","skiAreas":["5ecb06388006e4740e7ce8234e26d036ce85edb7"]}}
,
{"type":"Feature","geometry":{"type":"LineString","coordinates":[[1.4703931,42.5737608,1927.9464414207807],[1.4694885999999998,42.57351680000002,1942.3101899008072]]},"properties":{"id":"ceddcc7c1d611ed484d75b3e55880fd9d7897dd4","name_and_type":"l'Escola I (Magic Carpet)","color":"hsl(0, 82%, 42%)","status":"operating","skiAreas":["5ecb06388006e4740e7ce8234e26d036ce85edb7"]}}
,
{"type":"Feature","geometry":{"type":"LineString","coordinates":[[1.4703991999999992,42.57373980000001,1928.0641889535523],[1.4694966999999988,42.5735018,1942.1734910176071]]},"properties":{"id":"48e5d7aa87096df20064667ed8e03916145d0b4a","name_and_type":"l'Escola II (Magic Carpet)","color":"hsl(0, 82%, 42%)","status":"operating","skiAreas":["5ecb06388006e4740e7ce8234e26d036ce85edb7"]}}
,
{"type":"Feature","geometry":{"type":"LineString","coordinates":[[1.4742692999999993,42.5302091,2077.4390097648143],[1.4748115999999998,42.53045,2074.442358400025]]},"properties":{"id":"9a17887f175df050ce92a1539be10bff6caea7c1","name_and_type":"Pla de la Cot II (Magic Carpet)","color":"hsl(0, 82%, 42%)","status":"operating","skiAreas":["5ecb06388006e4740e7ce8234e26d036ce85edb7"]}}
,
{"type":"Feature","geometry":{"type":"LineString","coordinates":[[1.490175,42.5369632,1894.6874399999738],[1.4909085999999998,42.53691770000001,1900.8830719711887]]},"properties":{"id":"91e01f059ce363ab1c07cfb3dd2c5e397e0fa356","name_and_type":"Magic Carpet","color":"hsl(0, 82%, 42%)","status":"operating","skiAreas":["5ecb06388006e4740e7ce8234e26d036ce85edb7"]}}
,
{"type":"Feature","geometry":{"type":"LineString","coordinates":[[1.491214299999999,42.53833670000002,1895.4177023374102],[1.4907959,42.5377932,1896.2943999999666]]},"properties":{"id":"b24bf974e3e127cb1004056800b8826aaa6fb834","name_and_type":"Pedres Blanques I (Magic Carpet)","color":"hsl(0, 82%, 42%)","status":"operating","skiAreas":["5ecb06388006e4740e7ce8234e26d036ce85edb7"]}}
,
{"type":"Feature","geometry":{"type":"LineString","coordinates":[[1.4911646999999988,42.53564,1906.7839999999883],[1.490643,42.53537910000002,1912.6819728958092]]},"properties":{"id":"371de5f0105ab9da5807600ecf9904339a39a2ab","name_and_type":"el Planell II (Magic Carpet)","color":"hsl(0, 82%, 42%)","status":"operating","skiAreas":["5ecb06388006e4740e7ce8234e26d036ce85edb7"]}}
,
{"type":"Feature","geometry":{"type":"LineString","coordinates":[[1.4634918999999988,42.5712068,2097.6555200000053],[1.4631783999999994,42.57113250000001,2100.625904959968],[1.4626656999999994,42.5710032,2111.8311117312064],[1.4613218999999988,42.5706421,2133.366399999991],[1.4595863999999994,42.570151,2153.8886373118603],[1.4575136999999994,42.5695644,2186.9737849536236],[1.4554780999999994,42.56898830000002,2226.573248740794],[1.4534955999999992,42.5684272,2259.1826032639897],[1.4514569,42.5678502,2288.435365315182],[1.4499381999999992,42.567420399999996,2320.8005416065002],[1.4484605,42.5670021,2381.7847790319965],[1.4472627999999994,42.5666631,2427.056355667214],[1.4457242999999982,42.56621070000001,2486.6322313520764]]},"properties":{"id":"e5d227329947b1de248d2c5c2e7e27eca5bad496","name_and_type":"Port Negre (Quad)","color":"hsl(0, 82%, 42%)","status":"operating","skiAreas":["5ecb06388006e4740e7ce8234e26d036ce85edb7"]}}
]}
