{"type": "FeatureCollection", "features":[
{"properties":{"activities":["downhill"],"generated":false,"id":"5ecb06388006e4740e7ce8234e26d036ce85edb7","location":null,"name":"Pal-Arinsal","runConvention":"europe","sources":[{"type":"openstreetmap","id":"relation/4638280"},{"type":"skimap.org","id":1807}],"status":"operating","type":"skiArea","websites":["http://www.vallnord.com/"],"statistics":{"runs":{"byActivity":{"downhill":{"byDifficulty":{"easy":{"count":29,"lengthInKm":20.85836337783022},"novice":{"count":9,"lengthInKm":3.172775951105538},"advanced":{"count":3,"lengthInKm":2.5787306934661585},"intermediate":{"count":21,"lengthInKm":12.346787808472106},"other":{"count":2,"lengthInKm":0.10704381182876538}}}}},"lifts":{"byType":{"gondola":{"count":2,"lengthInKm":3.176295731309711},"chair_lift":{"count":12,"lengthInKm":11.964826900293591},"drag_lift":{"count":6,"lengthInKm":3.2439118652796735},"cable_car":{"count":1,"lengthInKm":2.3879046138398796},"platter":{"count":1,"lengthInKm":0.39896484807186156},"magic_carpet":{"count":9,"lengthInKm":0.7064731319113501}}}}},"type":"Feature","geometry":{"coordinates":[1.4533222792924876,42.545759697593475],"type":"Point"}}
]}
